{"type":"FeatureCollection","features":[{"type":"Feature","properties":{"limit":10,"included_stations":4,"boundary_stations":1,"source_polygon_count":4},"geometry":{"type":"MultiPolygon","coordinates":[[[[121.581541,31.206552],[121.581895,31.206614],[121.584608,31.206823],[121.587503,31.205069],[121.587589,31.205014],[121.587655,31.20466],[121.585277,31.201539],[121.582508,31.201114],[121.580951,31.201861],[121.580773,31.201961],[121.578628,31.203179],[121.578578,31.203535],[121.581541,31.206552]]],[[[121.552518,31.204683],[121.552597,31.204679],[121.5526,31.204678],[121.553248,31.204634],[121.553896,31.20459],[121.555033,31.204512],[121.555009,31.204153],[121.552546,31.204292],[121.552499,31.204323],[121.552422,31.20463],[121.552518,31.204683]]],[[[121.595274,31.211872],[121.595457,31.212039],[121.599298,31.212548],[121.599657,31.212568],[121.603614,31.210465],[121.605999,31.208644],[121.606054,31.208586],[121.606187,31.208252],[121.604278,31.204263],[121.603907,31.203917],[121.60001,31.20071],[121.596117,31.200667],[121.593385,31.20258],[121.589634,31.205019],[121.58957,31.205373],[121.589637,31.205455],[121.593357,31.209982],[121.595274,31.211872]]],[[[121.613715,31.213161],[121.617793,31.213325],[121.618102,31.213247],[121.618102,31.213199],[121.618051,31.213074],[121.617841,31.212858],[121.617721,31.212804],[121.613959,31.21233],[121.613601,31.212292],[121.613536,31.212514],[121.613481,31.212951],[121.61352,31.213013],[121.613596,31.21313],[121.613715,31.213161]]]]}},{"type":"Feature","properties":{"limit":20,"included_stations":12,"boundary_stations":1,"source_polygon_count":12},"geometry":{"type":"MultiPolygon","coordinates":[[[[121.560016,31.207103],[121.560159,31.207052],[121.560524,31.206886],[121.561254,31.206554],[121.561347,31.206206],[121.561295,31.205608],[121.561077,31.205565],[121.56086,31.205522],[121.56073,31.205518],[121.558822,31.205619],[121.558458,31.205598],[121.554922,31.203794],[121.554686,31.198327],[121.554736,31.19797],[121.554475,31.197448],[121.554119,31.197396],[121.550533,31.199072],[121.546617,31.20048],[121.54622,31.20063],[121.544975,31.202427],[121.544808,31.202746],[121.546225536491,31.20500499274524],[121.546107,31.204965],[121.542193,31.207195],[121.540158,31.207789],[121.538312,31.210613],[121.538411,31.210959],[121.53952,31.213872],[121.539567,31.213937],[121.543037,31.217036],[121.547746,31.217407],[121.548934,31.2172],[121.553586,31.215346],[121.553751,31.215173],[121.553785,31.215121],[121.55506,31.212565],[121.555123,31.212211],[121.553895,31.210528],[121.55344217315694,31.209992755276716],[121.55392,31.2097],[121.556573,31.208068],[121.560016,31.207103]]],[[[121.557827,31.215329],[121.559324,31.21041],[121.559664,31.209386],[121.560004,31.208366],[121.559662,31.208252],[121.558376,31.21201],[121.55791,31.213471],[121.557319,31.215668],[121.557656,31.215793],[121.557739,31.215571],[121.557827,31.215329]]],[[[121.536504,31.225652],[121.538928,31.226014],[121.542323,31.223952],[121.542793,31.223574],[121.543945,31.221263],[121.544096,31.220936],[121.544019,31.220513],[121.543697,31.219387],[121.543524,31.219072],[121.543222,31.218693],[121.542734,31.218495],[121.542233,31.218407],[121.540059,31.218185],[121.539918,31.218186],[121.539752,31.218211],[121.537405,31.218892],[121.535054,31.220032],[121.534712,31.220459],[121.533236,31.223773],[121.533395,31.224098],[121.533466,31.224229],[121.533842,31.224747],[121.533928,31.224851],[121.534206,31.22507],[121.536504,31.225652]]],[[[121.521396,31.232864],[121.522551,31.23267],[121.522734,31.232545],[121.525751,31.229217],[121.525573,31.228905],[121.521393,31.230137],[121.520969,31.230314],[121.520786,31.230402],[121.519804,31.231322],[121.519703,31.231458],[121.51961,31.231806],[121.519616,31.23196],[121.519633,31.232074],[121.519765,31.232409],[121.519993,31.232628],[121.520532,31.232866],[121.521396,31.232864]]],[[[121.512794,31.234971],[121.512668,31.234634],[121.508994,31.235875],[121.509106,31.236217],[121.511663,31.235845],[121.512318,31.235735],[121.512794,31.234971]]],[[[121.677887,31.200377],[121.677953,31.200022],[121.677317,31.196662],[121.67696,31.196618],[121.6768,31.196727],[121.675333,31.199534],[121.675266,31.199888],[121.676153,31.20142],[121.676508,31.201475],[121.677887,31.200377]]],[[[121.585818,31.194312],[121.580807,31.195505],[121.578582,31.196528],[121.578461,31.196762],[121.578433,31.196825],[121.576064,31.199652],[121.573225,31.199965],[121.573164,31.200177],[121.573103,31.200389],[121.572046,31.204483],[121.57196,31.205054],[121.572215,31.205487],[121.574227,31.208255],[121.57649,31.211198],[121.576784,31.211406],[121.579383,31.213203],[121.5831,31.214474],[121.584887,31.213617],[121.587686,31.211916],[121.587764,31.211565],[121.58793621760869,31.211458300707122],[121.590552,31.212309],[121.591657,31.216254],[121.591888,31.216686],[121.594671,31.219276],[121.594958,31.219469],[121.595317,31.219493],[121.599177,31.218459],[121.60305,31.217219],[121.605291,31.2162],[121.605841,31.215913],[121.607224,31.214993],[121.60778293581677,31.214798547891156],[121.608421,31.216479],[121.609318,31.21772],[121.612519,31.220446],[121.612876,31.220493],[121.615897,31.218619],[121.618641,31.217327],[121.622503,31.213774],[121.622516,31.213415],[121.619219,31.208706],[121.618208,31.206506],[121.617296,31.205479],[121.613586,31.206254],[121.61224583876026,31.20674243749464],[121.611476,31.201839],[121.607931,31.200142],[121.605782,31.197911],[121.601925,31.1945],[121.601596,31.194353],[121.597049,31.192894],[121.596691,31.192862],[121.594328,31.194829],[121.592767,31.196259],[121.5896685145634,31.19793118767792],[121.588283,31.195651],[121.586258,31.194371],[121.585901,31.194321],[121.585818,31.194312]]],[[[121.670387,31.213911],[121.673477,31.215736],[121.67383,31.215803],[121.676101,31.214547],[121.676117,31.214188],[121.672691,31.210713],[121.671871,31.209694],[121.671526,31.209591],[121.670225,31.210138],[121.6658,31.211847],[121.665662,31.21218],[121.666996,31.215192],[121.667318,31.215354],[121.670387,31.213911]]],[[[121.656443,31.22162],[121.660723,31.218443],[121.660779,31.218087],[121.658317,31.213191],[121.657466,31.211641],[121.657181,31.211421],[121.656273,31.211523],[121.650789,31.21239],[121.64953,31.212479],[121.647887,31.21267],[121.647709,31.212983],[121.648192,31.217478],[121.650199,31.222806],[121.650528,31.22295],[121.653418,31.222314],[121.656443,31.22162]]]]}},{"type":"Feature","properties":{"limit":30,"included_stations":42,"boundary_stations":5,"source_polygon_count":42},"geometry":{"type":"MultiPolygon","coordinates":[[[[121.506471,31.187834],[121.505591,31.187059],[121.505232,31.187048],[121.504775,31.187277],[121.504661,31.187405],[121.50455,31.187747],[121.505218,31.18889],[121.505578,31.188888],[121.50643,31.188348],[121.506538,31.188004],[121.506471,31.187834]]],[[[121.524327,31.189627],[121.524336,31.189267],[121.523856,31.189255],[121.518621,31.186954],[121.518338,31.187176],[121.516227,31.18979],[121.516218,31.19015],[121.520077,31.192462],[121.520495,31.19232],[121.520832,31.192194],[121.524327,31.189627]]],[[[121.517964,31.202777],[121.517653,31.202958],[121.518982,31.205992],[121.519393,31.206724],[121.519974,31.207492],[121.520292,31.207323],[121.520258,31.206515],[121.520149,31.206172],[121.517964,31.202777]]],[[[121.525041,31.216433],[121.526954,31.213827],[121.52694,31.213467],[121.525807,31.21257],[121.521854,31.21051],[121.521536,31.210679],[121.520215,31.213724],[121.52023,31.214083],[121.521199,31.214854],[121.524361,31.216537],[121.52463,31.21659],[121.524969,31.216467],[121.525041,31.216433]]],[[[121.49368,31.218332],[121.493484,31.21846],[121.493418,31.218814],[121.493935,31.219885],[121.494295,31.219879],[121.494571,31.2189],[121.494559,31.21854],[121.494024,31.218226],[121.49368,31.218332]]],[[[121.456574,31.229708],[121.456285,31.229601],[121.455997,31.229494],[121.455679,31.229749],[121.454957,31.230508],[121.454784,31.230824],[121.454946,31.231207],[121.455277,31.231349],[121.455868,31.231416],[121.456642,31.230884],[121.456574,31.229708]]],[[[121.52586106948499,31.23732429131138],[121.526272,31.238167],[121.526909,31.23947],[121.526949,31.239551],[121.527258,31.239735],[121.53014,31.238812],[121.53524,31.23808],[121.53581153554084,31.23763219895769],[121.538228,31.241277],[121.538544,31.241449],[121.541284,31.240627],[121.543403,31.239789],[121.544014,31.239386],[121.544272,31.238919],[121.543365,31.235984],[121.542424,31.234147],[121.542102,31.233986],[121.539771,31.234623],[121.53583584786517,31.23609726197012],[121.533577327618,31.23284546196477],[121.53733,31.232241],[121.538362,31.232142],[121.54231642497338,31.231733536267942],[121.542599,31.232249],[121.542681,31.232384],[121.542999,31.232553],[121.548325,31.231033],[121.548454,31.230697],[121.54795763423223,31.229353602101167],[121.550236,31.228004],[121.552262,31.226894],[121.552335,31.226678],[121.553824,31.222023],[121.553750621727,31.221940794265592],[121.55537,31.221189],[121.55592069597506,31.22072912971182],[121.555875,31.220934],[121.556077,31.221124],[121.556176,31.221173],[121.556529,31.221246],[121.56196,31.219095],[121.56445,31.217031],[121.564507,31.216675],[121.562832,31.216406],[121.559262,31.212077],[121.559393,31.211431],[121.56020273098,31.210708536403423],[121.565347,31.210129],[121.566471,31.211571],[121.56784,31.21075],[121.56845,31.210305],[121.56897712618472,31.209772041160402],[121.570914,31.212344],[121.571397,31.212444],[121.574502,31.213014],[121.57658,31.216182],[121.577364,31.218381],[121.57763,31.218623],[121.581669,31.220782],[121.582977,31.222987],[121.583157,31.223072],[121.583517,31.223083],[121.583567,31.221546],[121.58616560768998,31.22008905067871],[121.588772,31.223399],[121.592234,31.227236],[121.592851,31.227322],[121.593424,31.22735],[121.595207,31.227424],[121.596038,31.227315],[121.597064,31.227009],[121.597134,31.226931],[121.597912,31.225925],[121.601319,31.223901],[121.604029,31.224033],[121.604331,31.22409],[121.604462,31.224047],[121.6051,31.223691],[121.60597,31.223129],[121.60621120447998,31.222980729531045],[121.607717,31.224145],[121.608054,31.224273],[121.609422,31.224783],[121.61233,31.229326],[121.6124,31.229366],[121.612513,31.229376],[121.612873,31.229374],[121.612932,31.229356],[121.612928,31.228574],[121.612923,31.227791],[121.616286,31.223855],[121.61767,31.223849],[121.617874,31.223857],[121.618079,31.223865],[121.620732,31.223009],[121.62405,31.221617],[121.624083,31.221602],[121.624381,31.2214],[121.626404,31.218223],[121.628734,31.216893],[121.63122,31.214173],[121.631236,31.213814],[121.629064,31.211682],[121.62858,31.20828],[121.628595,31.20792],[121.625576,31.205993],[121.625243,31.205855],[121.621234,31.203176],[121.619127,31.200287],[121.618895,31.200012],[121.61852977920675,31.200083538093523],[121.617602,31.198983],[121.613841,31.196498],[121.613094,31.194976],[121.609701,31.192341],[121.60856,31.192135],[121.605009,31.188177],[121.60243,31.187692],[121.599369,31.185927],[121.595779,31.185657],[121.595616,31.185756],[121.590752,31.188411],[121.590089,31.188669],[121.58991692110722,31.188771738414733],[121.587925,31.186865],[121.58744,31.187019],[121.585474,31.187907],[121.582831,31.189448],[121.577893,31.19079],[121.575478,31.191287],[121.574925,31.191381],[121.570157,31.193615],[121.570039,31.193955],[121.570973,31.195292],[121.571167,31.199881],[121.571091,31.200233],[121.57118151473996,31.201423240004235],[121.571175,31.201428],[121.570931,31.202557],[121.57133701461282,31.203468013810085],[121.571405,31.204362],[121.56909044566154,31.208447896944417],[121.568411,31.206302],[121.568185,31.2061],[121.567833,31.206027],[121.566095,31.20589],[121.564653,31.205581],[121.563816,31.205143],[121.563225,31.199338],[121.563272,31.198981],[121.561263,31.196232],[121.55887597921121,31.193668162856476],[121.559585,31.192288],[121.559628,31.19193],[121.557528,31.188239],[121.55729435255986,31.188197320704035],[121.559636,31.18681],[121.559715,31.186755],[121.559757,31.186398],[121.559854,31.183279],[121.558359,31.181681],[121.558292,31.181625],[121.557942,31.181542],[121.557838,31.18158],[121.55547,31.182905],[121.553257,31.185658],[121.553201,31.186013],[121.553197,31.186077],[121.55533624896773,31.188325276328257],[121.550993,31.190839],[121.550859,31.190948],[121.5506757120911,31.191626832867865],[121.550201,31.190757],[121.549311,31.189186],[121.548976,31.189054],[121.546088,31.18993],[121.545677,31.190177],[121.544648,31.191051],[121.544154,31.192086],[121.540561,31.195448],[121.540373,31.195603],[121.54022,31.195929],[121.54047629182992,31.19696165768116],[121.536927,31.199273],[121.536891,31.199346],[121.53682,31.199699],[121.53794433577337,31.20170773177482],[121.535804,31.202372],[121.535656,31.202701],[121.533954,31.205992],[121.531102,31.209469],[121.531041,31.212187],[121.53105968285253,31.213217903071374],[121.530475,31.213398],[121.530201,31.213477],[121.52841,31.216688],[121.5269,31.219311],[121.52650516697184,31.21988846878773],[121.525046,31.21749],[121.52469,31.217545],[121.52013,31.221401],[121.520045,31.221751],[121.52126087662484,31.22388978803722],[121.519943,31.224344],[121.516229,31.225894],[121.51218295273476,31.22840385670068],[121.511401,31.228691],[121.511045,31.228839],[121.507352,31.230976],[121.502477,31.232748],[121.502402,31.2331],[121.50233135556394,31.233461925323983],[121.500074,31.232614],[121.497621,31.23359],[121.495407,31.23541],[121.495265,31.235552],[121.495123,31.235693],[121.493317,31.23864],[121.493135,31.239229],[121.493451,31.240009],[121.494021,31.240802],[121.497937,31.243905],[121.500283,31.244305],[121.503322,31.24417],[121.504621,31.243854],[121.50524846043764,31.242511626061766],[121.508074,31.24203],[121.512106,31.241785],[121.51245345501461,31.241668528243814],[121.512412,31.241822],[121.512703,31.242296],[121.51305,31.242678],[121.514884,31.244238],[121.51524,31.244288],[121.515385,31.244222],[121.517637,31.242771],[121.517704,31.242417],[121.516676,31.240578],[121.516358,31.240409],[121.5162627200904,31.240391609579483],[121.51636,31.240359],[121.51914557460684,31.239382466541723],[121.521023,31.238985],[121.523691,31.238193],[121.524844,31.237725],[121.52586106948499,31.23732429131138]]],[[[121.469634,31.236634],[121.470068,31.23669],[121.47064,31.236733],[121.472559,31.235582],[121.473334,31.233981],[121.472833,31.232725],[121.472712,31.232468],[121.472421,31.232257],[121.470756,31.232053],[121.470514,31.232044],[121.469955,31.232044],[121.467902,31.233008],[121.467658,31.233155],[121.46748,31.233542],[121.467213,31.234464],[121.467326,31.235113],[121.467366,31.235226],[121.467672,31.235618],[121.467796,31.235717],[121.467797,31.235718],[121.467959,31.235844],[121.469554,31.236615],[121.469634,31.236634]]],[[[121.483846,31.242023],[121.485489,31.240975],[121.485489,31.240814],[121.484025,31.238378],[121.483023,31.236859],[121.481745,31.235106],[121.481732,31.235104],[121.481405,31.235107],[121.479956,31.235459],[121.474947,31.237562],[121.474902,31.237919],[121.475086,31.238432],[121.475388,31.239101],[121.476159,31.240782],[121.478198,31.243911],[121.478515,31.244081],[121.479086,31.244092],[121.482868,31.242518],[121.483846,31.242023]]],[[[121.514602,31.253886],[121.513125,31.253684],[121.512012,31.253544],[121.511657,31.253992],[121.511468,31.254299],[121.511627,31.255716],[121.511919,31.255927],[121.513931,31.255747],[121.514102,31.255431],[121.514556,31.254243],[121.514602,31.253886]]],[[[121.540889,31.189961],[121.540891,31.189601],[121.540764,31.189468],[121.537124,31.1848],[121.536773,31.18472],[121.533746,31.186789],[121.530384,31.189561],[121.530383,31.189921],[121.532406,31.192869],[121.534599,31.194001],[121.53495,31.194085],[121.5392,31.192108],[121.540889,31.189961]]],[[[121.553202,31.23287],[121.553046,31.232882],[121.552478,31.233071],[121.552391,31.233103],[121.552227,31.233423],[121.552609,31.234784],[121.554095,31.235369],[121.556705,31.235564],[121.556827,31.235226],[121.55355,31.23296],[121.553202,31.23287]]],[[[121.550384,31.242351],[121.550247,31.242018],[121.549633,31.240935],[121.546326,31.239861],[121.545995,31.23995],[121.545908,31.239977],[121.545437,31.240122],[121.545304,31.240456],[121.545554,31.241096],[121.545848,31.241303],[121.548424,31.242838],[121.549582,31.242857],[121.550384,31.242351]]],[[[121.60243,31.111598],[121.602429,31.111602],[121.602296,31.112558],[121.602208,31.113189],[121.601986,31.114775],[121.602343,31.114825],[121.602792,31.111616],[121.602437,31.111557],[121.60243,31.111598]]],[[[121.591273,31.153171],[121.590691,31.151895],[121.590437,31.151639],[121.588827,31.15256],[121.586419,31.157343],[121.586335,31.157693],[121.586704,31.158413],[121.587055,31.158891],[121.587394,31.159013],[121.58913,31.158389],[121.589344,31.158281],[121.591211,31.153525],[121.591273,31.153171]]],[[[121.567346,31.160248],[121.566681,31.160228],[121.566606,31.16058],[121.566326,31.163661],[121.566672,31.163763],[121.567728,31.160821],[121.567805,31.160469],[121.567719,31.160344],[121.567346,31.160248]]],[[[121.563794,31.171896],[121.56281,31.169472],[121.562475,31.169341],[121.560059,31.170272],[121.559915,31.170602],[121.560063,31.173107],[121.560618,31.173722],[121.560949,31.173864],[121.561661,31.173786],[121.56365,31.172226],[121.563794,31.171896]]],[[[121.577414,31.183151],[121.577959,31.181213],[121.578346,31.179778],[121.579864,31.175131],[121.579997,31.174774],[121.58013,31.174418],[121.579966,31.173537],[121.579907,31.173314],[121.579816,31.173085],[121.578991,31.171472],[121.578654,31.171598],[121.578734,31.171811],[121.574548,31.176031],[121.573896,31.17591],[121.57326,31.175793],[121.573021,31.175726],[121.572384,31.1755],[121.570658,31.174738],[121.570613,31.174718],[121.570519,31.174784],[121.57038,31.1749],[121.570336,31.174979],[121.570374,31.175114],[121.571306,31.177013],[121.572943,31.181528],[121.57325,31.181717],[121.573474,31.1818],[121.577065,31.183061],[121.577414,31.183151]]],[[[121.694133,31.194088],[121.69546,31.193421],[121.700385,31.19057],[121.70046,31.190217],[121.700403,31.190117],[121.699201,31.188264],[121.696575,31.184466],[121.696227,31.184376],[121.693378,31.183726],[121.693271,31.183752],[121.69039,31.184665],[121.686891,31.186577],[121.686774,31.186918],[121.687764,31.188203],[121.691473,31.191017],[121.692793,31.193074],[121.693782,31.194007],[121.694133,31.194088]]],[[[121.720834,31.192059],[121.718719,31.192778],[121.716974,31.193392],[121.716793,31.193459],[121.716235,31.19369],[121.71615,31.19404],[121.716267,31.194236],[121.716444,31.194518],[121.718261,31.197374],[121.718587,31.197528],[121.722841,31.195813],[121.722933,31.195466],[121.721155,31.192222],[121.720834,31.192059]]],[[[121.677817,31.203413],[121.681674,31.201358],[121.683724,31.203181],[121.683884,31.203411],[121.684491,31.203454],[121.685097,31.203497],[121.686643,31.202101],[121.686659,31.201741],[121.685715,31.198007],[121.68342,31.195078],[121.681196,31.192085],[121.679583,31.189972],[121.678639,31.188818],[121.678284,31.188756],[121.677286,31.189688],[121.674363,31.194606],[121.668858,31.195888],[121.666245,31.197747],[121.666171,31.1981],[121.669828,31.201098],[121.670386,31.201171],[121.671224,31.201372],[121.67289301640675,31.20262414475612],[121.669937,31.204027],[121.667232,31.205012],[121.66311077530176,31.206394263536097],[121.663071,31.205834],[121.662835,31.205562],[121.661305,31.205599],[121.661054,31.205857],[121.655188,31.205935],[121.654881,31.205747],[121.654725,31.205752],[121.650537,31.206599],[121.646497,31.207639],[121.643738,31.20813],[121.640995,31.209089],[121.640819,31.209157],[121.640692,31.209493],[121.642564,31.212811],[121.641923,31.215692],[121.641861,31.215943],[121.641712,31.216541],[121.641751,31.221088],[121.644037,31.225144],[121.644124,31.225212],[121.644433,31.225398],[121.648948,31.228856],[121.650925,31.229293],[121.653816,31.227619],[121.656749,31.226278],[121.660485,31.225814],[121.661421,31.223757],[121.661543,31.22316],[121.661665,31.222562],[121.66611190900771,31.219149069835098],[121.66611218516984,31.21914905215779],[121.66611394215342,31.21914954705683],[121.670732,31.221831],[121.672232,31.223153],[121.672586,31.223221],[121.677049,31.220956],[121.677284,31.220573],[121.678794,31.218631],[121.682359,31.21651],[121.684456,31.215809],[121.684539,31.215459],[121.681724,31.210907],[121.681399,31.210752],[121.678061,31.209126],[121.6771373542009,31.20758932706312],[121.678451,31.206915],[121.678563,31.206573],[121.677817,31.203413]],[[121.675358769791,31.204474024815706],[121.675588,31.204646],[121.6755642493422,31.20477320304225],[121.675358769791,31.204474024815706]]]]}},{"type":"Feature","properties":{"limit":40,"included_stations":115,"boundary_stations":10,"source_polygon_count":115},"geometry":{"type":"MultiPolygon","coordinates":[[[[121.472599,31.175718],[121.471483,31.173664],[121.471025,31.172865],[121.470694,31.172725],[121.467357,31.173757],[121.466888,31.174273],[121.466835,31.175149],[121.467086,31.177203],[121.467412,31.177355],[121.469134,31.17734],[121.47245,31.176046],[121.472602,31.175769],[121.472599,31.175718]]],[[[121.487307,31.175494],[121.485701,31.172674],[121.484716,31.171678],[121.484362,31.171612],[121.483619,31.172143],[121.479569,31.175201],[121.479397,31.175517],[121.480254,31.18004],[121.481036,31.180395],[121.481711,31.180509],[121.48524866609864,31.17992183230075],[121.486388,31.182193],[121.48741,31.184067],[121.488925,31.185503],[121.489276,31.185582],[121.48944506305197,31.18556852064856],[121.489596,31.187907],[121.490591,31.188677],[121.49474,31.189387],[121.49827969107218,31.189939849407082],[121.500564,31.192068],[121.502019,31.194674],[121.502203,31.195002],[121.502388,31.195329],[121.502724,31.195542],[121.505819,31.195926],[121.50741070421905,31.195184432804126],[121.508133,31.19752],[121.50983,31.200554],[121.511424,31.20082],[121.5135710147046,31.201298386005607],[121.512183,31.20355],[121.511991,31.203882],[121.511881,31.206662],[121.511987071275,31.207132056944772],[121.510108,31.207679],[121.509773,31.207811],[121.508529,31.211939],[121.508007,31.214237],[121.508172,31.214558],[121.510355,31.215347],[121.51401047479922,31.21673237867707],[121.513164,31.217295],[121.512295,31.217702],[121.51212,31.217794],[121.510731,31.218577],[121.510595,31.218959],[121.510382,31.219702],[121.51085986249991,31.220670701195225],[121.509912,31.221163],[121.50875148307722,31.22207050443802],[121.506354,31.222845],[121.503547,31.22375],[121.50257467673092,31.22533039029849],[121.501971,31.225301],[121.498638,31.226663],[121.495292,31.229792],[121.493469,31.23103],[121.49346906257475,31.231030864083547],[121.493204,31.231211],[121.491358,31.232513],[121.49162,31.237957],[121.49099,31.238914],[121.490824,31.239408],[121.490788,31.240451],[121.491283,31.241037],[121.493488,31.243402],[121.495112,31.244138],[121.49579284643639,31.244509228386708],[121.496627,31.245924],[121.496713,31.246049],[121.49728049131943,31.24673956172606],[121.498417,31.249225],[121.498672,31.250074],[121.499216,31.2507],[121.499687,31.250984],[121.501808,31.25188],[121.50297964451396,31.249106020804557],[121.507254,31.24863],[121.507829,31.248536],[121.50852773322623,31.248119862547696],[121.5113249808444,31.250352979558475],[121.509837,31.251306],[121.507513,31.251487],[121.506194,31.251541],[121.503697,31.253758],[121.503598,31.254104],[121.50385175860382,31.254676646534527],[121.50286498884316,31.25499007889702],[121.501264,31.254456],[121.500624,31.254754],[121.500493,31.25509],[121.500786,31.255309],[121.501105,31.255476],[121.50199543468798,31.255840734340147],[121.502453,31.258451],[121.502139,31.264109],[121.502929,31.265804],[121.503022,31.265945],[121.503322,31.266143],[121.508345,31.266191],[121.511918,31.265737],[121.51465834508014,31.26502951134493],[121.515302,31.269366],[121.515407,31.26971],[121.516068,31.270633],[121.516173,31.270706],[121.516502,31.270853],[121.520537,31.269915],[121.524183,31.269056],[121.524328,31.268726],[121.524315,31.268598],[121.523683,31.267442],[121.5229675203375,31.2658582524498],[121.524142,31.265609],[121.529059,31.263595],[121.529236,31.263281],[121.52862,31.260933],[121.5285015346962,31.26063004827929],[121.529071,31.260268],[121.52915,31.260066],[121.52923,31.259865],[121.528349,31.255025],[121.527947,31.254511],[121.527646,31.254312],[121.524811,31.254971],[121.52337491167137,31.255038525202988],[121.52341,31.254733],[121.519855,31.250971],[121.519291,31.250969],[121.51621694800848,31.248409509960993],[121.516752,31.248307],[121.51742091244977,31.247968724775625],[121.520117,31.247422],[121.52059113861588,31.247119383779463],[121.520694,31.247123],[121.521593,31.24677],[121.52167190564549,31.246734893674674],[121.522176,31.247499],[121.522851,31.247607],[121.524398,31.247587],[121.524428,31.24758],[121.52719,31.246604],[121.5284665532577,31.24665033530704],[121.529096,31.248377],[121.532743,31.249847],[121.538033,31.251021],[121.540963,31.251244],[121.543374,31.24971],[121.543562,31.249403],[121.54361908774231,31.249263292811523],[121.546204,31.248849],[121.551144,31.248108],[121.55260992157406,31.248071151698138],[121.55272,31.249294],[121.552819,31.2495],[121.555463,31.253384],[121.555712,31.253644],[121.559749,31.253272],[121.56276097877092,31.253261864861887],[121.562906,31.254346],[121.563761,31.257619],[121.563853,31.257854],[121.564159,31.258044],[121.566277,31.257877],[121.566628,31.2578],[121.567756,31.257296],[121.572538,31.255797],[121.572736,31.255497],[121.572746,31.255434],[121.572783,31.255015],[121.572403,31.252393],[121.57186335689676,31.249369827606106],[121.572892,31.249247],[121.576552,31.248247],[121.581794,31.248002],[121.581992,31.247702],[121.580841,31.243852],[121.580393,31.241727],[121.580383,31.241689],[121.579384,31.23945],[121.578019,31.236516],[121.577951,31.236386],[121.5779,31.236315],[121.577886,31.23631],[121.572552,31.237468],[121.570965,31.238024],[121.565582,31.239116],[121.565404,31.239186],[121.565223,31.239497],[121.565195,31.239997],[121.566258,31.240796],[121.567846,31.245512],[121.567862,31.245559],[121.567879,31.245607],[121.56856466762322,31.24775317040811],[121.56697653674604,31.248057333621638],[121.565283,31.242591],[121.565002,31.242366],[121.559742,31.242186],[121.55684487800767,31.24254636505174],[121.55628230114517,31.24149502971568],[121.560929,31.241033],[121.564983,31.239584],[121.565151,31.239266],[121.564755,31.239056],[121.562409,31.23366],[121.561043,31.230668],[121.560752,31.230456],[121.55944975801498,31.22951757832442],[121.559615,31.229203],[121.559927,31.228583],[121.56082085229633,31.226336807387344],[121.562527,31.225446],[121.56280969884116,31.225119305965894],[121.564002,31.224529],[121.56599,31.223413],[121.567883,31.221344],[121.56901991691555,31.220681851166777],[121.56914346223503,31.22069579269336],[121.569665,31.220814],[121.571828,31.222036],[121.573591,31.223651],[121.577009,31.227682],[121.577765,31.228475],[121.578483,31.228897],[121.578532,31.228921],[121.578806,31.229029],[121.58123,31.229938],[121.58294,31.230475],[121.583997,31.229377],[121.584523,31.227896],[121.584928,31.226444],[121.585023,31.225543],[121.58502609347106,31.22549709834861],[121.585802,31.226067],[121.5866,31.228186],[121.587509,31.229926],[121.587906,31.230038],[121.591964,31.23423],[121.592071,31.234323],[121.592213,31.234437],[121.595813,31.234399],[121.59932,31.232654],[121.603598,31.231171],[121.605455,31.230269],[121.60600915572242,31.230142302679873],[121.609361,31.23115],[121.60905,31.232547],[121.609139,31.23527],[121.609254,31.235377],[121.60981,31.23574],[121.612218,31.236851],[121.613032,31.236619],[121.61394,31.236355],[121.613965,31.236348],[121.617528,31.233958],[121.621765,31.230994],[121.622966,31.231268],[121.627796,31.228153],[121.628453,31.227836],[121.630392,31.226985],[121.632618,31.225777],[121.633937,31.221771],[121.63559425636112,31.220502780592028],[121.635913,31.220895],[121.636244,31.221036],[121.639301,31.225763],[121.637391,31.227414],[121.637333,31.22777],[121.640133,31.232404],[121.640457,31.23256],[121.6437,31.23065],[121.6468,31.229719],[121.652102,31.231109],[121.654029,31.233484],[121.654369,31.233603],[121.659283,31.232777],[121.660984,31.23216],[121.663798,31.23025],[121.66693007470434,31.227617929316313],[121.667975,31.228261],[121.669686,31.231268],[121.670024,31.231392],[121.670376,31.23134],[121.670562,31.231133],[121.671089,31.229776],[121.676528,31.227618],[121.67815,31.226911],[121.678273,31.226806],[121.678365,31.226458],[121.682145,31.222337],[121.684247,31.22348],[121.684607,31.223491],[121.686773,31.22134],[121.689133,31.21841],[121.692767,31.217578],[121.692826,31.217223],[121.691024,31.214293],[121.68991,31.211231],[121.68732562873056,31.207929147756044],[121.68803,31.207406],[121.6925,31.204238],[121.695082,31.202431],[121.695253,31.202146],[121.695264,31.201786],[121.6947585818109,31.200563663684186],[121.695375,31.200398],[121.698772,31.197951],[121.700893,31.19711],[121.705504,31.194371],[121.70801617980955,31.193152308241263],[121.709584,31.196256],[121.711853,31.199503],[121.712646,31.201987],[121.71453,31.203905],[121.715002,31.204331],[121.715329,31.204483],[121.715772,31.204336],[121.720291,31.202675],[121.723237,31.202745],[121.725856,31.201644],[121.72728,31.200441],[121.731295,31.198035],[121.731386,31.197687],[121.72892,31.192594],[121.726879,31.189205],[121.725139,31.185456],[121.724388,31.185105],[121.723707,31.184893],[121.720265,31.18654],[121.715743,31.187814],[121.715612,31.188149],[121.712883,31.192853],[121.710377,31.192299],[121.70886782163628,31.19196570302111],[121.706441,31.187925],[121.703665,31.184061],[121.701764,31.180116],[121.698237,31.177304],[121.695626,31.176384],[121.695277,31.176297],[121.691357,31.177866],[121.687692,31.179618],[121.685176,31.180651],[121.685048,31.180987],[121.683229,31.184096],[121.68226295474234,31.184029484549892],[121.680008,31.181824],[121.67966,31.181735],[121.679496,31.181707],[121.677821,31.182567],[121.676766,31.183098],[121.674053,31.184699],[121.669365,31.186573],[121.669224,31.186904],[121.666424,31.191604],[121.66255,31.192307],[121.662007,31.192212],[121.658624,31.195358],[121.658342,31.196049],[121.658271,31.196402],[121.658446,31.196829],[121.66052966323662,31.200330545028407],[121.658187,31.198881],[121.657842,31.198781],[121.657689,31.198787],[121.653175,31.201603],[121.652008,31.201178],[121.650842,31.200753],[121.646701,31.200892],[121.644747,31.201443],[121.6398,31.203044],[121.636121,31.204615],[121.63534235215603,31.20485014607858],[121.634335,31.203321],[121.630437,31.199889],[121.627216,31.198282],[121.626004,31.195369],[121.625992,31.195297],[121.624542,31.192814],[121.624072,31.192666],[121.621197,31.192541],[121.61982754899742,31.19278160010564],[121.619586,31.19266],[121.619096,31.19241],[121.61845470073045,31.193022797079784],[121.617651,31.193164],[121.614936,31.193287],[121.61181167330818,31.192722455820537],[121.611373,31.18932],[121.611829,31.188761],[121.611565,31.187042],[121.610799,31.1856],[121.609888,31.184585],[121.609242,31.184188],[121.6041492093376,31.18255216793865],[121.604273,31.18246],[121.6044,31.182123],[121.60434,31.181961],[121.603032,31.17909],[121.598534,31.175267],[121.59818,31.1752],[121.595184,31.176367],[121.593039,31.177969],[121.592097,31.178832],[121.59137537246572,31.179623380635135],[121.590324,31.178473],[121.589479,31.178259],[121.585539,31.179937],[121.58434,31.180772],[121.579524,31.182915],[121.57789797517086,31.182933457257306],[121.577743,31.182437],[121.577959,31.181213],[121.578346,31.179778],[121.57873,31.17835],[121.578892,31.177808],[121.579055,31.17726],[121.579451,31.176223],[121.582604,31.173514],[121.585653,31.173534],[121.585833,31.173448],[121.585934,31.173102],[121.58582,31.172723],[121.583871,31.170639],[121.583951,31.16613],[121.58386411983217,31.165862950303797],[121.584074,31.166149],[121.584402,31.166296],[121.588011,31.164732],[121.588072,31.164377],[121.589408,31.159146],[121.592107,31.158772],[121.593636,31.158995],[121.595166,31.159218],[121.597139,31.159501],[121.597347,31.15953],[121.597555,31.15956],[121.597729,31.159515],[121.5999,31.154957],[121.599964,31.154602],[121.597889,31.154228],[121.595814,31.153853],[121.592485,31.149346],[121.59312,31.147223],[121.593148,31.146864],[121.59224198195034,31.145717526073025],[121.593586,31.145033],[121.59366,31.14468],[121.594931,31.141295],[121.598302,31.139879],[121.600056,31.139961],[121.600329,31.139959],[121.600601,31.139958],[121.600599,31.139598],[121.598988,31.138106],[121.596922,31.134471],[121.596444,31.134227],[121.596116,31.13408],[121.592487,31.136052],[121.589334,31.137808],[121.588264,31.1386],[121.588228,31.138958],[121.588674,31.139486],[121.588876,31.139697],[121.591211,31.145168],[121.591036,31.145617],[121.59114375021018,31.1456625771004],[121.589528,31.146603],[121.585376,31.150404],[121.584485,31.150176],[121.583352,31.149981],[121.582993,31.149969],[121.582391,31.150413],[121.579659,31.152465],[121.579657,31.152825],[121.578922,31.158746],[121.578343,31.159128],[121.578541,31.159428],[121.581719,31.162437],[121.583157,31.164636],[121.583567,31.165458],[121.5837639397146,31.1657264129049],[121.583499,31.16561],[121.577808,31.165869],[121.577483,31.165715],[121.571797,31.167458],[121.56870126018826,31.1680650817414],[121.56959,31.167201],[121.572317,31.164904],[121.576526,31.162667],[121.577135,31.161951],[121.577186,31.161594],[121.575905,31.160668],[121.572778,31.157493],[121.571075,31.154698],[121.569538,31.152923],[121.56918,31.152881],[121.564802,31.155239],[121.560224,31.156976],[121.558679,31.15844],[121.5586,31.158791],[121.559659,31.160103],[121.56130009539437,31.164769553183323],[121.559517,31.16388],[121.559161,31.16383],[121.558023,31.164884],[121.554182,31.169485],[121.553044,31.172379],[121.552941,31.172724],[121.55300892811546,31.1729482503788],[121.552102,31.173182],[121.548126,31.175108],[121.548013,31.17545],[121.548969,31.177316],[121.55042264092984,31.17941777988299],[121.548682,31.180498],[121.54845942899698,31.180667163499347],[121.543968,31.181338],[121.54272875346122,31.181680134069257],[121.53935,31.178058],[121.539013,31.177932],[121.538673,31.178087],[121.53349684330705,31.18070837182502],[121.533088,31.18071],[121.533024,31.181064],[121.53311961826479,31.181116138397936],[121.533112,31.181157],[121.529361,31.184481],[121.52819292203824,31.184043904005012],[121.527819,31.183525],[121.527507,31.183346],[121.527438,31.183309],[121.526408,31.183624],[121.520949,31.185894],[121.51818,31.181447],[121.515213,31.178387],[121.514878,31.178519],[121.515318,31.179635],[121.515463,31.180474],[121.511997,31.185121],[121.51153389158289,31.185472392691313],[121.510272,31.184492],[121.510243,31.184471],[121.510123,31.184438],[121.507351,31.183639],[121.505591,31.180191],[121.505562,31.179555],[121.505202,31.179571],[121.50199601776386,31.181688400943457],[121.501826,31.181193],[121.499776,31.178268],[121.499439,31.178143],[121.494692,31.178116],[121.49389413005122,31.178321907653224],[121.492681,31.176467],[121.49148,31.174966],[121.491336,31.174891],[121.490981,31.174834],[121.487992,31.176505],[121.48696939486786,31.17713444820755],[121.48724,31.175848],[121.487307,31.175494]],[[121.523146,31.201608],[121.523064,31.201543],[121.522304,31.201089],[121.521333,31.201241],[121.51823448788927,31.200079415589144],[121.51893423764055,31.198591697941684],[121.523257,31.199563],[121.523578,31.199401],[121.525219,31.197977],[121.525962,31.196939],[121.52650264025219,31.196143686230013],[121.52897900770179,31.197860089438493],[121.527835,31.198115],[121.52809020575705,31.199939421312855],[121.527916,31.200207],[121.525212,31.204654],[121.5246091486088,31.2055607889676],[121.523146,31.201608]],[[121.51594107770937,31.195147301419617],[121.51513,31.194708],[121.51342353825329,31.192401765421714],[121.515187,31.192041],[121.51594107770937,31.195147301419617]],[[121.51802778830661,31.263397305863535],[121.517938,31.263421],[121.51527261985518,31.264149301216044],[121.515091,31.262026],[121.51506477062566,31.261028387044146],[121.515637,31.260904],[121.516992367549,31.260636616933567],[121.517727,31.262724],[121.51802778830661,31.263397305863535]],[[121.567111,31.18662],[121.56925,31.184042],[121.56932,31.183689],[121.568083,31.183444],[121.566846,31.183199],[121.562592,31.179654],[121.56258053358414,31.17959702906768],[121.562811,31.179521],[121.565027,31.178537],[121.56503129697315,31.178534820985774],[121.565033,31.178539],[121.566758,31.182903],[121.567104,31.183001],[121.57015,31.182283],[121.57216233172794,31.185527040812417],[121.571182,31.186843],[121.571089,31.187252],[121.56707529940422,31.190852718336615],[121.56570351524897,31.188985240646712],[121.567111,31.18662]],[[121.54672071175433,31.183231647369887],[121.54666204237591,31.18499172872259],[121.54574557676453,31.185029622400243],[121.54461268315204,31.183389661729304],[121.54672071175433,31.183231647369887]]],[[[121.451559,31.186601],[121.451577,31.18661],[121.45212,31.186844],[121.452662,31.187078],[121.452686,31.187088],[121.452829,31.186758],[121.450878,31.185741],[121.450653,31.186022],[121.450829,31.186162],[121.451021,31.186283],[121.45122,31.186408],[121.451254,31.186427],[121.45139,31.186505],[121.451559,31.186601]]],[[[121.44662,31.197954],[121.445542,31.198348],[121.443131,31.199962],[121.442986,31.200292],[121.443156,31.201076],[121.443411,31.201778],[121.444519,31.203465],[121.444867,31.203889],[121.445213,31.203988],[121.44883,31.202487],[121.448915,31.202138],[121.447573,31.199099],[121.446923,31.198148],[121.44662,31.197954]]],[[[121.473219,31.201318],[121.472736,31.200385],[121.472429,31.200055],[121.472092,31.199926],[121.468032,31.200162],[121.467906,31.200499],[121.46937,31.201787],[121.469695,31.201942],[121.471265,31.202469],[121.471623,31.202504],[121.473138,31.201669],[121.473219,31.201318]]],[[[121.456948,31.202107],[121.456594,31.202176],[121.454022,31.203749],[121.453923,31.204095],[121.455727,31.206696],[121.456075,31.206787],[121.457814,31.206357],[121.458857,31.205616],[121.458925,31.205263],[121.458761,31.204887],[121.456948,31.202107]]],[[[121.470622,31.216691],[121.470715,31.21672],[121.470809,31.21675],[121.474214,31.21517],[121.47599164936383,31.214130673428844],[121.476102,31.214378],[121.479415,31.218611],[121.4794242107549,31.218615749295495],[121.478245,31.218812],[121.476328,31.220067],[121.476216,31.220409],[121.477256,31.222277],[121.477338,31.222398],[121.47764,31.222594],[121.480991,31.221662],[121.481143,31.221336],[121.481097,31.221155],[121.480925,31.220721],[121.47998665669024,31.218802802308158],[121.485386,31.21729],[121.487537,31.214662],[121.487581,31.214305],[121.486535,31.21214],[121.483559,31.20841],[121.483412,31.208245],[121.483057,31.208184],[121.480028,31.209373],[121.478217,31.210095],[121.47666053232824,31.211401354662883],[121.475569,31.208948],[121.474065,31.206659],[121.473742,31.206499],[121.473512,31.20647],[121.469569,31.207886],[121.46805831450818,31.208302538523956],[121.468171,31.208138],[121.468246,31.207786],[121.466399,31.204925],[121.466071,31.204776],[121.462529,31.205136],[121.460505,31.20575],[121.46034,31.20607],[121.461235,31.20873],[121.461475,31.20934],[121.461615,31.20956],[121.462005,31.210106],[121.46235,31.210207],[121.464225,31.210256],[121.46680652615997,31.209589216714026],[121.466943,31.210369],[121.467505,31.212854],[121.470622,31.216691]]],[[[121.39969,31.213089],[121.399631,31.212733],[121.396308,31.213293],[121.395728,31.21339],[121.395788,31.213745],[121.39969,31.213089]]],[[[121.470096,31.216802],[121.469762,31.216668],[121.468225,31.217306],[121.468132,31.217654],[121.46858,31.218127],[121.470098,31.219133],[121.470451,31.219201],[121.471453,31.21874],[121.471568,31.218399],[121.470813,31.217292],[121.470096,31.216802]]],[[[121.45621,31.215158],[121.456065,31.215123],[121.452245,31.216335],[121.45221,31.216528],[121.452175,31.216721],[121.452255,31.217901],[121.452487,31.218957],[121.45296,31.220377],[121.453319,31.220883],[121.45366,31.220995],[121.456758,31.219696],[121.45761,31.218245],[121.456356,31.215196],[121.456212,31.215159],[121.45621,31.215158]]],[[[121.41252,31.216867],[121.409699,31.218046],[121.409374,31.2182],[121.408101,31.219007],[121.408044,31.219138],[121.40799,31.219494],[121.408351,31.220485],[121.40838,31.220557],[121.409795,31.222815],[121.410119,31.222973],[121.414573,31.220906],[121.414641,31.220829],[121.414721,31.220478],[121.41285,31.217009],[121.41252,31.216867]]],[[[121.431605,31.223509],[121.432259,31.223098],[121.432357,31.222752],[121.4313,31.220964],[121.430837,31.220369],[121.428235,31.217201],[121.427902,31.217064],[121.426238,31.217395],[121.423012,31.219073],[121.421592,31.220243],[121.421588,31.220475],[121.421583,31.220707],[121.421659,31.220898],[121.424271,31.225038],[121.424468,31.22522],[121.425556,31.225442],[121.428235,31.224777],[121.428701,31.224608],[121.431605,31.223509]]],[[[121.46775,31.223557],[121.467136,31.22379],[121.466225,31.225312],[121.466172,31.225668],[121.466959,31.22656],[121.46788431112012,31.226671855200394],[121.467693,31.226704],[121.465059,31.227593],[121.462684,31.229131],[121.46210347721266,31.229790822958932],[121.461883,31.229228],[121.459351,31.225501],[121.455947,31.223613],[121.455587,31.223628],[121.450369,31.22583],[121.4486943327948,31.227090581003473],[121.448891,31.225142],[121.447357,31.220046],[121.447048,31.219861],[121.443104,31.219176],[121.442866,31.21915],[121.440367,31.219177],[121.43525,31.220763],[121.434458,31.221832],[121.434309,31.22216],[121.434622,31.226992],[121.435069,31.227646],[121.438201,31.230727],[121.438536,31.230858],[121.44223,31.230956],[121.445446,31.229633],[121.4475707597734,31.22900224632201],[121.447771,31.230395],[121.448354,31.231926],[121.449354,31.233841],[121.450602,31.235548],[121.452261,31.237237],[121.45261,31.237327],[121.456057,31.237339],[121.458592,31.236709],[121.45876,31.236652],[121.4602578412132,31.2359818643582],[121.460972,31.237354],[121.46188899280374,31.23896999140912],[121.459826,31.239988],[121.459678,31.240322],[121.460252,31.242913],[121.462769,31.243945],[121.46291,31.243984],[121.463165,31.243959],[121.46555881275316,31.242783510521214],[121.46627049741868,31.243246428246763],[121.465177,31.243901],[121.465148,31.24426],[121.466665,31.245709],[121.467022,31.245758],[121.467381,31.245573],[121.4688024583373,31.24482287900243],[121.469202,31.245257],[121.470722,31.246742],[121.472619,31.248826],[121.47483,31.252517],[121.47485193237438,31.252524770326925],[121.474854,31.252536],[121.475515,31.255385],[121.476817,31.256404],[121.478652,31.257835],[121.479012,31.25784],[121.48165,31.257252],[121.48425,31.255641],[121.484385,31.255307],[121.484375,31.255181],[121.484045,31.254258],[121.483361,31.252468],[121.482472,31.251191],[121.48243662170538,31.251151293875154],[121.486238,31.249652],[121.487929,31.247729],[121.488287,31.247228],[121.489477,31.245213],[121.488151,31.241788],[121.488562,31.23791],[121.490562,31.23515],[121.489666,31.232996],[121.48837561663893,31.231495648335933],[121.488364,31.231235],[121.487841,31.22965],[121.487076,31.228878],[121.485559,31.227356],[121.485231,31.227279],[121.485052,31.227245],[121.483466,31.227016],[121.48258715263022,31.22738618369278],[121.481783,31.227167],[121.481616,31.227222],[121.47892599141446,31.228161903924544],[121.478376,31.226935],[121.477762,31.225686],[121.477637,31.225489],[121.477399,31.225121],[121.477074,31.224714],[121.47695,31.224686],[121.476635,31.224659],[121.475864,31.224788],[121.472437,31.225989],[121.47163416636434,31.226310988832566],[121.47007385877136,31.226410993407033],[121.470565,31.225219],[121.470335,31.224687],[121.469679,31.223259],[121.469363,31.223086],[121.46775,31.223557]]],[[[121.455242,31.242179],[121.454628,31.241483],[121.453735,31.242146],[121.453112,31.24364],[121.45335,31.244223],[121.454959,31.243681],[121.455447,31.243508],[121.455455,31.243498],[121.455456,31.243412],[121.455415,31.243011],[121.455242,31.242179]]],[[[121.473204,31.254561],[121.473346,31.253987],[121.473063,31.253764],[121.469809,31.252495],[121.469453,31.252493],[121.46919,31.252509],[121.469213,31.252869],[121.470984,31.254524],[121.471269,31.254744],[121.472585,31.254996],[121.473036,31.25488],[121.473204,31.254561]]],[[[121.487468,31.261918],[121.487863,31.261049],[121.487144,31.259256],[121.48546,31.258003],[121.483154,31.257386],[121.48283,31.257543],[121.481385,31.260472],[121.481411,31.262558],[121.481413,31.262726],[121.483094,31.264491],[121.485563,31.264837],[121.485642,31.264836],[121.485968,31.264826],[121.487468,31.261918]]],[[[121.517989,31.1486],[121.518206,31.149093],[121.518491,31.149312],[121.522821,31.15001],[121.522921,31.149665],[121.51906,31.14798],[121.518092,31.148255],[121.517989,31.1486]]],[[[121.510943,31.1613],[121.510187,31.162616],[121.510499,31.162795],[121.510877,31.162137],[121.511236,31.161512],[121.512027,31.160137],[121.511715,31.159958],[121.510943,31.1613]]],[[[121.50698,31.17244],[121.506626,31.172372],[121.503731,31.174247],[121.503552,31.174373],[121.503517,31.174732],[121.505375,31.177151],[121.505717,31.177262],[121.51066,31.175439],[121.510727,31.175085],[121.510734,31.174957],[121.510121,31.174513],[121.50698,31.17244]]],[[[121.487432,31.200429],[121.486603,31.199849],[121.486481,31.199786],[121.486121,31.199796],[121.481268,31.202037],[121.481152,31.202378],[121.483022,31.206701],[121.483247,31.207119],[121.483594,31.207217],[121.488342,31.205956],[121.488561,31.205671],[121.488556,31.205287],[121.488503,31.204381],[121.487432,31.200429]]],[[[121.495018,31.207995],[121.494701,31.207826],[121.491441,31.207821],[121.491223,31.208107],[121.490833,31.210813],[121.490898,31.211167],[121.493414,31.212142],[121.496534,31.211499],[121.496743,31.211205],[121.496181,31.209347],[121.49605,31.209011],[121.495018,31.207995]]],[[[121.498069,31.225176],[121.499135,31.224701],[121.499319,31.224594],[121.499337,31.224558],[121.501431,31.220893],[121.503176,31.218634],[121.503241,31.218458],[121.503242,31.218455],[121.503303,31.218278],[121.50244,31.21692],[121.498941,31.214276],[121.497899,31.213567],[121.496071,31.21256],[121.495335,31.212556],[121.491491,31.212786],[121.489024,31.213934],[121.486239,31.216402],[121.48593,31.217467],[121.486594,31.220281],[121.486784,31.220925],[121.487951,31.222933],[121.489535,31.224175],[121.492905,31.226828],[121.493216,31.227008],[121.4966,31.22576],[121.498069,31.225176]]],[[[121.500986,31.262619],[121.500774,31.25997],[121.500541,31.259695],[121.498491,31.259183],[121.495173,31.258634],[121.49317,31.258495],[121.492931,31.258764],[121.491187,31.263208],[121.490759,31.264355],[121.490876,31.264696],[121.492079,31.266393],[121.49545,31.267596],[121.498303,31.268119],[121.498643,31.268001],[121.501025,31.266215],[121.501146,31.265876],[121.500986,31.262619]]],[[[121.489285,31.26901],[121.488682,31.269263],[121.488444,31.269533],[121.488729,31.271357],[121.488835,31.271647],[121.489144,31.271833],[121.491154,31.271757],[121.491397,31.271491],[121.490936,31.269134],[121.490652,31.268912],[121.489285,31.26901]]],[[[121.515537,31.273713],[121.515166,31.273595],[121.511042,31.276023],[121.510945,31.27637],[121.513291,31.279382],[121.513639,31.279474],[121.515293,31.279456],[121.517029,31.277966],[121.517118,31.277618],[121.517306,31.275984],[121.515537,31.273713]]],[[[121.496719,31.276195],[121.496478,31.276462],[121.496349,31.276614],[121.496297,31.277093],[121.496339,31.277268],[121.496577,31.277538],[121.497359,31.277545],[121.497571,31.277431],[121.497809,31.277162],[121.4978,31.276454],[121.497557,31.276189],[121.496719,31.276195]]],[[[121.511874,31.284161],[121.509971,31.286127],[121.509939,31.286486],[121.510011,31.286589],[121.512164,31.287057],[121.512311,31.286995],[121.5124,31.286646],[121.512213,31.284282],[121.511874,31.284161]]],[[[121.564371,31.105137],[121.564324,31.105494],[121.565648,31.107033],[121.565996,31.107125],[121.567983,31.106182],[121.568025,31.106019],[121.566767,31.103726],[121.56642,31.103628],[121.564371,31.105137]]],[[[121.564136,31.113775],[121.563789,31.113682],[121.561204,31.115211],[121.561184,31.115571],[121.562899,31.119706],[121.563258,31.119741],[121.566528,31.117738],[121.566588,31.117384],[121.566595,31.11593],[121.564219,31.113834],[121.564136,31.113775]]],[[[121.563292,31.148603],[121.563346,31.14831],[121.56337,31.14801],[121.563395,31.147702],[121.563422,31.147026],[121.563448,31.146343],[121.563447,31.144324],[121.563446,31.140286],[121.563445,31.138267],[121.563445,31.138262],[121.563384,31.13601],[121.563273,31.135102],[121.563162,31.134194],[121.562709,31.130938],[121.562351,31.130978],[121.562494,31.132281],[121.562637,31.133584],[121.562734,31.134542],[121.563086,31.140286],[121.563086,31.141878],[121.563087,31.142305],[121.563087,31.144324],[121.563088,31.146344],[121.562255,31.150814],[121.561772,31.152253],[121.562113,31.152367],[121.562597,31.150929],[121.563084,31.149478],[121.563161,31.149186],[121.563241,31.148879],[121.563292,31.148603]]],[[[121.536224,31.150203],[121.535913,31.150021],[121.531841,31.152026],[121.531774,31.152071],[121.531685,31.152419],[121.533005,31.155178],[121.533268,31.155423],[121.5374,31.154738],[121.538385,31.154161],[121.53848,31.153813],[121.538597,31.152237],[121.536224,31.150203]]],[[[121.613434,31.056303],[121.61131,31.058675],[121.6113,31.058704],[121.611442,31.059058],[121.612244,31.059999],[121.612582,31.060124],[121.613465,31.05805],[121.6137,31.057341],[121.613935,31.056632],[121.61381,31.056402],[121.613434,31.056303]]],[[[121.608341,31.074611],[121.607991,31.074528],[121.604983,31.07668],[121.602041,31.078557],[121.601039,31.079184],[121.600932,31.079527],[121.600944,31.079625],[121.603631,31.082737],[121.604964,31.084666],[121.605281,31.084837],[121.61076,31.082537],[121.613179,31.08134],[121.613275,31.080993],[121.611278,31.078421],[121.608341,31.074611]]],[[[121.574739,31.094438],[121.574954,31.094727],[121.576686,31.093437],[121.577362,31.092774],[121.578019,31.092126],[121.578144,31.091975],[121.577867,31.091746],[121.574739,31.094438]]],[[[121.607764,31.114177],[121.606471,31.112349],[121.606187,31.112127],[121.603241,31.108288],[121.605013,31.105655],[121.605055,31.105297],[121.604924,31.105146],[121.603713,31.104328],[121.603355,31.104294],[121.602861,31.104322],[121.602197,31.10472],[121.602016,31.104843],[121.598262,31.107553],[121.598223,31.107911],[121.59659,31.112932],[121.595576,31.113611],[121.595518,31.113966],[121.598178,31.117268],[121.600482,31.120094],[121.60097,31.120437],[121.60132,31.120519],[121.604765,31.118589],[121.608523,31.117039],[121.608566,31.116681],[121.607764,31.114177]]],[[[121.612807,31.129976],[121.612463,31.129869],[121.611454,31.130043],[121.608831,31.132174],[121.608812,31.132533],[121.610923,31.135023],[121.611269,31.135123],[121.617001,31.133496],[121.617545,31.133035],[121.617569,31.132676],[121.617047,31.13209],[121.612807,31.129976]]],[[[121.792562,31.169671],[121.792583,31.169641],[121.792291,31.169431],[121.79227,31.16946],[121.792255,31.169803],[121.792562,31.169671]]],[[[121.75882,31.201741],[121.758848,31.201382],[121.756298,31.196811],[121.754627,31.195817],[121.751538,31.196225],[121.75051,31.196893],[121.74552,31.199646],[121.744989,31.199903],[121.74451,31.200141],[121.744455,31.200496],[121.744653,31.20192],[121.744985,31.202059],[121.750073,31.201271],[121.751751,31.20128],[121.754001,31.201413],[121.757824,31.201815],[121.75882,31.201741]]],[[[121.596382,31.257321],[121.598641,31.258944],[121.599483,31.259486],[121.600331,31.260032],[121.601801,31.26089],[121.603281,31.261753],[121.603562,31.261896],[121.603852,31.262042],[121.604136,31.262171],[121.604427,31.262302],[121.604719,31.262422],[121.605017,31.262545],[121.605326,31.262661],[121.605641,31.262779],[121.608377,31.263692],[121.611666,31.264789],[121.61178,31.264447],[121.610274,31.263945],[121.608768,31.263442],[121.608491,31.26335],[121.607401,31.262987],[121.601983,31.260579],[121.597614,31.257698],[121.59729632654586,31.257489659665826],[121.5974,31.257503],[121.597599,31.257202],[121.596739,31.253969],[121.593376,31.251249],[121.593087,31.251035],[121.592874,31.251025],[121.588944,31.251699],[121.588748,31.252],[121.588676,31.253302],[121.589041,31.256189],[121.589315,31.256423],[121.593779,31.255827],[121.595496,31.256569],[121.595814,31.256771],[121.59650253160144,31.257136225666827],[121.596382,31.257321]]],[[[121.580808,31.257371],[121.578314,31.257282],[121.574383,31.256051],[121.574225,31.256033],[121.574018,31.256328],[121.573869,31.259979],[121.573875,31.260126],[121.573958,31.260402],[121.574009,31.26047],[121.574177,31.260688],[121.574232,31.260753],[121.579216,31.261593],[121.580316,31.262287],[121.580582,31.262045],[121.580997,31.257774],[121.580992,31.25768],[121.580808,31.257371]]],[[[121.584956,31.266408],[121.580697,31.262651],[121.580414,31.262873],[121.580723,31.267045],[121.582971,31.268566],[121.583322,31.268487],[121.583666,31.268377],[121.584997,31.266837],[121.585009,31.266477],[121.584956,31.266408]]],[[[121.628597,31.266406],[121.6279,31.266133],[121.627652,31.266135],[121.627404,31.266137],[121.622851,31.266414],[121.621318,31.26637],[121.621286,31.266372],[121.621204,31.266445],[121.621146,31.266521],[121.621146,31.266549],[121.62121,31.266805],[121.621239,31.266834],[121.621268,31.266856],[121.621286,31.26686],[121.627223,31.267301],[121.627583,31.267298],[121.6286,31.266766],[121.628597,31.266406]]],[[[121.583705,31.271794],[121.58371,31.272188],[121.583773,31.27379],[121.583999,31.276141],[121.584357,31.276112],[121.584199,31.273006],[121.584177,31.272747],[121.584077,31.271857],[121.583757,31.271693],[121.583705,31.271794]]]]}},{"type":"Feature","properties":{"limit":50,"included_stations":175,"boundary_stations":6,"source_polygon_count":175},"geometry":{"type":"MultiPolygon","coordinates":[[[[121.443094,31.186746],[121.440516,31.18148],[121.440162,31.181414],[121.43922,31.181365],[121.435557,31.183907],[121.435372,31.184215],[121.435106,31.18512],[121.435012,31.185468],[121.436693,31.190195],[121.437351,31.190496],[121.437428,31.190509],[121.439854,31.190353],[121.441675,31.1896],[121.44279,31.1875],[121.443094,31.186746]]],[[[121.447974,31.179206],[121.444309,31.181393],[121.444209,31.181739],[121.444383,31.184106],[121.444392,31.184159],[121.445393,31.188024],[121.44582377403358,31.188578267878693],[121.444974,31.188774],[121.442973,31.189706],[121.442887,31.18975],[121.442847,31.189837],[121.442846,31.190043],[121.443473,31.191617],[121.44457633295733,31.193732997144426],[121.443944,31.194009],[121.442892,31.193396],[121.442575,31.193225],[121.442378,31.19318],[121.438968,31.194667],[121.43769690504641,31.195183170575383],[121.437373,31.194265],[121.432956,31.191336],[121.432618,31.191461],[121.431295,31.192301],[121.426869,31.193259],[121.426558,31.19344],[121.425713,31.194901],[121.425855,31.195232],[121.429885,31.198797],[121.43120007800854,31.199646013377233],[121.431174,31.199685],[121.428676,31.201962],[121.425309,31.201648],[121.424793,31.201631],[121.42466,31.201965],[121.424558,31.203878],[121.424666,31.205217],[121.424735,31.20557],[121.428025,31.208774],[121.428499,31.209112],[121.42885,31.209194],[121.434419,31.208043],[121.43448860386867,31.20799581885413],[121.433951,31.210429],[121.434232,31.210653],[121.435019,31.211078],[121.43813246802213,31.212492175951443],[121.434699,31.213299],[121.434144,31.21346],[121.43401534340595,31.213485731318812],[121.433424,31.212691],[121.431424,31.21083],[121.431095,31.210683],[121.428668,31.21026],[121.428562,31.210245],[121.42831,31.210227],[121.428202,31.210224],[121.424643,31.210746],[121.422183,31.212],[121.420445,31.213458],[121.4190694791392,31.214613263406505],[121.41772,31.212996],[121.415978,31.211424],[121.415794,31.2113],[121.412908,31.209741],[121.412883,31.209736],[121.41234,31.209779],[121.411834,31.210017],[121.407734,31.212514],[121.40488407821738,31.213883383141336],[121.406586,31.211616],[121.406476,31.211273],[121.404024,31.210182],[121.400101,31.207953],[121.398656,31.207316],[121.39543,31.20611],[121.395074,31.206164],[121.393701,31.207576],[121.39012,31.210316],[121.389103,31.211634],[121.38788947610546,31.214452006461563],[121.387023,31.214026],[121.385366,31.213215],[121.380131,31.212809],[121.379776,31.212866],[121.378597,31.214058],[121.376509,31.21646],[121.375731,31.217492],[121.37576,31.217851],[121.379762,31.221331],[121.381523,31.221642],[121.381875,31.221564],[121.386436,31.220378],[121.38857238068681,31.216569098739395],[121.391116,31.218461],[121.392576,31.220213],[121.39264,31.220304],[121.393193,31.220548],[121.393524,31.220691],[121.395103,31.220194],[121.39983330749409,31.218821123399707],[121.399224,31.219861],[121.399232,31.219997],[121.39932,31.220346],[121.402408,31.223377],[121.403543,31.224545],[121.406183,31.22822],[121.407372,31.22995],[121.407732,31.229932],[121.41018,31.229753],[121.411176,31.229271],[121.415744,31.226451],[121.41668512583365,31.22587646655327],[121.41792607296298,31.22836941378234],[121.41704,31.228327],[121.416757,31.228548],[121.417285,31.231863],[121.417854,31.233071],[121.418174,31.233236],[121.420819,31.234313],[121.421156,31.234186],[121.42120403143396,31.23174840472638],[121.422912,31.23252],[121.423263,31.232439],[121.42339,31.232382],[121.425317,31.23079],[121.42615628166389,31.230661119872018],[121.42654538490613,31.231976687758387],[121.423433,31.232543],[121.423097,31.232673],[121.422383,31.237059],[121.422603,31.237343],[121.427168,31.239496],[121.428204,31.239507],[121.428602,31.23949],[121.429929,31.237188],[121.429968,31.23683],[121.42982853118183,31.233615034238674],[121.43052181401721,31.23345482822083],[121.431641,31.23596],[121.433905,31.239091],[121.43395,31.239114],[121.43445375047514,31.239037384888864],[121.43465386306819,31.239437107910362],[121.430572,31.239658],[121.430429,31.239988],[121.429952,31.242309],[121.429822,31.243775],[121.429988,31.244095],[121.431302,31.24459],[121.434521,31.245145],[121.436634,31.245237],[121.436817,31.245154],[121.43696,31.244824],[121.437219,31.242812],[121.43593861380941,31.240047200074287],[121.437109,31.239714],[121.442204,31.238007],[121.44228461559324,31.237822203108212],[121.442929,31.239034],[121.444816,31.24273],[121.44615828661148,31.244015447113274],[121.44624,31.244851],[121.44657186931855,31.24611562323658],[121.445666,31.246718],[121.445473,31.247032],[121.445421,31.247161],[121.445377,31.247379],[121.445296,31.248592],[121.446022,31.253324],[121.446241,31.253609],[121.450914,31.254224],[121.454518,31.255519],[121.45459345491396,31.25549451024722],[121.452425,31.25718],[121.448581,31.259032],[121.448332,31.259292],[121.447926,31.260335],[121.447853,31.260687],[121.449246,31.263183],[121.450786,31.265283],[121.451046,31.265448],[121.454965,31.266415],[121.45915798613133,31.26465835601707],[121.459678,31.266231],[121.461177,31.269669],[121.461965,31.270336],[121.462314,31.270428],[121.468157,31.269774],[121.468488,31.269705],[121.468705,31.269417],[121.469041,31.265696],[121.46759,31.263247],[121.467281,31.263062],[121.46448153082538,31.261772591557584],[121.465428,31.261244],[121.46849534412098,31.26063718725708],[121.468913,31.260867],[121.470944,31.261498],[121.47146077371256,31.261576705996355],[121.473162,31.262897],[121.47442458259074,31.263456475246368],[121.476195,31.267744],[121.48039,31.2704],[121.48115803710122,31.270625219891727],[121.48126,31.273259],[121.482161,31.274419],[121.485459,31.278496],[121.485895,31.278646],[121.486289,31.278701],[121.48768230306914,31.278691419918733],[121.488375,31.279356],[121.492221,31.282628],[121.49239,31.282637],[121.492572,31.28261],[121.496559,31.282404],[121.49963474640647,31.283644062836892],[121.499145,31.284801],[121.499273,31.285137],[121.499919,31.286076],[121.50109210134093,31.28651968368573],[121.499986,31.289183],[121.498991,31.292428],[121.49938689625556,31.294997340128372],[121.494428,31.296675],[121.493322,31.296827],[121.490909,31.301782],[121.491071,31.301976],[121.49131,31.302245],[121.491539,31.302438],[121.491796,31.302598],[121.492081,31.302749],[121.492436,31.302903],[121.492769,31.30286],[121.49737,31.302168],[121.498949,31.302047],[121.500369,31.301498],[121.501591,31.300986],[121.502163,31.299169],[121.502175,31.299109],[121.50033734908571,31.295669163191086],[121.501807,31.296038],[121.506919,31.297379],[121.508936,31.298013],[121.509255,31.297847],[121.509343,31.297766],[121.510249,31.296185],[121.51215384231541,31.293279185281598],[121.512692,31.293092],[121.516914,31.290304],[121.521324,31.289108],[121.521436,31.288766],[121.519327,31.285018],[121.51842809818882,31.28383488352251],[121.519398,31.283294],[121.52152912625736,31.282530049535023],[121.521703,31.282795],[121.522024,31.282958],[121.524568,31.283838],[121.525395,31.283787],[121.527786,31.283024],[121.527951,31.282704],[121.52713,31.279431],[121.526852,31.279202],[121.5244860419103,31.278735850922086],[121.524205,31.277428],[121.524142,31.277158],[121.523453,31.276121],[121.52296,31.275865],[121.52277353559664,31.274949802265194],[121.52412040945615,31.274452555229853],[121.525022,31.275976],[121.525247,31.276257],[121.52567,31.276227],[121.528291,31.275913],[121.531574,31.275132],[121.534026,31.274399],[121.535193,31.27396],[121.535343,31.273633],[121.534705,31.27001],[121.53426267117749,31.268927864625546],[121.535649,31.268339],[121.535885,31.268068],[121.535466,31.262257],[121.53502976697854,31.260912136540057],[121.535453,31.259267],[121.535925,31.257427],[121.535094,31.256092],[121.534748,31.255909],[121.534402,31.255726],[121.53365,31.255299],[121.53351428047327,31.252674471541404],[121.5335996940085,31.252607946983712],[121.536076,31.252949],[121.539893,31.253464],[121.53996539039696,31.253469866934132],[121.54234628910046,31.25515483527325],[121.542351,31.255166],[121.542647,31.255372],[121.544377,31.255016],[121.549641,31.255827],[121.55026,31.256444],[121.550778,31.25698],[121.551059,31.257246],[121.551341,31.257512],[121.5513440961069,31.2575087158704],[121.551374,31.257543],[121.551916,31.257998],[121.552482,31.25847],[121.552969,31.258757],[121.553457,31.259045],[121.55786054624186,31.259186209346943],[121.557978,31.259574],[121.558607,31.262253],[121.561499,31.264472],[121.561673,31.264455],[121.567012,31.263908],[121.56769390892603,31.26359589553001],[121.568365,31.265999],[121.568625,31.266348],[121.568653,31.266383],[121.568895,31.26665],[121.57350893805538,31.266325275174047],[121.573388,31.267168],[121.57406,31.272323],[121.574311,31.272581],[121.57699024271058,31.27326093470543],[121.577412,31.275781],[121.577416,31.280201],[121.577584,31.28052],[121.58062865800416,31.28227806339242],[121.579831,31.282669],[121.579628,31.282928],[121.579559,31.283044],[121.579551,31.283076],[121.579577,31.283281],[121.58059,31.286092],[121.583335,31.288393],[121.58407,31.288891],[121.584577,31.289213],[121.584937,31.289202],[121.588692,31.286432],[121.589824,31.284982],[121.591507,31.282653],[121.591513,31.282547],[121.591514,31.282187],[121.59047947377731,31.2803072778363],[121.590731,31.279808],[121.590832,31.279463],[121.591784,31.274651],[121.591785,31.274592],[121.591715,31.272516],[121.59117758917967,31.270986227400314],[121.592605,31.269759],[121.592742,31.269426],[121.592741,31.269376],[121.592388,31.267492],[121.591626,31.265501],[121.59043133241798,31.261991709757517],[121.593325,31.262593],[121.594807,31.262415],[121.599211,31.265022],[121.599776,31.265312],[121.600133,31.265267],[121.604052,31.262208],[121.60408404145646,31.262146806070845],[121.604421,31.262299],[121.604427,31.262302],[121.604719,31.262422],[121.605012,31.262543],[121.605017,31.262545],[121.605635,31.262777],[121.605641,31.262779],[121.607148,31.263282],[121.608654,31.263784],[121.61263107696556,31.265218369055965],[121.612602,31.265338],[121.612602,31.265519],[121.612962,31.265519],[121.614309,31.265796],[121.61665,31.270498],[121.61665,31.270858],[121.616687,31.27093],[121.61886,31.272836],[121.620721,31.274002],[121.620979,31.274095],[121.621339,31.274095],[121.627243,31.274795],[121.627603,31.274793],[121.630879,31.272099],[121.63448,31.271325],[121.63603186296108,31.26884536356202],[121.636653,31.268892],[121.642007,31.26678],[121.6422592694327,31.266705688074094],[121.646207,31.267341],[121.649582,31.267956],[121.654547,31.268979],[121.657876,31.269622],[121.658191,31.269684],[121.659863,31.269925],[121.659932,31.269572],[121.655971,31.268798],[121.654103,31.268433],[121.6541,31.268432],[121.649651,31.267603],[121.647423,31.267172],[121.644561,31.266642],[121.644153,31.266572],[121.643749,31.266503],[121.643325,31.266451],[121.642909,31.2664],[121.64279825673451,31.266389423395992],[121.642819,31.266194],[121.639445,31.262748],[121.63603,31.260425],[121.635671,31.260447],[121.633729,31.261608],[121.63271279555043,31.26226386240726],[121.631017,31.260718],[121.630657,31.26072],[121.630379,31.261059],[121.625866,31.262595],[121.623196,31.260276],[121.621457,31.259128],[121.621414,31.259091],[121.621054,31.259089],[121.617572,31.26057],[121.6175,31.260625],[121.617453,31.260671],[121.617413,31.260713],[121.6134770819905,31.264244232865792],[121.610274,31.263945],[121.608768,31.263442],[121.607262,31.26294],[121.60432993843983,31.261628653657215],[121.604327,31.260562],[121.604069,31.260311],[121.60174,31.255804],[121.60258,31.254478],[121.602682,31.254133],[121.601081,31.248679],[121.597551,31.245842],[121.596945,31.245511],[121.596736,31.245501],[121.593007,31.245398],[121.58868596866165,31.246150111931296],[121.588445,31.24399],[121.588228,31.243702],[121.58743507472626,31.2419800285261],[121.58911,31.241782],[121.59056430562822,31.241061727834627],[121.590816,31.241432],[121.59305947003337,31.242542569770997],[121.594159,31.24393],[121.594451,31.24414],[121.596397,31.244018],[121.599518,31.243055],[121.603011,31.24169],[121.603114,31.24164],[121.603218,31.241295],[121.60351428995797,31.239291687583787],[121.60688,31.239874],[121.60817865146686,31.240742954749365],[121.605968,31.241924],[121.605874,31.241976],[121.605766,31.242319],[121.605859,31.242482],[121.605916,31.242581],[121.607381,31.245107],[121.607718,31.245234],[121.61199,31.246804],[121.612337,31.2469],[121.612373,31.246889],[121.612667,31.246789],[121.616009,31.244568],[121.616209,31.244368],[121.616214,31.244008],[121.616182,31.243931],[121.61520227715704,31.242986579064983],[121.615237,31.24298],[121.615295,31.242964],[121.618815,31.240109],[121.622627,31.237922],[121.622976,31.237637],[121.623047,31.237553],[121.626849,31.235171],[121.628743,31.235555],[121.628956,31.235549],[121.630391,31.233888],[121.630421,31.233262],[121.630411,31.233229],[121.63359198260467,31.22910069101868],[121.63512361585548,31.229325767931318],[121.63513382000677,31.229330617428964],[121.637469,31.233972],[121.636211,31.236615],[121.638972,31.238795],[121.642572,31.238799],[121.644737,31.237548],[121.649984,31.240263],[121.650369,31.241299],[121.651593,31.241592],[121.65341,31.241369],[121.65853,31.241514],[121.659625,31.240331],[121.663446,31.238001],[121.66578969889567,31.236827816884357],[121.665846,31.236904],[121.666403,31.23868],[121.667119,31.238903],[121.667946,31.23914],[121.671098,31.237487],[121.673661,31.236684],[121.674151,31.236356],[121.675105,31.232885],[121.680823,31.231134],[121.682553,31.231875],[121.683668,31.232254],[121.68496,31.231604],[121.688706,31.227586],[121.693721,31.224801],[121.693884,31.224739],[121.697101,31.223011],[121.699787,31.221338],[121.699889,31.220963],[121.699531,31.219165],[121.698337,31.213806],[121.698768,31.212878],[121.697924,31.211416],[121.695455,31.206792],[121.69542084353944,31.206731767964982],[121.698812,31.205452],[121.70345,31.203565],[121.70377,31.203341],[121.703877,31.202998],[121.703539,31.202011],[121.70334092824149,31.201609052727445],[121.705189,31.200053],[121.70746485464839,31.199516358281596],[121.707451,31.20398],[121.70728,31.204432],[121.707176,31.204777],[121.709119,31.208836],[121.709435,31.209008],[121.713994,31.206976],[121.718021,31.208541],[121.718209,31.208646],[121.718411,31.208759],[121.718768,31.208917],[121.719134,31.209079],[121.719354,31.209162],[121.719574,31.209244],[121.719786,31.209259],[121.722453,31.208411],[121.725338,31.206041],[121.729562,31.205352],[121.73156,31.204363],[121.736261,31.202223],[121.73687904544373,31.20180699124204],[121.736963,31.201963],[121.739834,31.205725],[121.740865,31.205888],[121.741896,31.206051],[121.74308,31.206232],[121.743717,31.206322],[121.743768,31.205966],[121.744466,31.203025],[121.748746,31.201107],[121.74908,31.201133],[121.749408,31.201158],[121.750073,31.201271],[121.751348,31.201258],[121.751751,31.20128],[121.754001,31.201413],[121.75753,31.203908],[121.758635,31.206906],[121.758946,31.207087],[121.759271,31.207118],[121.759714,31.20636],[121.760157,31.205603],[121.760922,31.204336],[121.765071,31.201537],[121.765104,31.201179],[121.764999,31.197803],[121.764971,31.197379],[121.764806,31.197015],[121.762107,31.194697],[121.76188,31.194604],[121.761652,31.19451],[121.761384,31.194465],[121.761158,31.194431],[121.76022,31.194374],[121.756104,31.192655],[121.754524,31.189821],[121.754173,31.189771],[121.753823,31.189722],[121.748758,31.192459],[121.748115,31.192554],[121.743111,31.195141],[121.741314,31.195451],[121.7385963974909,31.19709986185906],[121.737367,31.194848],[121.735788,31.191573],[121.733402,31.188785],[121.731249,31.183857],[121.730736,31.183673],[121.730222,31.183488],[121.728424,31.183299],[121.724524,31.178938],[121.724194,31.178795],[121.724068,31.178773],[121.723895,31.17911],[121.723723,31.179447],[121.723492,31.179939],[121.723265,31.180426],[121.718035,31.182699],[121.717244,31.182459],[121.71678,31.182316],[121.716316,31.182172],[121.716186,31.182203],[121.711773,31.183273],[121.711274,31.183475],[121.71062496374923,31.183773930574624],[121.709072,31.181314],[121.707341,31.178077],[121.705834,31.17609],[121.705484,31.176007],[121.701456,31.174796],[121.700776,31.169858],[121.700718,31.169688],[121.700388,31.169545],[121.700185,31.170016],[121.699982,31.170487],[121.699864,31.170735],[121.699744,31.170989],[121.699559,31.171439],[121.699379,31.171881],[121.69917,31.172503],[121.698966,31.173114],[121.693728,31.175529],[121.692697,31.175126],[121.691697,31.174632],[121.690551,31.174129],[121.68941,31.173627],[121.688986,31.173428],[121.688559,31.173227],[121.688039,31.173],[121.68752,31.172772],[121.687375,31.173101],[121.68470894672495,31.17611426894269],[121.682795,31.174148],[121.682465,31.174003],[121.677921,31.176267],[121.67487,31.177286],[121.669543,31.179416],[121.665683,31.181694],[121.663337,31.182783],[121.661674,31.183807],[121.661589,31.184157],[121.660672,31.188256],[121.660577,31.188549],[121.660482,31.188843],[121.65988,31.190962],[121.65905590618637,31.19128054915581],[121.658346,31.191094],[121.65817,31.191071],[121.657322,31.191328],[121.65415743963221,31.19272919241698],[121.652225,31.192886],[121.649727,31.193947],[121.64963,31.194294],[121.649816,31.19468],[121.65090068727548,31.19707504465786],[121.646322,31.198699],[121.645805,31.198611],[121.640991,31.197432],[121.637559,31.196344],[121.63742315181432,31.196384569724906],[121.636642,31.195398],[121.636541,31.195341],[121.633106,31.194721],[121.63167439034565,31.192154563947692],[121.631946,31.192202],[121.632907,31.192318],[121.634665,31.192726],[121.634715,31.192732],[121.634761,31.192375],[121.632391,31.189616],[121.62899776904207,31.1878471458151],[121.628623,31.187291],[121.627094,31.185306],[121.626579,31.18526],[121.624612,31.185741],[121.620403,31.185354],[121.620164,31.185403],[121.61947573060579,31.185507132379716],[121.616603,31.183633],[121.613194,31.179834],[121.610572,31.178527],[121.607771,31.176394],[121.607051,31.175906],[121.606601,31.17566],[121.605788,31.175354],[121.6045794370352,31.17431009764326],[121.602301,31.170219],[121.601515,31.168417],[121.601458,31.168295],[121.601142,31.168124],[121.60039,31.168315],[121.595062,31.169426],[121.593978,31.169488],[121.59048199611014,31.171783405791164],[121.591313,31.168457],[121.59214,31.167833],[121.591924,31.167546],[121.588197,31.166467],[121.58685887179259,31.165045871404534],[121.587179,31.164771],[121.587729,31.164683],[121.588876,31.164579],[121.589943,31.164199],[121.590486,31.163874],[121.591041,31.16354],[121.591181,31.163437],[121.592477,31.162611],[121.592755,31.162383],[121.594086,31.160669],[121.597139,31.159501],[121.600314,31.161535],[121.60121,31.162706],[121.603447,31.163346],[121.603472,31.163345],[121.605927,31.161727],[121.60616,31.161452],[121.609599,31.15669],[121.609661,31.156336],[121.605835,31.151952],[121.605507,31.151804],[121.605405,31.152031],[121.600293,31.154662],[121.598054,31.154258],[121.595814,31.153853],[121.594593,31.153622],[121.593371,31.15339],[121.59101515773165,31.150226440382486],[121.595102,31.147341],[121.595743,31.147461],[121.596465,31.147674],[121.597501,31.148193],[121.598486,31.148917],[121.598571,31.148962],[121.600368,31.147921],[121.603656,31.144147],[121.605681,31.14367],[121.607923,31.142989],[121.608113,31.142684],[121.608322237242,31.141990617346142],[121.608663,31.142266],[121.608943,31.142378],[121.609099,31.142412],[121.613871,31.14007],[121.617293,31.138346],[121.61737,31.137995],[121.617523,31.135617],[121.621834,31.13339],[121.623669,31.133573],[121.624956,31.133704],[121.626243,31.133834],[121.62628,31.133476],[121.624578,31.13132],[121.624237,31.131205],[121.620837,31.128842],[121.619197,31.124825],[121.614839,31.122688],[121.614494,31.122587],[121.614059,31.124073],[121.610053,31.127103],[121.605512,31.128923],[121.60187268617169,31.130411322227992],[121.59982315220863,31.12748924986332],[121.604342,31.125186],[121.604409,31.125042],[121.604475,31.124112],[121.604767,31.122853],[121.604943,31.122096],[121.609945,31.119585],[121.611493,31.120068],[121.612672,31.120302],[121.613852,31.120537],[121.614134,31.120459],[121.614279,31.120223],[121.614345,31.119868],[121.615392,31.114129],[121.615682,31.113789],[121.615786,31.11366],[121.615961,31.113391],[121.616136,31.113122],[121.615834,31.112926],[121.613111,31.112289],[121.61332,31.106359],[121.613336,31.106],[121.613288,31.104798],[121.60928,31.101384],[121.608495,31.101338],[121.604361,31.097458],[121.604418,31.096858],[121.60406,31.096824],[121.603615,31.096863],[121.600863,31.099123],[121.597693,31.100882],[121.595268,31.102212],[121.593423,31.103317],[121.59337,31.103673],[121.593365,31.103785],[121.59129,31.109327],[121.590211,31.109988],[121.590148,31.110343],[121.589779,31.116131],[121.589775,31.116491],[121.589873,31.116597],[121.590075,31.116775],[121.593665,31.121252],[121.593991,31.121403],[121.594226,31.121427],[121.597805,31.120257],[121.599548,31.124267],[121.599343,31.124959],[121.598928,31.126241],[121.59874627894641,31.126801015362265],[121.598746,31.126801],[121.5987049192891,31.12692847469079],[121.598512,31.127523],[121.59851263122604,31.12752346050298],[121.598415,31.127824],[121.595239,31.131603],[121.592967,31.131791],[121.591158,31.131829],[121.588936,31.131457],[121.587333,31.131996],[121.587328,31.132356],[121.586842,31.13616],[121.582542,31.136087],[121.582197,31.135985],[121.580208,31.137225],[121.579573,31.137692],[121.579484,31.13786],[121.579473,31.137953],[121.580944,31.140448],[121.583833,31.142784],[121.583709,31.146404],[121.583695,31.146764],[121.5845,31.146796],[121.585305,31.146828],[121.58704821682225,31.146870436304503],[121.582482,31.149591],[121.581367,31.149303],[121.580604,31.149301],[121.579407,31.149892],[121.57595380813065,31.151491008122633],[121.572554,31.149301],[121.570375,31.148978],[121.5695,31.148875],[121.568819,31.149079],[121.563022,31.149663],[121.56302191765917,31.1496629722311],[121.563084,31.149478],[121.563161,31.149186],[121.563241,31.148879],[121.563292,31.148603],[121.563343,31.148327],[121.563346,31.14831],[121.56337,31.14801],[121.563395,31.14771],[121.563395,31.147702],[121.563422,31.147026],[121.563448,31.14635],[121.563448,31.146343],[121.563447,31.144324],[121.567432,31.140815],[121.570905,31.137332],[121.570924,31.136973],[121.570042,31.135312],[121.569709,31.135175],[121.56793,31.129652],[121.567985,31.129296],[121.56450810958229,31.126103057264952],[121.566812,31.124377],[121.5718,31.121793],[121.574447,31.118744],[121.574517,31.118391],[121.574409,31.117262],[121.574161,31.116735],[121.571998,31.113317],[121.57013024996083,31.111264620648917],[121.572486,31.109946],[121.576316,31.107901],[121.5764,31.107551],[121.574665,31.107135],[121.573802,31.102071],[121.573802,31.101711],[121.571545,31.097137],[121.57154466569042,31.09713653355854],[121.571724,31.097008],[121.576997,31.0993],[121.577352,31.09968],[121.577712,31.099702],[121.580922,31.097546],[121.583218,31.095465],[121.583365,31.095305],[121.583362,31.095269],[121.583232,31.095105],[121.581943,31.093156],[121.581329,31.088494],[121.581376,31.088138],[121.580327,31.08663],[121.579973,31.086563],[121.577197,31.086899],[121.577085,31.087241],[121.576471,31.093149],[121.576452,31.093165],[121.575605,31.093793],[121.573753,31.094329],[121.56984,31.091902],[121.569485,31.091842],[121.566057,31.093214],[121.565964,31.093561],[121.567354,31.097385],[121.5677065047161,31.098179025774638],[121.564237,31.099389],[121.560714,31.101309],[121.55873,31.104438],[121.55868,31.104795],[121.558557,31.108529],[121.56122765473084,31.11180125670352],[121.558065,31.11514],[121.556384,31.115103],[121.555966,31.115084],[121.554172,31.114998],[121.55355,31.114941],[121.552935,31.114885],[121.552717,31.114857],[121.5525,31.114829],[121.552454,31.115186],[121.553691,31.116485],[121.554517,31.120889],[121.554541,31.121249],[121.556861,31.123175],[121.559308,31.124497],[121.56021044864126,31.12555208832242],[121.557555,31.127694],[121.556513,31.127537],[121.555471,31.12738],[121.555417,31.127736],[121.558892,31.130715],[121.557716,31.134929],[121.555676,31.136237],[121.555658,31.136597],[121.556695,31.137713],[121.557048,31.137783],[121.558464,31.138208],[121.561511,31.142066],[121.563036,31.14768],[121.562736,31.149386],[121.56268138862693,31.149548131061866],[121.562681,31.149548],[121.562518,31.149546],[121.557913,31.152425],[121.55435377804996,31.154339504680255],[121.553002,31.15263],[121.552661,31.152514],[121.549288,31.151499],[121.548939,31.151411],[121.546266,31.152794],[121.5444483387445,31.153914799583834],[121.543158,31.1505],[121.540722,31.146036],[121.540718,31.146034],[121.540621,31.146185],[121.540517,31.146332],[121.535595,31.147901],[121.5335,31.146402],[121.533168,31.146264],[121.528174,31.147866],[121.52714678872242,31.148288192066644],[121.52586,31.145792],[121.524237,31.142519],[121.523765,31.141598],[121.523428,31.14147],[121.52332,31.14145],[121.519297,31.142687],[121.516336,31.143221],[121.51316556989455,31.144458019712015],[121.51278,31.144044],[121.510459,31.139577],[121.51015,31.139391],[121.509841,31.139579],[121.509482,31.140026],[121.509331,31.140353],[121.508933,31.141087],[121.508415,31.141983],[121.50441,31.144107],[121.50137,31.142874],[121.501049,31.142713],[121.500615,31.142854],[121.500498,31.143194],[121.50071389868958,31.14768817810343],[121.495664,31.150249],[121.49566,31.150609],[121.498102,31.155132],[121.498417,31.155522],[121.499009,31.155506],[121.502693,31.154671],[121.504160580824,31.15393585239241],[121.504566,31.154608],[121.506732,31.156786],[121.5068710024388,31.1568447925723],[121.506681,31.156906],[121.50355,31.157927],[121.502369,31.160577],[121.502283,31.160927],[121.50416,31.16419],[121.5054547271214,31.166523291417917],[121.505323,31.166611],[121.501884,31.170174],[121.49904055647802,31.171052785286285],[121.497244,31.169426],[121.4940022643578,31.16689767449033],[121.495972,31.165487],[121.496031,31.165132],[121.494038,31.161998],[121.492221,31.156926],[121.491879,31.156812],[121.486259,31.15772],[121.483141,31.159654],[121.482993,31.159982],[121.486004,31.164264],[121.490472,31.166392],[121.490777,31.166526],[121.491083,31.166661],[121.491303,31.166745],[121.491514,31.166826],[121.49187511646853,31.16687318104614],[121.48967200341444,31.168580103771337],[121.489586,31.168497],[121.486743,31.164946],[121.48652,31.164701],[121.486161,31.164698],[121.486012,31.164963],[121.485969,31.16532],[121.485725,31.166516],[121.480489,31.168034],[121.480139,31.167949],[121.479094,31.168457],[121.47629681351371,31.169535477590557],[121.476023,31.168733],[121.474016,31.165828],[121.473685,31.165685],[121.470212,31.166365],[121.469952,31.166447],[121.466985,31.167549],[121.466596,31.167783],[121.466436,31.168257],[121.466275,31.168731],[121.466275,31.168732],[121.466179,31.16902],[121.46608,31.169317],[121.466023,31.169519],[121.465966,31.169721],[121.466465,31.172265],[121.463845,31.176983],[121.463574,31.177461],[121.464135,31.182451],[121.464164,31.18257],[121.46653,31.183663],[121.467188,31.183826],[121.467546,31.183834],[121.469777,31.183429],[121.473208,31.181622],[121.47474885917681,31.181185974419233],[121.47545687256991,31.182822262229827],[121.474846,31.183216],[121.474726,31.183556],[121.475376,31.185581],[121.477023,31.187471],[121.477686,31.187635],[121.477712,31.187636],[121.477761,31.187627],[121.477773,31.187623],[121.478048,31.187525],[121.47845001960232,31.18730128069459],[121.478713,31.187586],[121.478834,31.187651],[121.478841,31.187651],[121.479093,31.187585],[121.479299,31.187529],[121.48118018096402,31.186932389401516],[121.481645,31.187822],[121.483315,31.18975],[121.485163,31.190987],[121.485359,31.19109],[121.48622959153928,31.19143375480599],[121.486426,31.191671],[121.486695,31.191758],[121.48738323669079,31.191889273895413],[121.489244,31.192624],[121.49002893659538,31.19280622371792],[121.49489,31.195022],[121.495254,31.195318],[121.495916,31.195907],[121.497804,31.196545],[121.49801461359304,31.196613972872573],[121.499979,31.20061],[121.500227,31.200872],[121.501101,31.201705],[121.502575,31.202667],[121.502888,31.202844],[121.50318607215212,31.202829215923227],[121.503543,31.203637],[121.503571,31.203658],[121.503731,31.203705],[121.503918,31.203755],[121.50576214913116,31.203943195439606],[121.505304,31.20489],[121.503283,31.208594],[121.50323189495731,31.2090283174867],[121.502194,31.208262],[121.501532,31.20669],[121.499065,31.20551],[121.49764082144843,31.20549783226092],[121.496586,31.204723],[121.495239,31.202479],[121.49509,31.202276],[121.49494,31.202072],[121.49469502997252,31.2020428318075],[121.494363,31.201591],[121.493416,31.200386],[121.492847,31.199677],[121.491909,31.198629],[121.49087,31.197488],[121.490696,31.197338],[121.490061,31.196924],[121.489544,31.196604],[121.489026,31.196284],[121.487926,31.196204],[121.483453,31.197156],[121.48235142426512,31.19697057758223],[121.481311,31.195645],[121.480961,31.195562],[121.47753555847326,31.19476804178649],[121.47722,31.194247],[121.474836,31.19369],[121.470482,31.193296],[121.470123,31.193282],[121.46563981051177,31.19460603593238],[121.465194,31.192717],[121.464,31.189586],[121.46372,31.189359],[121.46108107699457,31.18957608021695],[121.460198,31.186602],[121.460061,31.183315],[121.459582,31.18242],[121.456633,31.18096],[121.452455,31.180328],[121.447974,31.179206]],[[121.503975,31.279651],[121.504238,31.278449],[121.50428036183277,31.27778221374915],[121.50434036337306,31.277798661295677],[121.505376,31.280354],[121.5056928737383,31.280800972993365],[121.50478,31.281498],[121.504388,31.282032],[121.50413740759605,31.28266818269273],[121.503755,31.282534],[121.50323663989948,31.282366512749263],[121.503975,31.279651]],[[121.527507,31.174922],[121.526814,31.174777],[121.526122,31.174632],[121.523001,31.174045],[121.52282,31.174011],[121.522625,31.173975],[121.520379,31.173583],[121.519541,31.173898],[121.5175503125627,31.17465647451171],[121.516372,31.172843],[121.515224,31.172014],[121.514884,31.171894],[121.51132928074773,31.167528898715542],[121.514087,31.165727],[121.518887,31.162761],[121.519645,31.162009],[121.519714,31.161656],[121.519615,31.161115],[121.517193,31.15766],[121.51618255874261,31.15556828122095],[121.518152,31.155184],[121.522276,31.153165],[121.52438015999834,31.152677859431556],[121.524641,31.153303],[121.526426,31.15654],[121.526972,31.157231],[121.528897,31.162207],[121.529189,31.162418],[121.530984,31.161633],[121.535943,31.160149],[121.536835,31.160126],[121.54188,31.159537],[121.54454655320903,31.157715860469917],[121.545959,31.159863],[121.547608,31.160934],[121.547949,31.161051],[121.550403,31.160662],[121.55200977253756,31.15988303667379],[121.55224220436043,31.1617997509211],[121.549518,31.163697],[121.546065,31.168561],[121.54596772927185,31.168793207993573],[121.54332294714125,31.170825127026138],[121.543301,31.170788],[121.542123,31.169673],[121.540947,31.169259],[121.539524,31.170234],[121.538328,31.170993],[121.534202,31.173339],[121.532078,31.17417],[121.529769,31.178479],[121.52955882378427,31.17844086217494],[121.527507,31.174922]],[[121.45764608371164,31.249448114949292],[121.460381,31.249261],[121.46145429977548,31.249511772940103],[121.45845671931843,31.2508056282052],[121.45764608371164,31.249448114949292]],[[121.43629,31.201502],[121.437386,31.203636],[121.43835453358201,31.205381415454294],[121.43539799502429,31.20646412338178],[121.434414,31.202786],[121.43350059934389,31.200155187331763],[121.43593711419203,31.199792302141613],[121.43629,31.201502]],[[121.449802,31.209899],[121.44857905286474,31.210394490839317],[121.44806149301759,31.209757944979728],[121.449737,31.209033],[121.45016695953584,31.20879884008189],[121.45077725722234,31.20962362328648],[121.449802,31.209899]],[[121.459766,31.259884],[121.46175613723533,31.262092807609857],[121.46015079032863,31.262741559638012],[121.459133,31.259494],[121.45905,31.259312],[121.455549,31.255377],[121.454864,31.25542],[121.45478174220474,31.25543339945986],[121.45486,31.255408],[121.45562920566817,31.254658651543366],[121.459142,31.258683],[121.459766,31.259884]],[[121.493915,31.245405],[121.492856,31.245734],[121.4913994993319,31.245387768116924],[121.490326,31.244778],[121.488011,31.239946],[121.48803288841225,31.239771604520346],[121.4881037531233,31.239550071770235],[121.491283,31.241037],[121.49165870553091,31.24140264889693],[121.493488,31.243402],[121.495112,31.244138],[121.49589713766096,31.245532652424068],[121.494376,31.245399],[121.493915,31.245405]],[[121.508742,31.156234],[121.50883046321876,31.156213571442812],[121.50865235423255,31.15627094751106],[121.508742,31.156234]],[[121.56880757413552,31.230114961337193],[121.570279,31.22865],[121.57052419106333,31.22849034665878],[121.572519,31.22995],[121.57334011043493,31.231082862807536],[121.569573,31.232001],[121.56957058048198,31.2320015176131],[121.569419,31.231479],[121.56880757413552,31.230114961337193]],[[121.5239459360446,31.249291383401246],[121.524131,31.249121],[121.52544797556061,31.249338425210475],[121.52688867129272,31.25183654976191],[121.52582955587803,31.25194018852352],[121.5239459360446,31.249291383401246]],[[121.50675183939295,31.27133894269028],[121.50662630708761,31.271467058297073],[121.50654583624038,31.271430145064393],[121.50675183939295,31.27133894269028]],[[121.58416,31.235035],[121.58320624889572,31.232954556201182],[121.587451,31.230523],[121.58817457364805,31.230687448556377],[121.590056,31.235237],[121.5898966695249,31.23572036370398],[121.587612,31.236137],[121.58619486085067,31.235685005717748],[121.586193,31.235631],[121.584738,31.235161],[121.58416,31.235035]]],[[[121.372736,31.217896],[121.372563,31.217743],[121.37165,31.217126],[121.370112,31.216221],[121.369266,31.216315],[121.367639,31.216833],[121.365718,31.219025],[121.365767,31.219381],[121.367935,31.220846],[121.368294,31.220822],[121.370443,31.220374],[121.371716,31.219418],[121.372738,31.217912],[121.372736,31.217896]]],[[[121.356741,31.219921],[121.356675,31.219845],[121.355828,31.219846],[121.354933,31.219908],[121.354958,31.220267],[121.355702,31.220315],[121.35595,31.220293],[121.356199,31.220271],[121.35666,31.220219],[121.356701,31.220204],[121.356752,31.220126],[121.356741,31.219921]]],[[[121.4124,31.238405],[121.410652,31.238522],[121.410361,31.238734],[121.410079,31.239874],[121.410173,31.241353],[121.410361,31.24166],[121.415453,31.24301],[121.41574,31.243],[121.415923,31.242987],[121.415932,31.24298],[121.416199,31.242428],[121.413854,31.238894],[121.4124,31.238405]]],[[[121.439405,31.252616],[121.439055,31.252533],[121.434457,31.253421],[121.431709,31.254149],[121.431473,31.25442],[121.431819,31.255731],[121.432736,31.256642],[121.434374,31.257246],[121.438992,31.258442],[121.441964,31.255708],[121.441825,31.255375],[121.439405,31.252616]]],[[[121.493524,31.148575],[121.4905,31.14783],[121.490359,31.147796],[121.486019,31.149637],[121.48599,31.149996],[121.485972,31.150331],[121.487967,31.152565],[121.488278,31.152745],[121.493087,31.152357],[121.495193,31.150824],[121.495215,31.150465],[121.495028,31.1501],[121.493901,31.148845],[121.493524,31.148575]]],[[[121.475506,31.152415],[121.475292,31.152412],[121.47358,31.153432],[121.472304,31.155079],[121.472085,31.155403],[121.471958,31.155622],[121.472054,31.155969],[121.4752,31.157088],[121.477163,31.157358],[121.477379,31.15707],[121.476737,31.153461],[121.475962,31.152516],[121.475858,31.152488],[121.475506,31.152415]]],[[[121.475831,31.268481],[121.475472,31.268454],[121.47524,31.268515],[121.474019,31.269236],[121.470919,31.272195],[121.471239,31.274867],[121.471493,31.275122],[121.475084,31.276456],[121.475417,31.276319],[121.475594,31.276057],[121.477951,31.27057],[121.477856,31.270222],[121.475831,31.268481]]],[[[121.545046,31.280904],[121.54524,31.280601],[121.544513,31.279923],[121.542101,31.27544],[121.541428,31.273975],[121.541167,31.273728],[121.536824,31.274436],[121.536517,31.274807],[121.53665,31.276998],[121.537402,31.278901],[121.537661,31.279009],[121.538146,31.279086],[121.53912,31.279104],[121.543966,31.280893],[121.544952,31.280948],[121.545046,31.280904]]],[[[121.59213,31.038543],[121.591462,31.040445],[121.591118,31.041426],[121.591458,31.041545],[121.59333,31.039984],[121.593462,31.039671],[121.592984,31.037238],[121.592645,31.037116],[121.592388,31.03783],[121.59213,31.038543]]],[[[121.639162,31.047229],[121.639627,31.047279],[121.640532,31.047421],[121.641446,31.047563],[121.643908,31.052965],[121.643497,31.053688],[121.643492,31.054009],[121.643805,31.054187],[121.644177,31.053781],[121.649674,31.052536],[121.650961,31.053074],[121.654671,31.050471],[121.65477,31.050125],[121.651702,31.047294],[121.650129,31.044368],[121.648646,31.041378],[121.648292,31.041313],[121.644979,31.043474],[121.640584,31.046293],[121.639087,31.046025],[121.637591,31.045757],[121.635495,31.046608],[121.635358,31.046816],[121.635375,31.047175],[121.636169,31.047138],[121.636963,31.047101],[121.637401,31.047112],[121.637852,31.047124],[121.638275,31.047152],[121.638705,31.04718],[121.639162,31.047229]]],[[[121.691825,31.052248],[121.691827,31.052608],[121.692281,31.052605],[121.692739,31.052603],[121.694439,31.052551],[121.697086,31.052471],[121.697075,31.052111],[121.691825,31.052248]]],[[[121.589012,31.057622],[121.587143,31.053247],[121.585451,31.052231],[121.585093,31.052193],[121.583745,31.052835],[121.580312,31.057041],[121.580283,31.0574],[121.584022,31.06116],[121.584115,31.061243],[121.584473,31.061284],[121.588887,31.058064],[121.588996,31.057982],[121.589012,31.057622]]],[[[121.620507,31.060576],[121.619877,31.060519],[121.619581,31.060472],[121.617998,31.054744],[121.618025,31.054385],[121.61526,31.050943],[121.614919,31.050827],[121.614503,31.050995],[121.609175,31.053667],[121.609146,31.054026],[121.607778,31.058438],[121.60526,31.05861],[121.604899,31.058492],[121.603229,31.058217],[121.602885,31.058109],[121.602691,31.058216],[121.602584,31.058331],[121.602648,31.058533],[121.602705,31.058675],[121.605704,31.062146],[121.607382,31.062955],[121.609062,31.067225],[121.609392,31.067369],[121.611336,31.066661],[121.61612,31.063669],[121.621105,31.060992],[121.621138,31.060633],[121.620507,31.060576]]],[[[121.588562,31.074934],[121.588393,31.074822],[121.588065,31.074674],[121.584515,31.069875],[121.584549,31.069517],[121.582772,31.068112],[121.582421,31.068029],[121.580894,31.069131],[121.580828,31.069485],[121.581506,31.074352],[121.581229,31.076833],[121.580883,31.079943],[121.580858,31.08018],[121.580964,31.080279],[121.581322,31.080322],[121.58239,31.079893],[121.583033,31.079086],[121.587841,31.076035],[121.588634,31.075287],[121.588562,31.074934]]],[[[121.609857,31.086943],[121.610077,31.086013],[121.615211,31.083602],[121.61601,31.083646],[121.617878,31.083969],[121.618491,31.084051],[121.619103,31.084134],[121.621433,31.08291],[121.621482,31.082553],[121.620209,31.080874],[121.6179,31.077126],[121.617548,31.077052],[121.611904,31.075107],[121.612937,31.071676],[121.612993,31.071622],[121.613026,31.071263],[121.613022,31.071095],[121.60996,31.067759],[121.60961,31.067676],[121.609293,31.0678],[121.608634,31.068217],[121.606668,31.069385],[121.603235,31.071005],[121.602398,31.071584],[121.600404,31.072976],[121.597766,31.074852],[121.596142,31.076088],[121.592178,31.078782],[121.592236,31.079137],[121.594195,31.081331],[121.596026,31.084385],[121.598677,31.087366],[121.602814,31.089288],[121.604138,31.09071],[121.604496,31.09074],[121.609246,31.089774],[121.609442,31.088821],[121.609638,31.087868],[121.609857,31.086943]]],[[[121.662777,31.148554],[121.667458,31.145235],[121.66817,31.145452],[121.668882,31.145668],[121.668954,31.145599],[121.669058,31.145254],[121.66906,31.14521],[121.66831,31.14498],[121.667559,31.14475],[121.664935,31.144183],[121.661663,31.142943],[121.65968,31.142887],[121.66034,31.14414],[121.661767,31.149635],[121.662111,31.149739],[121.662506,31.149841],[121.662559,31.149637],[121.662612,31.149433],[121.662696,31.148987],[121.662777,31.148554]]],[[[121.804705,31.147817],[121.802692,31.147221],[121.802362,31.147365],[121.801055,31.148222],[121.800975,31.148311],[121.800888,31.148547],[121.799823,31.151928],[121.79857,31.154809],[121.798475,31.155052],[121.798372,31.155318],[121.798275,31.155717],[121.80019,31.157173],[121.800526,31.157302],[121.80307,31.154157],[121.803546,31.15294],[121.804002,31.151688],[121.804875,31.148134],[121.804705,31.147817]]],[[[121.789421,31.175049],[121.790863,31.173023],[121.792305,31.170995],[121.79728,31.167651],[121.797424,31.167558],[121.797618,31.167297],[121.797788,31.167064],[121.797812,31.163267],[121.797517,31.163059],[121.794414,31.167414],[121.793455,31.168758],[121.793455,31.168759],[121.790569,31.172814],[121.789128,31.17484],[121.787686,31.176866],[121.786241,31.178897],[121.784798,31.180925],[121.785091,31.181134],[121.786534,31.179106],[121.787977,31.177078],[121.787979,31.177075],[121.78942,31.17505],[121.789421,31.175049]]]]}}]}