{
  "type": "FeatureCollection",
  "metadata": {
    "source": {
      "title": "MetroMapOpenMiniProgram — Shanghai network data",
      "url": "https://github.com/metromancn/MetroMapOpenMiniProgram/blob/087310aa159d44583cc5fef240466439570dbd62/src/data/sh.js",
      "commit": "087310aa159d44583cc5fef240466439570dbd62",
      "retrieved_date": "2026-08-05",
      "license": "MIT",
      "license_url": "https://github.com/metromancn/MetroMapOpenMiniProgram/blob/087310aa159d44583cc5fef240466439570dbd62/LICENSE"
    },
    "derivation": "Urban metro lines 1–18 and Pujiang Line only. Coordinates were converted from the source's China-map coordinates to WGS84. Polylines connect stations in service order and are schematic display geometry, not surveyed track centerlines.",
    "line_colors": {
      "title": "@kyuri-metro/shmetro-palette 0.1.1",
      "url": "https://www.npmjs.com/package/@kyuri-metro/shmetro-palette/v/0.1.1",
      "published_date": "2026-05-04",
      "license": "MIT",
      "note": "Lines 1–18 use the package palette; Pujiang Line retains the MIT network dataset color."
    }
  },
  "features": [
    {
      "type": "Feature",
      "properties": {
        "line_id": "1",
        "line_name_zh": "1号线",
        "color": "#E3002B",
        "mode": "metro",
        "source": "MetroMapOpenMiniProgram"
      },
      "geometry": {
        "type": "LineString",
        "coordinates": [
          [
            121.380745,
            31.113056
          ],
          [
            121.388384,
            31.122791
          ],
          [
            121.398263,
            31.132791
          ],
          [
            121.409464,
            31.144093
          ],
          [
            121.425408,
            31.156464
          ],
          [
            121.430097,
            31.170223
          ],
          [
            121.431715,
            31.184463
          ],
          [
            121.433516,
            31.193572
          ],
          [
            121.441813,
            31.206404
          ],
          [
            121.446449,
            31.215265
          ],
          [
            121.454398,
            31.218719
          ],
          [
            121.46868,
            31.224651
          ],
          [
            121.470576,
            31.234619
          ],
          [
            121.463599,
            31.240288
          ],
          [
            121.454119,
            31.243773
          ],
          [
            121.452583,
            31.25178
          ],
          [
            121.454621,
            31.260773
          ],
          [
            121.450736,
            31.273547
          ],
          [
            121.447417,
            31.28175
          ],
          [
            121.445644,
            31.294403
          ],
          [
            121.444031,
            31.308446
          ],
          [
            121.442445,
            31.32077
          ],
          [
            121.436914,
            31.33295
          ],
          [
            121.433074,
            31.341515
          ],
          [
            121.42942,
            31.356883
          ],
          [
            121.42627,
            31.371348
          ],
          [
            121.423299,
            31.383083
          ],
          [
            121.42,
            31.394039
          ]
        ]
      }
    },
    {
      "type": "Feature",
      "properties": {
        "line_id": "2",
        "line_name_zh": "2号线",
        "color": "#8CC220",
        "mode": "metro",
        "source": "MetroMapOpenMiniProgram"
      },
      "geometry": {
        "type": "LineString",
        "coordinates": [
          [
            121.294724,
            31.190371
          ],
          [
            121.314428,
            31.195985
          ],
          [
            121.321773,
            31.19617
          ],
          [
            121.354935,
            31.220108
          ],
          [
            121.369361,
            31.218258
          ],
          [
            121.382643,
            31.216722
          ],
          [
            121.399411,
            31.213004
          ],
          [
            121.411161,
            31.219722
          ],
          [
            121.426316,
            31.221362
          ],
          [
            121.441918,
            31.225097
          ],
          [
            121.455396,
            31.23174
          ],
          [
            121.470576,
            31.234619
          ],
          [
            121.480318,
            31.239554
          ],
          [
            121.497695,
            31.240269
          ],
          [
            121.511157,
            31.235327
          ],
          [
            121.522849,
            31.230776
          ],
          [
            121.540132,
            31.220952
          ],
          [
            121.546609,
            31.211575
          ],
          [
            121.553111,
            31.205167
          ],
          [
            121.583281,
            31.204095
          ],
          [
            121.597798,
            31.206421
          ],
          [
            121.616868,
            31.213251
          ],
          [
            121.652017,
            31.21626
          ],
          [
            121.669434,
            31.215999
          ],
          [
            121.67667,
            31.1987
          ],
          [
            121.693881,
            31.188844
          ],
          [
            121.719723,
            31.194911
          ],
          [
            121.750917,
            31.20142
          ],
          [
            121.792547,
            31.170536
          ],
          [
            121.802202,
            31.15212
          ]
        ]
      }
    },
    {
      "type": "Feature",
      "properties": {
        "line_id": "3",
        "line_name_zh": "3号线",
        "color": "#FCD600",
        "mode": "metro",
        "source": "MetroMapOpenMiniProgram"
      },
      "geometry": {
        "type": "LineString",
        "coordinates": [
          [
            121.425408,
            31.156464
          ],
          [
            121.43859,
            31.15985
          ],
          [
            121.43947,
            31.172367
          ],
          [
            121.433789,
            31.178634
          ],
          [
            121.422552,
            31.188584
          ],
          [
            121.416573,
            31.198152
          ],
          [
            121.412406,
            31.211459
          ],
          [
            121.411161,
            31.219722
          ],
          [
            121.408187,
            31.233003
          ],
          [
            121.411954,
            31.240266
          ],
          [
            121.426419,
            31.249245
          ],
          [
            121.436378,
            31.256426
          ],
          [
            121.452583,
            31.25178
          ],
          [
            121.471752,
            31.253445
          ],
          [
            121.47568,
            31.261821
          ],
          [
            121.474764,
            31.271824
          ],
          [
            121.477915,
            31.283178
          ],
          [
            121.478707,
            31.291359
          ],
          [
            121.480552,
            31.307492
          ],
          [
            121.480348,
            31.321925
          ],
          [
            121.486437,
            31.333261
          ],
          [
            121.495922,
            31.347086
          ],
          [
            121.494209,
            31.359964
          ],
          [
            121.488334,
            31.372857
          ],
          [
            121.483743,
            31.383213
          ],
          [
            121.475038,
            31.397194
          ],
          [
            121.471382,
            31.405885
          ],
          [
            121.456537,
            31.409953
          ],
          [
            121.435181,
            31.409649
          ]
        ]
      }
    },
    {
      "type": "Feature",
      "properties": {
        "line_id": "4",
        "line_name_zh": "4号线",
        "color": "#461D84",
        "mode": "metro",
        "source": "MetroMapOpenMiniProgram"
      },
      "geometry": {
        "type": "LineString",
        "coordinates": [
          [
            121.422552,
            31.188584
          ],
          [
            121.431715,
            31.184463
          ],
          [
            121.438915,
            31.187489
          ],
          [
            121.450308,
            31.192722
          ],
          [
            121.459153,
            31.19614
          ],
          [
            121.470617,
            31.201169
          ],
          [
            121.485079,
            31.203951
          ],
          [
            121.495275,
            31.210518
          ],
          [
            121.514315,
            31.211829
          ],
          [
            121.523549,
            31.213663
          ],
          [
            121.527747,
            31.22439
          ],
          [
            121.522849,
            31.230776
          ],
          [
            121.514923,
            31.24237
          ],
          [
            121.512823,
            31.25398
          ],
          [
            121.508686,
            31.259978
          ],
          [
            121.496246,
            31.262863
          ],
          [
            121.484024,
            31.260788
          ],
          [
            121.471752,
            31.253445
          ],
          [
            121.452583,
            31.25178
          ],
          [
            121.436378,
            31.256426
          ],
          [
            121.426419,
            31.249245
          ],
          [
            121.411954,
            31.240266
          ],
          [
            121.408187,
            31.233003
          ],
          [
            121.411161,
            31.219722
          ],
          [
            121.412406,
            31.211459
          ],
          [
            121.416573,
            31.198152
          ],
          [
            121.422552,
            31.188584
          ]
        ]
      }
    },
    {
      "type": "Feature",
      "properties": {
        "line_id": "5",
        "line_name_zh": "5号线",
        "color": "#944D9A",
        "mode": "metro",
        "source": "MetroMapOpenMiniProgram"
      },
      "geometry": {
        "type": "MultiLineString",
        "coordinates": [
          [
            [
              121.380745,
              31.113056
            ],
            [
              121.381192,
              31.100159
            ],
            [
              121.385625,
              31.091261
            ],
            [
              121.39723,
              31.06893
            ],
            [
              121.405419,
              31.047042
            ],
            [
              121.41195,
              31.028429
            ],
            [
              121.415269,
              31.02015
            ],
            [
              121.41885,
              31.007391
            ],
            [
              121.427829,
              30.991329
            ],
            [
              121.437262,
              30.967893
            ],
            [
              121.444405,
              30.944085
            ],
            [
              121.458656,
              30.93324
            ],
            [
              121.479093,
              30.934062
            ],
            [
              121.488049,
              30.930964
            ],
            [
              121.491857,
              30.916083
            ]
          ],
          [
            [
              121.380745,
              31.113056
            ],
            [
              121.381192,
              31.100159
            ],
            [
              121.385625,
              31.091261
            ],
            [
              121.39723,
              31.06893
            ],
            [
              121.405419,
              31.047042
            ],
            [
              121.41195,
              31.028429
            ],
            [
              121.415269,
              31.02015
            ],
            [
              121.405551,
              31.013231
            ],
            [
              121.390628,
              31.009421
            ],
            [
              121.376155,
              31.005561
            ],
            [
              121.365105,
              31.00261
            ]
          ]
        ]
      }
    },
    {
      "type": "Feature",
      "properties": {
        "line_id": "6",
        "line_name_zh": "6号线",
        "color": "#D40068",
        "mode": "metro",
        "source": "MetroMapOpenMiniProgram"
      },
      "geometry": {
        "type": "LineString",
        "coordinates": [
          [
            121.570777,
            31.355223
          ],
          [
            121.582706,
            31.34995
          ],
          [
            121.589758,
            31.337528
          ],
          [
            121.597758,
            31.323742
          ],
          [
            121.58518,
            31.314395
          ],
          [
            121.58499,
            31.304737
          ],
          [
            121.584518,
            31.292854
          ],
          [
            121.584137,
            31.282243
          ],
          [
            121.58365,
            31.274203
          ],
          [
            121.582476,
            31.265701
          ],
          [
            121.577597,
            31.259265
          ],
          [
            121.568544,
            31.252586
          ],
          [
            121.559987,
            31.247561
          ],
          [
            121.548038,
            31.241286
          ],
          [
            121.539906,
            31.238199
          ],
          [
            121.530313,
            31.235111
          ],
          [
            121.522849,
            31.230776
          ],
          [
            121.525008,
            31.222248
          ],
          [
            121.523549,
            31.213663
          ],
          [
            121.519117,
            31.20536
          ],
          [
            121.512309,
            31.195273
          ],
          [
            121.505443,
            31.187821
          ],
          [
            121.506446,
            31.174787
          ],
          [
            121.511404,
            31.161995
          ],
          [
            121.510147,
            31.151966
          ],
          [
            121.502025,
            31.150884
          ],
          [
            121.490838,
            31.150693
          ],
          [
            121.475791,
            31.155346
          ]
        ]
      }
    },
    {
      "type": "Feature",
      "properties": {
        "line_id": "7",
        "line_name_zh": "7号线",
        "color": "#ED6F00",
        "mode": "metro",
        "source": "MetroMapOpenMiniProgram"
      },
      "geometry": {
        "type": "LineString",
        "coordinates": [
          [
            121.558507,
            31.213389
          ],
          [
            121.553111,
            31.205167
          ],
          [
            121.545838,
            31.19527
          ],
          [
            121.535736,
            31.189738
          ],
          [
            121.520181,
            31.189708
          ],
          [
            121.505443,
            31.187821
          ],
          [
            121.495993,
            31.184246
          ],
          [
            121.490144,
            31.180528
          ],
          [
            121.481623,
            31.176609
          ],
          [
            121.46922,
            31.173878
          ],
          [
            121.452302,
            31.186671
          ],
          [
            121.450308,
            31.192722
          ],
          [
            121.445624,
            31.201335
          ],
          [
            121.446449,
            31.215265
          ],
          [
            121.441918,
            31.225097
          ],
          [
            121.438001,
            31.23561
          ],
          [
            121.433065,
            31.242233
          ],
          [
            121.426419,
            31.249245
          ],
          [
            121.41729,
            31.258026
          ],
          [
            121.418023,
            31.265682
          ],
          [
            121.418304,
            31.275869
          ],
          [
            121.41712,
            31.286312
          ],
          [
            121.411504,
            31.295072
          ],
          [
            121.408803,
            31.305484
          ],
          [
            121.404029,
            31.316769
          ],
          [
            121.393761,
            31.323538
          ],
          [
            121.384231,
            31.32239
          ],
          [
            121.368896,
            31.324205
          ],
          [
            121.368376,
            31.346406
          ],
          [
            121.35776,
            31.359411
          ],
          [
            121.35124,
            31.366014
          ],
          [
            121.352857,
            31.390651
          ],
          [
            121.345299,
            31.403714
          ]
        ]
      }
    },
    {
      "type": "Feature",
      "properties": {
        "line_id": "8",
        "line_name_zh": "8号线",
        "color": "#0094D8",
        "mode": "metro",
        "source": "MetroMapOpenMiniProgram"
      },
      "geometry": {
        "type": "LineString",
        "coordinates": [
          [
            121.507881,
            31.063562
          ],
          [
            121.506195,
            31.075683
          ],
          [
            121.504192,
            31.086357
          ],
          [
            121.50186,
            31.098684
          ],
          [
            121.493778,
            31.12112
          ],
          [
            121.485177,
            31.14332
          ],
          [
            121.475791,
            31.155346
          ],
          [
            121.488977,
            31.163072
          ],
          [
            121.491617,
            31.173378
          ],
          [
            121.490144,
            31.180528
          ],
          [
            121.48916,
            31.187248
          ],
          [
            121.485079,
            31.203951
          ],
          [
            121.481614,
            31.213765
          ],
          [
            121.478402,
            31.220864
          ],
          [
            121.475207,
            31.228557
          ],
          [
            121.470576,
            31.234619
          ],
          [
            121.467001,
            31.244232
          ],
          [
            121.464473,
            31.255139
          ],
          [
            121.46426,
            31.265357
          ],
          [
            121.474764,
            31.271824
          ],
          [
            121.486646,
            31.278479
          ],
          [
            121.497045,
            31.276875
          ],
          [
            121.505265,
            31.275256
          ],
          [
            121.51416,
            31.277022
          ],
          [
            121.524052,
            31.280884
          ],
          [
            121.530609,
            31.290629
          ],
          [
            121.529049,
            31.29746
          ],
          [
            121.527627,
            31.307061
          ],
          [
            121.527607,
            31.316871
          ],
          [
            121.527588,
            31.324777
          ]
        ]
      }
    },
    {
      "type": "Feature",
      "properties": {
        "line_id": "9",
        "line_name_zh": "9号线",
        "color": "#87CAED",
        "mode": "metro",
        "source": "MetroMapOpenMiniProgram"
      },
      "geometry": {
        "type": "LineString",
        "coordinates": [
          [
            121.678848,
            31.273374
          ],
          [
            121.663847,
            31.27044
          ],
          [
            121.652202,
            31.268208
          ],
          [
            121.634543,
            31.265973
          ],
          [
            121.624524,
            31.266481
          ],
          [
            121.607132,
            31.263034
          ],
          [
            121.593252,
            31.255014
          ],
          [
            121.573773,
            31.243211
          ],
          [
            121.554173,
            31.234002
          ],
          [
            121.544304,
            31.229625
          ],
          [
            121.522849,
            31.230776
          ],
          [
            121.511882,
            31.232309
          ],
          [
            121.493943,
            31.218874
          ],
          [
            121.481614,
            31.213765
          ],
          [
            121.471865,
            31.211226
          ],
          [
            121.464127,
            31.208239
          ],
          [
            121.456316,
            31.204771
          ],
          [
            121.445624,
            31.201335
          ],
          [
            121.433516,
            31.193572
          ],
          [
            121.422552,
            31.188584
          ],
          [
            121.413417,
            31.176656
          ],
          [
            121.39312,
            31.172504
          ],
          [
            121.380139,
            31.168418
          ],
          [
            121.364286,
            31.160005
          ],
          [
            121.344644,
            31.157217
          ],
          [
            121.333152,
            31.151373
          ],
          [
            121.314918,
            31.139248
          ],
          [
            121.255827,
            31.120348
          ],
          [
            121.225257,
            31.106172
          ],
          [
            121.226048,
            31.086576
          ],
          [
            121.228155,
            31.056088
          ],
          [
            121.226321,
            31.032412
          ],
          [
            121.22613,
            31.018132
          ],
          [
            121.224943,
            31.003263
          ],
          [
            121.226469,
            30.98697
          ]
        ]
      }
    },
    {
      "type": "Feature",
      "properties": {
        "line_id": "10",
        "line_name_zh": "10号线",
        "color": "#C6AFD4",
        "mode": "metro",
        "source": "MetroMapOpenMiniProgram"
      },
      "geometry": {
        "type": "MultiLineString",
        "coordinates": [
          [
            [
              121.586189,
              31.35346
            ],
            [
              121.570777,
              31.355223
            ],
            [
              121.55871,
              31.354739
            ],
            [
              121.544986,
              31.353585
            ],
            [
              121.535103,
              31.355672
            ],
            [
              121.508758,
              31.341546
            ],
            [
              121.502519,
              31.330476
            ],
            [
              121.502366,
              31.323758
            ],
            [
              121.503918,
              31.315211
            ],
            [
              121.508907,
              31.306304
            ],
            [
              121.51023,
              31.300063
            ],
            [
              121.505793,
              31.291636
            ],
            [
              121.501829,
              31.283909
            ],
            [
              121.497045,
              31.276875
            ],
            [
              121.489776,
              31.270399
            ],
            [
              121.484024,
              31.260788
            ],
            [
              121.479704,
              31.253986
            ],
            [
              121.477801,
              31.245759
            ],
            [
              121.480318,
              31.239554
            ],
            [
              121.482633,
              31.231168
            ],
            [
              121.478402,
              31.220864
            ],
            [
              121.469928,
              31.218064
            ],
            [
              121.454398,
              31.218719
            ],
            [
              121.439747,
              31.209836
            ],
            [
              121.430616,
              31.20408
            ],
            [
              121.416573,
              31.198152
            ],
            [
              121.407429,
              31.198393
            ],
            [
              121.399249,
              31.200729
            ],
            [
              121.387612,
              31.201335
            ],
            [
              121.375406,
              31.196265
            ],
            [
              121.365861,
              31.178773
            ],
            [
              121.360223,
              31.171569
            ],
            [
              121.350759,
              31.167337
            ]
          ],
          [
            [
              121.586189,
              31.35346
            ],
            [
              121.570777,
              31.355223
            ],
            [
              121.55871,
              31.354739
            ],
            [
              121.544986,
              31.353585
            ],
            [
              121.535103,
              31.355672
            ],
            [
              121.508758,
              31.341546
            ],
            [
              121.502519,
              31.330476
            ],
            [
              121.502366,
              31.323758
            ],
            [
              121.503918,
              31.315211
            ],
            [
              121.508907,
              31.306304
            ],
            [
              121.51023,
              31.300063
            ],
            [
              121.505793,
              31.291636
            ],
            [
              121.501829,
              31.283909
            ],
            [
              121.497045,
              31.276875
            ],
            [
              121.489776,
              31.270399
            ],
            [
              121.484024,
              31.260788
            ],
            [
              121.479704,
              31.253986
            ],
            [
              121.477801,
              31.245759
            ],
            [
              121.480318,
              31.239554
            ],
            [
              121.482633,
              31.231168
            ],
            [
              121.478402,
              31.220864
            ],
            [
              121.469928,
              31.218064
            ],
            [
              121.454398,
              31.218719
            ],
            [
              121.439747,
              31.209836
            ],
            [
              121.430616,
              31.20408
            ],
            [
              121.416573,
              31.198152
            ],
            [
              121.407429,
              31.198393
            ],
            [
              121.399249,
              31.200729
            ],
            [
              121.387612,
              31.201335
            ],
            [
              121.375406,
              31.196265
            ],
            [
              121.363526,
              31.192127
            ],
            [
              121.342799,
              31.193281
            ],
            [
              121.321773,
              31.19617
            ],
            [
              121.314428,
              31.195985
            ]
          ]
        ]
      }
    },
    {
      "type": "Feature",
      "properties": {
        "line_id": "11",
        "line_name_zh": "11号线",
        "color": "#871C2B",
        "mode": "metro",
        "source": "MetroMapOpenMiniProgram"
      },
      "geometry": {
        "type": "MultiLineString",
        "coordinates": [
          [
            [
              121.663692,
              31.143428
            ],
            [
              121.613005,
              31.132688
            ],
            [
              121.5942,
              31.140381
            ],
            [
              121.588947,
              31.155499
            ],
            [
              121.567451,
              31.160513
            ],
            [
              121.549432,
              31.156419
            ],
            [
              121.534694,
              31.153021
            ],
            [
              121.518641,
              31.148574
            ],
            [
              121.507401,
              31.145308
            ],
            [
              121.475791,
              31.155346
            ],
            [
              121.455127,
              31.161643
            ],
            [
              121.453943,
              31.168409
            ],
            [
              121.447522,
              31.174721
            ],
            [
              121.436808,
              31.181009
            ],
            [
              121.433516,
              31.193572
            ],
            [
              121.430616,
              31.20408
            ],
            [
              121.426316,
              31.221362
            ],
            [
              121.418927,
              31.23235
            ],
            [
              121.411954,
              31.240266
            ],
            [
              121.406753,
              31.243683
            ],
            [
              121.402551,
              31.252656
            ],
            [
              121.396911,
              31.264405
            ],
            [
              121.38532,
              31.270847
            ],
            [
              121.371394,
              31.273483
            ],
            [
              121.360066,
              31.278494
            ],
            [
              121.345027,
              31.283468
            ],
            [
              121.318615,
              31.298868
            ],
            [
              121.302289,
              31.308424
            ],
            [
              121.272456,
              31.321653
            ],
            [
              121.249863,
              31.332046
            ],
            [
              121.240913,
              31.347333
            ],
            [
              121.223406,
              31.37906
            ],
            [
              121.2329,
              31.393501
            ]
          ],
          [
            [
              121.663692,
              31.143428
            ],
            [
              121.613005,
              31.132688
            ],
            [
              121.5942,
              31.140381
            ],
            [
              121.588947,
              31.155499
            ],
            [
              121.567451,
              31.160513
            ],
            [
              121.549432,
              31.156419
            ],
            [
              121.534694,
              31.153021
            ],
            [
              121.518641,
              31.148574
            ],
            [
              121.507401,
              31.145308
            ],
            [
              121.475791,
              31.155346
            ],
            [
              121.455127,
              31.161643
            ],
            [
              121.453943,
              31.168409
            ],
            [
              121.447522,
              31.174721
            ],
            [
              121.436808,
              31.181009
            ],
            [
              121.433516,
              31.193572
            ],
            [
              121.430616,
              31.20408
            ],
            [
              121.426316,
              31.221362
            ],
            [
              121.418927,
              31.23235
            ],
            [
              121.411954,
              31.240266
            ],
            [
              121.406753,
              31.243683
            ],
            [
              121.402551,
              31.252656
            ],
            [
              121.396911,
              31.264405
            ],
            [
              121.38532,
              31.270847
            ],
            [
              121.371394,
              31.273483
            ],
            [
              121.360066,
              31.278494
            ],
            [
              121.345027,
              31.283468
            ],
            [
              121.318615,
              31.298868
            ],
            [
              121.302289,
              31.308424
            ],
            [
              121.272456,
              31.321653
            ],
            [
              121.249863,
              31.332046
            ],
            [
              121.221652,
              31.333864
            ],
            [
              121.195894,
              31.295565
            ],
            [
              121.176223,
              31.287317
            ],
            [
              121.157427,
              31.290366
            ],
            [
              121.145737,
              31.290903
            ],
            [
              121.112565,
              31.298024
            ],
            [
              121.099785,
              31.300598
            ]
          ]
        ]
      }
    },
    {
      "type": "Feature",
      "properties": {
        "line_id": "12",
        "line_name_zh": "12号线",
        "color": "#007B61",
        "mode": "metro",
        "source": "MetroMapOpenMiniProgram"
      },
      "geometry": {
        "type": "LineString",
        "coordinates": [
          [
            121.357863,
            31.133557
          ],
          [
            121.375721,
            31.139342
          ],
          [
            121.387214,
            31.142773
          ],
          [
            121.387284,
            31.157702
          ],
          [
            121.392609,
            31.162218
          ],
          [
            121.405905,
            31.165897
          ],
          [
            121.414029,
            31.168721
          ],
          [
            121.430097,
            31.170223
          ],
          [
            121.43947,
            31.172367
          ],
          [
            121.447522,
            31.174721
          ],
          [
            121.452302,
            31.186671
          ],
          [
            121.459153,
            31.19614
          ],
          [
            121.456316,
            31.204771
          ],
          [
            121.454398,
            31.218719
          ],
          [
            121.455396,
            31.23174
          ],
          [
            121.454119,
            31.243773
          ],
          [
            121.467001,
            31.244232
          ],
          [
            121.477801,
            31.245759
          ],
          [
            121.4937,
            31.252153
          ],
          [
            121.502374,
            31.255531
          ],
          [
            121.508686,
            31.259978
          ],
          [
            121.519326,
            31.266627
          ],
          [
            121.528015,
            31.270658
          ],
          [
            121.540394,
            31.277324
          ],
          [
            121.548376,
            31.281914
          ],
          [
            121.557061,
            31.282923
          ],
          [
            121.574895,
            31.284699
          ],
          [
            121.584137,
            31.282243
          ],
          [
            121.598754,
            31.282264
          ],
          [
            121.611269,
            31.282001
          ],
          [
            121.622651,
            31.282398
          ],
          [
            121.634543,
            31.265973
          ]
        ]
      }
    },
    {
      "type": "Feature",
      "properties": {
        "line_id": "13",
        "line_name_zh": "13号线",
        "color": "#E999C0",
        "mode": "metro",
        "source": "MetroMapOpenMiniProgram"
      },
      "geometry": {
        "type": "LineString",
        "coordinates": [
          [
            121.314792,
            31.242934
          ],
          [
            121.330604,
            31.243069
          ],
          [
            121.350545,
            31.244431
          ],
          [
            121.362659,
            31.239485
          ],
          [
            121.377309,
            31.234083
          ],
          [
            121.391589,
            31.233692
          ],
          [
            121.408187,
            31.233003
          ],
          [
            121.418927,
            31.23235
          ],
          [
            121.42586,
            31.236193
          ],
          [
            121.433065,
            31.242233
          ],
          [
            121.440212,
            31.246142
          ],
          [
            121.454119,
            31.243773
          ],
          [
            121.457792,
            31.238348
          ],
          [
            121.455396,
            31.23174
          ],
          [
            121.459791,
            31.221967
          ],
          [
            121.469928,
            31.218064
          ],
          [
            121.471865,
            31.211226
          ],
          [
            121.477083,
            31.199537
          ],
          [
            121.479812,
            31.184767
          ],
          [
            121.481623,
            31.176609
          ],
          [
            121.491617,
            31.173378
          ],
          [
            121.506446,
            31.174787
          ],
          [
            121.522217,
            31.178385
          ],
          [
            121.535882,
            31.181442
          ],
          [
            121.547742,
            31.182302
          ],
          [
            121.553937,
            31.177283
          ],
          [
            121.56184,
            31.171171
          ],
          [
            121.579144,
            31.177205
          ],
          [
            121.598265,
            31.181091
          ],
          [
            121.610161,
            31.185695
          ],
          [
            121.624972,
            31.191335
          ]
        ]
      }
    },
    {
      "type": "Feature",
      "properties": {
        "line_id": "14",
        "line_name_zh": "14号线",
        "color": "#626020",
        "mode": "metro",
        "source": "MetroMapOpenMiniProgram"
      },
      "geometry": {
        "type": "LineString",
        "coordinates": [
          [
            121.292537,
            31.269458
          ],
          [
            121.309598,
            31.267308
          ],
          [
            121.326319,
            31.264974
          ],
          [
            121.34112,
            31.261084
          ],
          [
            121.357781,
            31.258256
          ],
          [
            121.36732,
            31.257415
          ],
          [
            121.379521,
            31.255114
          ],
          [
            121.392848,
            31.252534
          ],
          [
            121.402551,
            31.252656
          ],
          [
            121.409886,
            31.246879
          ],
          [
            121.411954,
            31.240266
          ],
          [
            121.42586,
            31.236193
          ],
          [
            121.431529,
            31.229161
          ],
          [
            121.441918,
            31.225097
          ],
          [
            121.46868,
            31.224651
          ],
          [
            121.475207,
            31.228557
          ],
          [
            121.482633,
            31.231168
          ],
          [
            121.497695,
            31.240269
          ],
          [
            121.508006,
            31.240567
          ],
          [
            121.514923,
            31.24237
          ],
          [
            121.526677,
            31.243411
          ],
          [
            121.535793,
            31.246056
          ],
          [
            121.547223,
            31.252862
          ],
          [
            121.568544,
            31.252586
          ],
          [
            121.573773,
            31.243211
          ],
          [
            121.586808,
            31.236194
          ],
          [
            121.596138,
            31.239263
          ],
          [
            121.611222,
            31.24384
          ],
          [
            121.6248,
            31.24427
          ],
          [
            121.630868,
            31.251591
          ]
        ]
      }
    },
    {
      "type": "Feature",
      "properties": {
        "line_id": "15",
        "line_name_zh": "15号线",
        "color": "#BCA886",
        "mode": "metro",
        "source": "MetroMapOpenMiniProgram"
      },
      "geometry": {
        "type": "LineString",
        "coordinates": [
          [
            121.368376,
            31.346406
          ],
          [
            121.377118,
            31.321991
          ],
          [
            121.37623,
            31.310037
          ],
          [
            121.375699,
            31.301085
          ],
          [
            121.380162,
            31.293379
          ],
          [
            121.387563,
            31.286327
          ],
          [
            121.387442,
            31.277465
          ],
          [
            121.396911,
            31.264405
          ],
          [
            121.392848,
            31.252534
          ],
          [
            121.392346,
            31.245127
          ],
          [
            121.391589,
            31.233692
          ],
          [
            121.39167,
            31.227089
          ],
          [
            121.399411,
            31.213004
          ],
          [
            121.393727,
            31.200717
          ],
          [
            121.401753,
            31.193398
          ],
          [
            121.409255,
            31.1862
          ],
          [
            121.413417,
            31.176656
          ],
          [
            121.414029,
            31.168721
          ],
          [
            121.425408,
            31.156464
          ],
          [
            121.424362,
            31.146144
          ],
          [
            121.431186,
            31.133454
          ],
          [
            121.433182,
            31.12627
          ],
          [
            121.435526,
            31.115349
          ],
          [
            121.428436,
            31.105755
          ],
          [
            121.41412,
            31.10163
          ],
          [
            121.413258,
            31.092537
          ],
          [
            121.417117,
            31.085125
          ],
          [
            121.42728,
            31.064748
          ],
          [
            121.438598,
            31.041113
          ],
          [
            121.44664,
            31.025178
          ]
        ]
      }
    },
    {
      "type": "Feature",
      "properties": {
        "line_id": "16",
        "line_name_zh": "16号线",
        "color": "#98D1C0",
        "mode": "metro",
        "source": "MetroMapOpenMiniProgram"
      },
      "geometry": {
        "type": "LineString",
        "coordinates": [
          [
            121.553111,
            31.205167
          ],
          [
            121.579144,
            31.177205
          ],
          [
            121.588947,
            31.155499
          ],
          [
            121.6027,
            31.112296
          ],
          [
            121.607048,
            31.080072
          ],
          [
            121.613297,
            31.057202
          ],
          [
            121.644748,
            31.047818
          ],
          [
            121.6949,
            31.052487
          ],
          [
            121.757321,
            31.055935
          ],
          [
            121.789488,
            31.0286
          ],
          [
            121.846347,
            30.96155
          ],
          [
            121.906769,
            30.925887
          ],
          [
            121.925495,
            30.909608
          ]
        ]
      }
    },
    {
      "type": "Feature",
      "properties": {
        "line_id": "17",
        "line_name_zh": "17号线",
        "color": "#BC796F",
        "mode": "metro",
        "source": "MetroMapOpenMiniProgram"
      },
      "geometry": {
        "type": "LineString",
        "coordinates": [
          [
            121.314428,
            31.195985
          ],
          [
            121.28858,
            31.193692
          ],
          [
            121.274197,
            31.188353
          ],
          [
            121.249538,
            31.180162
          ],
          [
            121.237251,
            31.177562
          ],
          [
            121.21946,
            31.166139
          ],
          [
            121.187787,
            31.163243
          ],
          [
            121.147119,
            31.163133
          ],
          [
            121.121055,
            31.160818
          ],
          [
            121.092268,
            31.162349
          ],
          [
            121.077531,
            31.136358
          ],
          [
            121.044439,
            31.102557
          ],
          [
            121.0151,
            31.1006
          ],
          [
            120.957799,
            31.072258
          ]
        ]
      }
    },
    {
      "type": "Feature",
      "properties": {
        "line_id": "18",
        "line_name_zh": "18号线",
        "color": "#C4984F",
        "mode": "metro",
        "source": "MetroMapOpenMiniProgram"
      },
      "geometry": {
        "type": "LineString",
        "coordinates": [
          [
            121.486437,
            31.333261
          ],
          [
            121.49109,
            31.323656
          ],
          [
            121.491864,
            31.309634
          ],
          [
            121.495073,
            31.298324
          ],
          [
            121.505793,
            31.291636
          ],
          [
            121.511394,
            31.285691
          ],
          [
            121.51416,
            31.277022
          ],
          [
            121.519326,
            31.266627
          ],
          [
            121.522343,
            31.261109
          ],
          [
            121.526823,
            31.255904
          ],
          [
            121.535793,
            31.246056
          ],
          [
            121.539906,
            31.238199
          ],
          [
            121.544304,
            31.229625
          ],
          [
            121.54672,
            31.223153
          ],
          [
            121.553111,
            31.205167
          ],
          [
            121.55497,
            31.193334
          ],
          [
            121.557107,
            31.18495
          ],
          [
            121.56184,
            31.171171
          ],
          [
            121.567451,
            31.160513
          ],
          [
            121.56308,
            31.136464
          ],
          [
            121.563386,
            31.116364
          ],
          [
            121.566326,
            31.104799
          ],
          [
            121.57638,
            31.093377
          ],
          [
            121.581761,
            31.074139
          ],
          [
            121.584796,
            31.056687
          ],
          [
            121.591896,
            31.039606
          ]
        ]
      }
    },
    {
      "type": "Feature",
      "properties": {
        "line_id": "pujiang",
        "line_name_zh": "浦江线",
        "color": "#B3B3C5",
        "mode": "metro",
        "source": "MetroMapOpenMiniProgram"
      },
      "geometry": {
        "type": "LineString",
        "coordinates": [
          [
            121.507881,
            31.063562
          ],
          [
            121.523051,
            31.058286
          ],
          [
            121.526,
            31.050142
          ],
          [
            121.526267,
            31.043189
          ],
          [
            121.52778,
            31.032597
          ],
          [
            121.52022,
            31.027433
          ]
        ]
      }
    }
  ]
}

