{"type":"FeatureCollection","features":[{"type":"Feature","properties":{"station":"金科路","apple":0.0,"is_jinke":true},"geometry":{"type":"Point","coordinates":[121.597836,31.2064028]}},{"type":"Feature","properties":{"station":"张江高科","apple":5.0,"is_jinke":false},"geometry":{"type":"Point","coordinates":[121.5833523,31.2039914]}},{"type":"Feature","properties":{"station":"广兰路","apple":6.0,"is_jinke":false},"geometry":{"type":"Point","coordinates":[121.616873,31.2131129]}},{"type":"Feature","properties":{"station":"龙阳路","apple":9.0,"is_jinke":false},"geometry":{"type":"Point","coordinates":[121.5534049,31.204691750000002]}},{"type":"Feature","properties":{"station":"唐镇","apple":11.0,"is_jinke":false},"geometry":{"type":"Point","coordinates":[121.6518673,31.2163796]}},{"type":"Feature","properties":{"station":"世纪公园","apple":10.0,"is_jinke":false},"geometry":{"type":"Point","coordinates":[121.5466162,31.2114184]}},{"type":"Feature","properties":{"station":"创新中路","apple":14.0,"is_jinke":false},"geometry":{"type":"Point","coordinates":[121.6698203,31.2155336]}},{"type":"Feature","properties":{"station":"上海科技馆","apple":13.0,"is_jinke":false},"geometry":{"type":"Point","coordinates":[121.5386617,31.2218914]}},{"type":"Feature","properties":{"station":"华夏东路","apple":17.0,"is_jinke":false},"geometry":{"type":"Point","coordinates":[121.6767066,31.1988574]}},{"type":"Feature","properties":{"station":"世纪大道","apple":16.0,"is_jinke":false},"geometry":{"type":"Point","coordinates":[121.52272875,31.230749799999998]}},{"type":"Feature","properties":{"station":"花木路","apple":19.0,"is_jinke":false},"geometry":{"type":"Point","coordinates":[121.5585663,31.2131883]}},{"type":"Feature","properties":{"station":"芳华路","apple":21.0,"is_jinke":false},"geometry":{"type":"Point","coordinates":[121.5457808,31.1953299]}},{"type":"Feature","properties":{"station":"芳芯路","apple":23.0,"is_jinke":false},"geometry":{"type":"Point","coordinates":[121.5550397,31.193162]}},{"type":"Feature","properties":{"station":"迎春路","apple":24.0,"is_jinke":false},"geometry":{"type":"Point","coordinates":[121.5467582,31.2232213]}},{"type":"Feature","properties":{"station":"川沙","apple":22.0,"is_jinke":false},"geometry":{"type":"Point","coordinates":[121.6936866,31.1887574]}},{"type":"Feature","properties":{"station":"浦东南路","apple":18.0,"is_jinke":false},"geometry":{"type":"Point","coordinates":[121.511115,31.2353829]}},{"type":"Feature","properties":{"station":"华夏中路","apple":21.0,"is_jinke":false},"geometry":{"type":"Point","coordinates":[121.57782125,31.177344599999998]}},{"type":"Feature","properties":{"station":"锦绣路","apple":24.0,"is_jinke":false},"geometry":{"type":"Point","coordinates":[121.5356397,31.1897121]}},{"type":"Feature","properties":{"station":"北中路","apple":25.0,"is_jinke":false},"geometry":{"type":"Point","coordinates":[121.5571091,31.1852344]}},{"type":"Feature","properties":{"station":"杨高中路","apple":25.0,"is_jinke":false},"geometry":{"type":"Point","coordinates":[121.54447195,31.2290013]}},{"type":"Feature","properties":{"station":"陆家嘴","apple":20.0,"is_jinke":false},"geometry":{"type":"Point","coordinates":[121.49793199999999,31.238544949999998]}},{"type":"Feature","properties":{"station":"凌空路","apple":26.0,"is_jinke":false},"geometry":{"type":"Point","coordinates":[121.7195131,31.194826]}},{"type":"Feature","properties":{"station":"杨高南路","apple":26.0,"is_jinke":false},"geometry":{"type":"Point","coordinates":[121.5201071,31.1896768]}},{"type":"Feature","properties":{"station":"民生路","apple":25.0,"is_jinke":false},"geometry":{"type":"Point","coordinates":[121.54042255,31.237683699999998]}},{"type":"Feature","properties":{"station":"莲溪路","apple":27.0,"is_jinke":false},"geometry":{"type":"Point","coordinates":[121.5620774,31.1717968]}},{"type":"Feature","properties":{"station":"罗山路","apple":25.0,"is_jinke":false},"geometry":{"type":"Point","coordinates":[121.5889657,31.155549999999998]}},{"type":"Feature","properties":{"station":"浦东大道","apple":27.0,"is_jinke":false},"geometry":{"type":"Point","coordinates":[121.5149936,31.2422421]}},{"type":"Feature","properties":{"station":"浦电路","apple":24.0,"is_jinke":false},"geometry":{"type":"Point","coordinates":[121.5246396,31.222202]}},{"type":"Feature","properties":{"station":"源深体育中心","apple":23.0,"is_jinke":false},"geometry":{"type":"Point","coordinates":[121.5298954,31.2350364]}},{"type":"Feature","properties":{"station":"商城路","apple":25.0,"is_jinke":false},"geometry":{"type":"Point","coordinates":[121.512502,31.2325381]}},{"type":"Feature","properties":{"station":"南京东路","apple":23.0,"is_jinke":false},"geometry":{"type":"Point","coordinates":[121.47968979999999,31.2396888]}},{"type":"Feature","properties":{"station":"高科西路","apple":29.0,"is_jinke":false},"geometry":{"type":"Point","coordinates":[121.5054186,31.1878023]}},{"type":"Feature","properties":{"station":"御桥","apple":29.0,"is_jinke":false},"geometry":{"type":"Point","coordinates":[121.5673382,31.161028549999997]}},{"type":"Feature","properties":{"station":"昌邑路","apple":30.0,"is_jinke":false},"geometry":{"type":"Point","coordinates":[121.53577039999999,31.2460307]}},{"type":"Feature","properties":{"station":"远东大道","apple":31.0,"is_jinke":false},"geometry":{"type":"Point","coordinates":[121.7509829,31.2014111]}},{"type":"Feature","properties":{"station":"杨树浦路","apple":28.0,"is_jinke":false},"geometry":{"type":"Point","coordinates":[121.5125161,31.2541829]}},{"type":"Feature","properties":{"station":"蓝村路","apple":26.0,"is_jinke":false},"geometry":{"type":"Point","coordinates":[121.52354399999999,31.21365595]}},{"type":"Feature","properties":{"station":"小南门","apple":29.0,"is_jinke":false},"geometry":{"type":"Point","coordinates":[121.4940577,31.2190076]}},{"type":"Feature","properties":{"station":"芳甸路","apple":27.0,"is_jinke":false},"geometry":{"type":"Point","coordinates":[121.5544198,31.2343994]}},{"type":"Feature","properties":{"station":"人民广场","apple":26.0,"is_jinke":false},"geometry":{"type":"Point","coordinates":[121.4705235,31.2345013]}},{"type":"Feature","properties":{"station":"云台路","apple":31.0,"is_jinke":false},"geometry":{"type":"Point","coordinates":[121.4959095,31.1842127]}},{"type":"Feature","properties":{"station":"中科路","apple":32.0,"is_jinke":false},"geometry":{"type":"Point","coordinates":[121.5975394,31.1810277]}},{"type":"Feature","properties":{"station":"丹阳路","apple":32.0,"is_jinke":false},"geometry":{"type":"Point","coordinates":[121.5260504,31.2569051]}},{"type":"Feature","properties":{"station":"康桥","apple":33.0,"is_jinke":false},"geometry":{"type":"Point","coordinates":[121.5630877,31.1365059]}},{"type":"Feature","properties":{"station":"周浦东","apple":29.0,"is_jinke":false},"geometry":{"type":"Point","coordinates":[121.6027294,31.1123526]}},{"type":"Feature","properties":{"station":"海天三路","apple":39.0,"is_jinke":false},"geometry":{"type":"Point","coordinates":[121.7926207,31.170532]}},{"type":"Feature","properties":{"station":"上海儿童医学中心","apple":29.0,"is_jinke":false},"geometry":{"type":"Point","coordinates":[121.5195474,31.2061476]}},{"type":"Feature","properties":{"station":"北洋泾路","apple":27.0,"is_jinke":false},"geometry":{"type":"Point","coordinates":[121.5477984,31.2411683]}},{"type":"Feature","properties":{"station":"塘桥","apple":32.0,"is_jinke":false},"geometry":{"type":"Point","coordinates":[121.514395,31.2118426]}},{"type":"Feature","properties":{"station":"大连路","apple":30.0,"is_jinke":false},"geometry":{"type":"Point","coordinates":[121.50848350000001,31.2600445]}},{"type":"Feature","properties":{"station":"耀华路","apple":33.0,"is_jinke":false},"geometry":{"type":"Point","coordinates":[121.49025985,31.180391399999998]}},{"type":"Feature","properties":{"station":"南京西路","apple":28.0,"is_jinke":false},"geometry":{"type":"Point","coordinates":[121.4560232,31.2304667]}},{"type":"Feature","properties":{"station":"源深路","apple":38.0,"is_jinke":false},"geometry":{"type":"Point","coordinates":[121.5264996,31.2433745]}},{"type":"Feature","properties":{"station":"豫园","apple":34.0,"is_jinke":false},"geometry":{"type":"Point","coordinates":[121.4835545,31.23069345]}},{"type":"Feature","properties":{"station":"蓝天路","apple":30.0,"is_jinke":false},"geometry":{"type":"Point","coordinates":[121.57376694999999,31.24308595]}},{"type":"Feature","properties":{"station":"陆家浜路","apple":31.0,"is_jinke":false},"geometry":{"type":"Point","coordinates":[121.4813149,31.2138337]}},{"type":"Feature","properties":{"station":"学林路","apple":38.0,"is_jinke":false},"geometry":{"type":"Point","coordinates":[121.6094521,31.185812499999997]}},{"type":"Feature","properties":{"station":"陈春路","apple":33.0,"is_jinke":false},"geometry":{"type":"Point","coordinates":[121.5538662,31.176986]}},{"type":"Feature","properties":{"station":"周浦","apple":36.0,"is_jinke":false},"geometry":{"type":"Point","coordinates":[121.563431,31.1167416]}},{"type":"Feature","properties":{"station":"平凉路","apple":32.0,"is_jinke":false},"geometry":{"type":"Point","coordinates":[121.52253,31.2610517]}},{"type":"Feature","properties":{"station":"临平路","apple":33.0,"is_jinke":false},"geometry":{"type":"Point","coordinates":[121.4964839,31.2629886]}},{"type":"Feature","properties":{"station":"临沂新村","apple":31.0,"is_jinke":false},"geometry":{"type":"Point","coordinates":[121.5131584,31.1958017]}},{"type":"Feature","properties":{"station":"南浦大桥","apple":35.0,"is_jinke":false},"geometry":{"type":"Point","coordinates":[121.4950192,31.2104023]}},{"type":"Feature","properties":{"station":"德平路","apple":30.0,"is_jinke":false},"geometry":{"type":"Point","coordinates":[121.5600894,31.2476236]}},{"type":"Feature","properties":{"station":"浦东1号2号航站楼","apple":43.0,"is_jinke":false},"geometry":{"type":"Point","coordinates":[121.8015174,31.15236575]}},{"type":"Feature","properties":{"station":"长清路","apple":34.0,"is_jinke":false},"geometry":{"type":"Point","coordinates":[121.4828993,31.176278600000003]}},{"type":"Feature","properties":{"station":"大世界","apple":34.0,"is_jinke":false},"geometry":{"type":"Point","coordinates":[121.4750583,31.22889165]}},{"type":"Feature","properties":{"station":"北蔡","apple":35.0,"is_jinke":false},"geometry":{"type":"Point","coordinates":[121.5478098,31.182163]}},{"type":"Feature","properties":{"station":"张江路","apple":41.0,"is_jinke":false},"geometry":{"type":"Point","coordinates":[121.6269441,31.1915332]}},{"type":"Feature","properties":{"station":"秀沿路","apple":32.0,"is_jinke":false},"geometry":{"type":"Point","coordinates":[121.5942175,31.1403484]}},{"type":"Feature","properties":{"station":"静安寺","apple":30.0,"is_jinke":false},"geometry":{"type":"Point","coordinates":[121.4421389,31.2249232]}},{"type":"Feature","properties":{"station":"台儿庄路","apple":34.0,"is_jinke":false},"geometry":{"type":"Point","coordinates":[121.5931398,31.2544453]}},{"type":"Feature","properties":{"station":"天潼路","apple":32.0,"is_jinke":false},"geometry":{"type":"Point","coordinates":[121.47788495,31.2457666]}},{"type":"Feature","properties":{"station":"马当路","apple":33.0,"is_jinke":false},"geometry":{"type":"Point","coordinates":[121.4718909,31.2114769]}},{"type":"Feature","properties":{"station":"鹤沙航城","apple":33.0,"is_jinke":false},"geometry":{"type":"Point","coordinates":[121.6070663,31.0800591]}},{"type":"Feature","properties":{"station":"东明路","apple":36.0,"is_jinke":false},"geometry":{"type":"Point","coordinates":[121.50702615,31.174807649999998]}},{"type":"Feature","properties":{"station":"江浦公园","apple":34.0,"is_jinke":false},"geometry":{"type":"Point","coordinates":[121.51921415000001,31.2668975]}},{"type":"Feature","properties":{"station":"繁荣路","apple":38.0,"is_jinke":false},"geometry":{"type":"Point","coordinates":[121.5661615,31.1056269]}},{"type":"Feature","properties":{"station":"歇浦路","apple":42.0,"is_jinke":false},"geometry":{"type":"Point","coordinates":[121.547042,31.2526656]}},{"type":"Feature","properties":{"station":"浦三路","apple":36.0,"is_jinke":false},"geometry":{"type":"Point","coordinates":[121.5350543,31.1531902]}},{"type":"Feature","properties":{"station":"云山路","apple":32.0,"is_jinke":false},"geometry":{"type":"Point","coordinates":[121.56733905,31.25267375]}},{"type":"Feature","properties":{"station":"海伦路","apple":35.0,"is_jinke":false},"geometry":{"type":"Point","coordinates":[121.4850594,31.2611414]}},{"type":"Feature","properties":{"station":"西藏南路","apple":35.0,"is_jinke":false},"geometry":{"type":"Point","coordinates":[121.4851163,31.2036713]}},{"type":"Feature","properties":{"station":"后滩","apple":36.0,"is_jinke":false},"geometry":{"type":"Point","coordinates":[121.46936475000001,31.175329599999998]}},{"type":"Feature","properties":{"station":"一大会址·黄陂南路","apple":37.0,"is_jinke":false},"geometry":{"type":"Point","coordinates":[121.46865295,31.22529495]}},{"type":"Feature","properties":{"station":"下南路","apple":37.0,"is_jinke":false},"geometry":{"type":"Point","coordinates":[121.5362495,31.1814746]}},{"type":"Feature","properties":{"station":"江苏路","apple":33.0,"is_jinke":false},"geometry":{"type":"Point","coordinates":[121.42662895,31.22149155]}},{"type":"Feature","properties":{"station":"四川北路","apple":34.0,"is_jinke":false},"geometry":{"type":"Point","coordinates":[121.4794725,31.2537236]}},{"type":"Feature","properties":{"station":"老西门","apple":36.0,"is_jinke":false},"geometry":{"type":"Point","coordinates":[121.4787259,31.220886]}},{"type":"Feature","properties":{"station":"康新公路","apple":35.0,"is_jinke":false},"geometry":{"type":"Point","coordinates":[121.6131827,31.1326897]}},{"type":"Feature","properties":{"station":"高青路","apple":39.0,"is_jinke":false},"geometry":{"type":"Point","coordinates":[121.5113016,31.1614947]}},{"type":"Feature","properties":{"station":"打浦桥","apple":35.0,"is_jinke":false},"geometry":{"type":"Point","coordinates":[121.46391905,31.20832705]}},{"type":"Feature","properties":{"station":"金桥","apple":36.0,"is_jinke":false},"geometry":{"type":"Point","coordinates":[121.6072181,31.2631226]}},{"type":"Feature","properties":{"station":"江浦路","apple":36.0,"is_jinke":false},"geometry":{"type":"Point","coordinates":[121.51434795,31.27652725]}},{"type":"Feature","properties":{"station":"沈梅路","apple":39.0,"is_jinke":false},"geometry":{"type":"Point","coordinates":[121.5757477,31.0939092]}},{"type":"Feature","properties":{"station":"宝山路","apple":38.0,"is_jinke":false},"geometry":{"type":"Point","coordinates":[121.4717878,31.2534974]}},{"type":"Feature","properties":{"station":"新闸路","apple":35.0,"is_jinke":false},"geometry":{"type":"Point","coordinates":[121.4636467,31.2405472]}},{"type":"Feature","properties":{"station":"曲阜路","apple":38.0,"is_jinke":false},"geometry":{"type":"Point","coordinates":[121.46710505,31.2443051]}},{"type":"Feature","properties":{"station":"金桥路","apple":35.0,"is_jinke":false},"geometry":{"type":"Point","coordinates":[121.5775913,31.2593229]}},{"type":"Feature","properties":{"station":"鲁班路","apple":37.0,"is_jinke":false},"geometry":{"type":"Point","coordinates":[121.4705633,31.2010784]}},{"type":"Feature","properties":{"station":"三林东","apple":39.0,"is_jinke":false},"geometry":{"type":"Point","coordinates":[121.5188767,31.1486404]}},{"type":"Feature","properties":{"station":"龙华中路","apple":39.0,"is_jinke":false},"geometry":{"type":"Point","coordinates":[121.45219245,31.1861809]}},{"type":"Feature","properties":{"station":"提篮桥","apple":38.0,"is_jinke":false},"geometry":{"type":"Point","coordinates":[121.5023557,31.2554264]}},{"type":"Feature","properties":{"station":"航头东","apple":36.0,"is_jinke":false},"geometry":{"type":"Point","coordinates":[121.6132685,31.0572803]}},{"type":"Feature","properties":{"station":"华鹏路","apple":40.0,"is_jinke":false},"geometry":{"type":"Point","coordinates":[121.5222605,31.1784416]}},{"type":"Feature","properties":{"station":"一大会址·新天地","apple":38.0,"is_jinke":false},"geometry":{"type":"Point","coordinates":[121.46988139999999,31.218017699999997]}},{"type":"Feature","properties":{"station":"中山公园","apple":36.0,"is_jinke":false},"geometry":{"type":"Point","coordinates":[121.41130785,31.21999385]}},{"type":"Feature","properties":{"station":"中华艺术宫","apple":40.0,"is_jinke":false},"geometry":{"type":"Point","coordinates":[121.4893244,31.1872227]}},{"type":"Feature","properties":{"station":"华夏西路","apple":41.0,"is_jinke":false},"geometry":{"type":"Point","coordinates":[121.5103152,31.1519915]}},{"type":"Feature","properties":{"station":"成山路","apple":40.0,"is_jinke":false},"geometry":{"type":"Point","coordinates":[121.49239775000001,31.1731258]}},{"type":"Feature","properties":{"station":"黄杨路","apple":40.0,"is_jinke":false},"geometry":{"type":"Point","coordinates":[121.5862834,31.2359808]}},{"type":"Feature","properties":{"station":"嘉善路","apple":37.0,"is_jinke":false},"geometry":{"type":"Point","coordinates":[121.456381,31.204453]}},{"type":"Feature","properties":{"station":"抚顺路","apple":38.0,"is_jinke":false},"geometry":{"type":"Point","coordinates":[121.5113331,31.2860526]}},{"type":"Feature","properties":{"station":"金吉路","apple":36.0,"is_jinke":false},"geometry":{"type":"Point","coordinates":[121.6247128,31.2666619]}},{"type":"Feature","properties":{"station":"鹤涛路","apple":42.0,"is_jinke":false},"geometry":{"type":"Point","coordinates":[121.5818149,31.0743335]}},{"type":"Feature","properties":{"station":"迪士尼","apple":42.0,"is_jinke":false},"geometry":{"type":"Point","coordinates":[121.6637253,31.1434348]}},{"type":"Feature","properties":{"station":"中兴路","apple":40.0,"is_jinke":false},"geometry":{"type":"Point","coordinates":[121.4643534,31.255078]}},{"type":"Feature","properties":{"station":"汉中路","apple":37.0,"is_jinke":false},"geometry":{"type":"Point","coordinates":[121.4543465,31.242627]}},{"type":"Feature","properties":{"station":"陕西南路","apple":36.0,"is_jinke":false},"geometry":{"type":"Point","coordinates":[121.4546929,31.2177863]}},{"type":"Feature","properties":{"station":"上海火车站","apple":40.0,"is_jinke":false},"geometry":{"type":"Point","coordinates":[121.45219705,31.250383300000003]}},{"type":"Feature","properties":{"station":"博兴路","apple":37.0,"is_jinke":false},"geometry":{"type":"Point","coordinates":[121.5826511,31.2661406]}},{"type":"Feature","properties":{"station":"大木桥路","apple":40.0,"is_jinke":false},"geometry":{"type":"Point","coordinates":[121.4592279,31.195805149999998]}},{"type":"Feature","properties":{"station":"东安路","apple":41.0,"is_jinke":false},"geometry":{"type":"Point","coordinates":[121.4500245,31.19277725]}},{"type":"Feature","properties":{"station":"三林","apple":41.0,"is_jinke":false},"geometry":{"type":"Point","coordinates":[121.507929,31.1453958]}},{"type":"Feature","properties":{"station":"国际客运中心","apple":40.0,"is_jinke":false},"geometry":{"type":"Point","coordinates":[121.4939618,31.2521438]}},{"type":"Feature","properties":{"station":"宁国路","apple":41.0,"is_jinke":false},"geometry":{"type":"Point","coordinates":[121.5283015,31.2706832]}},{"type":"Feature","properties":{"station":"武定路","apple":42.0,"is_jinke":false},"geometry":{"type":"Point","coordinates":[121.4317639,31.2289]}},{"type":"Feature","properties":{"station":"邮电新村","apple":38.0,"is_jinke":false},"geometry":{"type":"Point","coordinates":[121.4898084,31.2704149]}},{"type":"Feature","properties":{"station":"淮海中路","apple":41.0,"is_jinke":false},"geometry":{"type":"Point","coordinates":[121.4598334,31.2218467]}},{"type":"Feature","properties":{"station":"自然博物馆","apple":43.0,"is_jinke":false},"geometry":{"type":"Point","coordinates":[121.457925,31.2377862]}},{"type":"Feature","properties":{"station":"上南路","apple":43.0,"is_jinke":false},"geometry":{"type":"Point","coordinates":[121.5019944,31.1511939]}},{"type":"Feature","properties":{"station":"世博大道","apple":45.0,"is_jinke":false},"geometry":{"type":"Point","coordinates":[121.47859485000001,31.1838692]}},{"type":"Feature","properties":{"station":"杨思","apple":42.0,"is_jinke":false},"geometry":{"type":"Point","coordinates":[121.4890118,31.1630199]}},{"type":"Feature","properties":{"station":"娄山关路","apple":39.0,"is_jinke":false},"geometry":{"type":"Point","coordinates":[121.3967585,31.2133704]}},{"type":"Feature","properties":{"station":"云顺路","apple":42.0,"is_jinke":false},"geometry":{"type":"Point","coordinates":[121.5964372,31.2392917]}},{"type":"Feature","properties":{"station":"常熟路","apple":41.0,"is_jinke":false},"geometry":{"type":"Point","coordinates":[121.44551115,31.21527385]}},{"type":"Feature","properties":{"station":"昌平路","apple":43.0,"is_jinke":false},"geometry":{"type":"Point","coordinates":[121.4381473,31.2354606]}},{"type":"Feature","properties":{"station":"下沙","apple":44.0,"is_jinke":false},"geometry":{"type":"Point","coordinates":[121.5848189,31.0567896]}},{"type":"Feature","properties":{"station":"国权路","apple":40.0,"is_jinke":false},"geometry":{"type":"Point","coordinates":[121.5062272,31.291247650000003]}},{"type":"Feature","properties":{"station":"世博会博物馆","apple":42.0,"is_jinke":false},"geometry":{"type":"Point","coordinates":[121.4770974,31.1992369]}},{"type":"Feature","properties":{"station":"肇嘉浜路","apple":36.0,"is_jinke":false},"geometry":{"type":"Point","coordinates":[121.4458751,31.20095415]}},{"type":"Feature","properties":{"station":"金海路","apple":41.0,"is_jinke":false},"geometry":{"type":"Point","coordinates":[121.63479715,31.2657431]}},{"type":"Feature","properties":{"station":"中潭路","apple":44.0,"is_jinke":false},"geometry":{"type":"Point","coordinates":[121.436407,31.2564321]}},{"type":"Feature","properties":{"station":"五莲路","apple":36.0,"is_jinke":false},"geometry":{"type":"Point","coordinates":[121.5837533,31.274151]}},{"type":"Feature","properties":{"station":"西藏北路","apple":43.0,"is_jinke":false},"geometry":{"type":"Point","coordinates":[121.4645728,31.265566]}},{"type":"Feature","properties":{"station":"新场","apple":40.0,"is_jinke":false},"geometry":{"type":"Point","coordinates":[121.6447327,31.0478433]}},{"type":"Feature","properties":{"station":"武宁路","apple":44.0,"is_jinke":false},"geometry":{"type":"Point","coordinates":[121.4262897,31.23555275]}},{"type":"Feature","properties":{"station":"隆昌路","apple":44.0,"is_jinke":false},"geometry":{"type":"Point","coordinates":[121.5407047,31.2776265]}},{"type":"Feature","properties":{"station":"上海图书馆","apple":43.0,"is_jinke":false},"geometry":{"type":"Point","coordinates":[121.4396546,31.2100122]}},{"type":"Feature","properties":{"station":"四平路","apple":39.0,"is_jinke":false},"geometry":{"type":"Point","coordinates":[121.49706925000001,31.2768594]}},{"type":"Feature","properties":{"station":"东方体育中心","apple":45.0,"is_jinke":false},"geometry":{"type":"Point","coordinates":[121.47591695,31.155410099999997]}},{"type":"Feature","properties":{"station":"灵岩南路","apple":45.0,"is_jinke":false},"geometry":{"type":"Point","coordinates":[121.4908095,31.1507738]}},{"type":"Feature","properties":{"station":"浦东足球场","apple":44.0,"is_jinke":false},"geometry":{"type":"Point","coordinates":[121.6107535,31.2437063]}},{"type":"Feature","properties":{"station":"威宁路","apple":42.0,"is_jinke":false},"geometry":{"type":"Point","coordinates":[121.3826767,31.2167836]}},{"type":"Feature","properties":{"station":"长寿路","apple":45.0,"is_jinke":false},"geometry":{"type":"Point","coordinates":[121.43384505,31.242259]}},{"type":"Feature","properties":{"station":"复旦大学","apple":42.0,"is_jinke":false},"geometry":{"type":"Point","coordinates":[121.4953727,31.2982596]}},{"type":"Feature","properties":{"station":"航头","apple":47.0,"is_jinke":false},"geometry":{"type":"Point","coordinates":[121.5920502,31.0393345]}},{"type":"Feature","properties":{"station":"交通大学","apple":43.0,"is_jinke":false},"geometry":{"type":"Point","coordinates":[121.4305565,31.2040947]}},{"type":"Feature","properties":{"station":"隆德路","apple":44.0,"is_jinke":false},"geometry":{"type":"Point","coordinates":[121.41893015,31.23234265]}},{"type":"Feature","properties":{"station":"鞍山新村","apple":44.0,"is_jinke":false},"geometry":{"type":"Point","coordinates":[121.5051431,31.275278049999997]}},{"type":"Feature","properties":{"station":"黄兴路","apple":45.0,"is_jinke":false},"geometry":{"type":"Point","coordinates":[121.5240955,31.2809549]}},{"type":"Feature","properties":{"station":"徐家汇","apple":42.0,"is_jinke":false},"geometry":{"type":"Point","coordinates":[121.4323653,31.1963162]}},{"type":"Feature","properties":{"station":"顾唐路","apple":43.0,"is_jinke":false},"geometry":{"type":"Point","coordinates":[121.6522724,31.2682621]}},{"type":"Feature","properties":{"station":"上海体育场","apple":44.0,"is_jinke":false},"geometry":{"type":"Point","coordinates":[121.43905430000001,31.1861434]}},{"type":"Feature","properties":{"station":"中山北路","apple":42.0,"is_jinke":false},"geometry":{"type":"Point","coordinates":[121.45447,31.2614891]}},{"type":"Feature","properties":{"station":"巨峰路","apple":41.0,"is_jinke":false},"geometry":{"type":"Point","coordinates":[121.58468855000001,31.2825586]}},{"type":"Feature","properties":{"station":"虹口足球场","apple":45.0,"is_jinke":false},"geometry":{"type":"Point","coordinates":[121.47473535,31.27256225]}},{"type":"Feature","properties":{"station":"衡山路","apple":43.0,"is_jinke":false},"geometry":{"type":"Point","coordinates":[121.4419408,31.2064527]}},{"type":"Feature","properties":{"station":"镇坪路","apple":50.0,"is_jinke":false},"geometry":{"type":"Point","coordinates":[121.42611735,31.2483655]}},{"type":"Feature","properties":{"station":"东宝兴路","apple":53.0,"is_jinke":false},"geometry":{"type":"Point","coordinates":[121.475705,31.2618273]}},{"type":"Feature","properties":{"station":"曹杨路","apple":46.0,"is_jinke":false},"geometry":{"type":"Point","coordinates":[121.41312,31.2411734]}},{"type":"Feature","properties":{"station":"爱国路","apple":52.0,"is_jinke":false},"geometry":{"type":"Point","coordinates":[121.5482806,31.2819802]}},{"type":"Feature","properties":{"station":"同济大学","apple":46.0,"is_jinke":false},"geometry":{"type":"Point","coordinates":[121.5020648,31.2844191]}},{"type":"Feature","properties":{"station":"江宁路","apple":50.0,"is_jinke":false},"geometry":{"type":"Point","coordinates":[121.4398643,31.2461078]}},{"type":"Feature","properties":{"station":"凌兆新村","apple":53.0,"is_jinke":false},"geometry":{"type":"Point","coordinates":[121.4848877,31.1430265]}},{"type":"Feature","properties":{"station":"龙华","apple":51.0,"is_jinke":false},"geometry":{"type":"Point","coordinates":[121.4484325,31.1757481]}},{"type":"Feature","properties":{"station":"金粤路","apple":50.0,"is_jinke":false},"geometry":{"type":"Point","coordinates":[121.6247466,31.2443209]}},{"type":"Feature","properties":{"station":"龙耀路","apple":52.0,"is_jinke":false},"geometry":{"type":"Point","coordinates":[121.4551734,31.1615085]}},{"type":"Feature","properties":{"station":"北新泾","apple":46.0,"is_jinke":false},"geometry":{"type":"Point","coordinates":[121.3690974,31.2183955]}},{"type":"Feature","properties":{"station":"上海财经大学","apple":51.0,"is_jinke":false},"geometry":{"type":"Point","coordinates":[121.4918856,31.3105857]}},{"type":"Feature","properties":{"station":"延安西路","apple":51.0,"is_jinke":false},"geometry":{"type":"Point","coordinates":[121.4124439,31.21142]}},{"type":"Feature","properties":{"station":"金沙江路","apple":51.0,"is_jinke":false},"geometry":{"type":"Point","coordinates":[121.40791825,31.2335998]}},{"type":"Feature","properties":{"station":"延吉中路","apple":51.0,"is_jinke":false},"geometry":{"type":"Point","coordinates":[121.5306115,31.2907317]}},{"type":"Feature","properties":{"station":"上海体育馆","apple":53.0,"is_jinke":false},"geometry":{"type":"Point","coordinates":[121.432075,31.1841962]}},{"type":"Feature","properties":{"station":"东靖路","apple":51.0,"is_jinke":false},"geometry":{"type":"Point","coordinates":[121.5846216,31.2928062]}},{"type":"Feature","properties":{"station":"延长路","apple":50.0,"is_jinke":false},"geometry":{"type":"Point","coordinates":[121.4506814,31.2733596]}},{"type":"Feature","properties":{"station":"曲阳路","apple":53.0,"is_jinke":false},"geometry":{"type":"Point","coordinates":[121.4857918,31.278536]}},{"type":"Feature","properties":{"station":"野生动物园","apple":48.0,"is_jinke":false},"geometry":{"type":"Point","coordinates":[121.6948475,31.0524277]}},{"type":"Feature","properties":{"station":"宜山路","apple":50.0,"is_jinke":false},"geometry":{"type":"Point","coordinates":[121.4227293,31.188519]}},{"type":"Feature","properties":{"station":"民雷路","apple":50.0,"is_jinke":false},"geometry":{"type":"Point","coordinates":[121.663802,31.2704573]}},{"type":"Feature","properties":{"station":"中宁路","apple":53.0,"is_jinke":false},"geometry":{"type":"Point","coordinates":[121.4100155,31.2469107]}},{"type":"Feature","properties":{"station":"复兴岛","apple":56.0,"is_jinke":false},"geometry":{"type":"Point","coordinates":[121.5569642,31.2830231]}},{"type":"Feature","properties":{"station":"虹桥路","apple":53.0,"is_jinke":false},"geometry":{"type":"Point","coordinates":[121.41683954999999,31.1989589]}},{"type":"Feature","properties":{"station":"芦恒路","apple":59.0,"is_jinke":false},"geometry":{"type":"Point","coordinates":[121.4938183,31.1202135]}},{"type":"Feature","properties":{"station":"龙漕路","apple":57.0,"is_jinke":false},"geometry":{"type":"Point","coordinates":[121.4398149,31.1713411]}},{"type":"Feature","properties":{"station":"桂桥路","apple":54.0,"is_jinke":false},"geometry":{"type":"Point","coordinates":[121.6309638,31.2526202]}},{"type":"Feature","properties":{"station":"岚皋路","apple":55.0,"is_jinke":false},"geometry":{"type":"Point","coordinates":[121.4171405,31.2580255]}},{"type":"Feature","properties":{"station":"淞虹路","apple":49.0,"is_jinke":false},"geometry":{"type":"Point","coordinates":[121.3558076,31.2199749]}},{"type":"Feature","properties":{"station":"云锦路","apple":53.0,"is_jinke":false},"geometry":{"type":"Point","coordinates":[121.4538663,31.1695006]}},{"type":"Feature","properties":{"station":"殷高路","apple":54.0,"is_jinke":false},"geometry":{"type":"Point","coordinates":[121.4909886,31.3235982]}},{"type":"Feature","properties":{"station":"红宝石路","apple":58.0,"is_jinke":false},"geometry":{"type":"Point","coordinates":[121.3935935,31.2005785]}},{"type":"Feature","properties":{"station":"长风公园","apple":59.0,"is_jinke":false},"geometry":{"type":"Point","coordinates":[121.3913599,31.2271864]}},{"type":"Feature","properties":{"station":"黄兴公园","apple":59.0,"is_jinke":false},"geometry":{"type":"Point","coordinates":[121.5288185,31.2978586]}},{"type":"Feature","properties":{"station":"上海马戏城","apple":52.0,"is_jinke":false},"geometry":{"type":"Point","coordinates":[121.4463792,31.281219649999997]}},{"type":"Feature","properties":{"station":"五角场","apple":52.0,"is_jinke":false},"geometry":{"type":"Point","coordinates":[121.5100685,31.2997402]}},{"type":"Feature","properties":{"station":"五洲大道","apple":53.0,"is_jinke":false},"geometry":{"type":"Point","coordinates":[121.5851041,31.3046922]}},{"type":"Feature","properties":{"station":"申江路","apple":57.0,"is_jinke":false},"geometry":{"type":"Point","coordinates":[121.6226106,31.2823166]}},{"type":"Feature","properties":{"station":"曹路","apple":53.0,"is_jinke":false},"geometry":{"type":"Point","coordinates":[121.6784911,31.273409]}},{"type":"Feature","properties":{"station":"桂林路","apple":53.0,"is_jinke":false},"geometry":{"type":"Point","coordinates":[121.4124743,31.1769519]}},{"type":"Feature","properties":{"station":"上海游泳馆","apple":52.0,"is_jinke":false},"geometry":{"type":"Point","coordinates":[121.4367543,31.1812817]}},{"type":"Feature","properties":{"station":"枫桥路","apple":51.0,"is_jinke":false},"geometry":{"type":"Point","coordinates":[121.4057154,31.2443442]}},{"type":"Feature","properties":{"station":"真如","apple":53.0,"is_jinke":false},"geometry":{"type":"Point","coordinates":[121.4022736,31.25257355]}},{"type":"Feature","properties":{"station":"东陆路","apple":57.0,"is_jinke":false},"geometry":{"type":"Point","coordinates":[121.5746438,31.2846873]}},{"type":"Feature","properties":{"station":"赤峰路","apple":61.0,"is_jinke":false},"geometry":{"type":"Point","coordinates":[121.4779161,31.2831792]}},{"type":"Feature","properties":{"station":"宋园路","apple":57.0,"is_jinke":false},"geometry":{"type":"Point","coordinates":[121.4079018,31.1983438]}},{"type":"Feature","properties":{"station":"浦江镇","apple":63.0,"is_jinke":false},"geometry":{"type":"Point","coordinates":[121.5018729,31.0986267]}},{"type":"Feature","properties":{"station":"漕宝路","apple":55.0,"is_jinke":false},"geometry":{"type":"Point","coordinates":[121.42971835,31.1703159]}},{"type":"Feature","properties":{"station":"新村路","apple":57.0,"is_jinke":false},"geometry":{"type":"Point","coordinates":[121.4182,31.2652861]}},{"type":"Feature","properties":{"station":"惠南","apple":58.0,"is_jinke":false},"geometry":{"type":"Point","coordinates":[121.7573174,31.056003]}},{"type":"Feature","properties":{"station":"虹桥2号航站楼","apple":56.0,"is_jinke":false},"geometry":{"type":"Point","coordinates":[121.3216102,31.1961327]}},{"type":"Feature","properties":{"station":"大渡河路","apple":59.0,"is_jinke":false},"geometry":{"type":"Point","coordinates":[121.3904607,31.23416555]}},{"type":"Feature","properties":{"station":"姚虹路","apple":60.0,"is_jinke":false},"geometry":{"type":"Point","coordinates":[121.401447,31.1933467]}},{"type":"Feature","properties":{"station":"长江南路","apple":56.0,"is_jinke":false},"geometry":{"type":"Point","coordinates":[121.48555285,31.3343414]}},{"type":"Feature","properties":{"station":"翔殷路","apple":61.0,"is_jinke":false},"geometry":{"type":"Point","coordinates":[121.5275779,31.3071133]}},{"type":"Feature","properties":{"station":"汶水路","apple":54.0,"is_jinke":false},"geometry":{"type":"Point","coordinates":[121.4455881,31.2945322]}},{"type":"Feature","properties":{"station":"江湾体育场","apple":53.0,"is_jinke":false},"geometry":{"type":"Point","coordinates":[121.5099408,31.3050228]}},{"type":"Feature","properties":{"station":"洲海路","apple":55.0,"is_jinke":false},"geometry":{"type":"Point","coordinates":[121.585197,31.3143994]}},{"type":"Feature","properties":{"station":"金京路","apple":59.0,"is_jinke":false},"geometry":{"type":"Point","coordinates":[121.6107908,31.2818724]}},{"type":"Feature","properties":{"station":"漕河泾开发区","apple":56.0,"is_jinke":false},"geometry":{"type":"Point","coordinates":[121.3930551,31.1724448]}},{"type":"Feature","properties":{"station":"杨高北路","apple":57.0,"is_jinke":false},"geometry":{"type":"Point","coordinates":[121.598584,31.2822892]}},{"type":"Feature","properties":{"station":"铜川路","apple":57.0,"is_jinke":false},"geometry":{"type":"Point","coordinates":[121.39252025,31.253037749999997]}},{"type":"Feature","properties":{"station":"大柏树","apple":63.0,"is_jinke":false},"geometry":{"type":"Point","coordinates":[121.4786881,31.291411]}},{"type":"Feature","properties":{"station":"伊犁路","apple":58.0,"is_jinke":false},"geometry":{"type":"Point","coordinates":[121.3980259,31.2011073]}},{"type":"Feature","properties":{"station":"桂林公园","apple":60.0,"is_jinke":false},"geometry":{"type":"Point","coordinates":[121.41431385,31.16937]}},{"type":"Feature","properties":{"station":"江月路","apple":65.0,"is_jinke":false},"geometry":{"type":"Point","coordinates":[121.5042158,31.0863135]}},{"type":"Feature","properties":{"station":"大华三路","apple":59.0,"is_jinke":false},"geometry":{"type":"Point","coordinates":[121.4185025,31.2756155]}},{"type":"Feature","properties":{"station":"漕溪路","apple":58.0,"is_jinke":false},"geometry":{"type":"Point","coordinates":[121.4338149,31.1786074]}},{"type":"Feature","properties":{"station":"吴中路","apple":62.0,"is_jinke":false},"geometry":{"type":"Point","coordinates":[121.409253,31.1860595]}},{"type":"Feature","properties":{"station":"梅岭北路","apple":63.0,"is_jinke":false},"geometry":{"type":"Point","coordinates":[121.3921022,31.2457461]}},{"type":"Feature","properties":{"station":"嫩江路","apple":63.0,"is_jinke":false},"geometry":{"type":"Point","coordinates":[121.5274809,31.316777]}},{"type":"Feature","properties":{"station":"通南路","apple":58.0,"is_jinke":false},"geometry":{"type":"Point","coordinates":[121.4752177,31.3395488]}},{"type":"Feature","properties":{"station":"上海南站","apple":58.0,"is_jinke":false},"geometry":{"type":"Point","coordinates":[121.4260241,31.1565603]}},{"type":"Feature","properties":{"station":"彭浦新村","apple":57.0,"is_jinke":false},"geometry":{"type":"Point","coordinates":[121.4439361,31.3074944]}},{"type":"Feature","properties":{"station":"三门路","apple":55.0,"is_jinke":false},"geometry":{"type":"Point","coordinates":[121.5038915,31.3152515]}},{"type":"Feature","properties":{"station":"外高桥保税区南","apple":58.0,"is_jinke":false},"geometry":{"type":"Point","coordinates":[121.5977257,31.3237655]}},{"type":"Feature","properties":{"station":"虹桥火车站","apple":58.0,"is_jinke":false},"geometry":{"type":"Point","coordinates":[121.3137444,31.1959975]}},{"type":"Feature","properties":{"station":"真光路","apple":59.0,"is_jinke":false},"geometry":{"type":"Point","coordinates":[121.3797034,31.2550635]}},{"type":"Feature","properties":{"station":"江湾镇","apple":66.0,"is_jinke":false},"geometry":{"type":"Point","coordinates":[121.4805955,31.3074899]}},{"type":"Feature","properties":{"station":"合川路","apple":58.0,"is_jinke":false},"geometry":{"type":"Point","coordinates":[121.3801556,31.1684275]}},{"type":"Feature","properties":{"station":"水城路","apple":61.0,"is_jinke":false},"geometry":{"type":"Point","coordinates":[121.3876028,31.2012461]}},{"type":"Feature","properties":{"station":"联航路","apple":67.0,"is_jinke":false},"geometry":{"type":"Point","coordinates":[121.5062085,31.0756303]}},{"type":"Feature","properties":{"station":"虹漕路","apple":62.0,"is_jinke":false},"geometry":{"type":"Point","coordinates":[121.4061275,31.1662502]}},{"type":"Feature","properties":{"station":"上海西站","apple":55.0,"is_jinke":false},"geometry":{"type":"Point","coordinates":[121.3966434,31.2651065]}},{"type":"Feature","properties":{"station":"惠南东","apple":63.0,"is_jinke":false},"geometry":{"type":"Point","coordinates":[121.7895151,31.0286244]}},{"type":"Feature","properties":{"station":"行知路","apple":61.0,"is_jinke":false},"geometry":{"type":"Point","coordinates":[121.4171585,31.2859284]}},{"type":"Feature","properties":{"station":"石龙路","apple":63.0,"is_jinke":false},"geometry":{"type":"Point","coordinates":[121.4386219,31.1598584]}},{"type":"Feature","properties":{"station":"市光路","apple":65.0,"is_jinke":false},"geometry":{"type":"Point","coordinates":[121.5276336,31.3247936]}},{"type":"Feature","properties":{"station":"共康路","apple":60.0,"is_jinke":false},"geometry":{"type":"Point","coordinates":[121.4420271,31.3217011]}},{"type":"Feature","properties":{"station":"锦江乐园","apple":61.0,"is_jinke":false},"geometry":{"type":"Point","coordinates":[121.4095153,31.1440689]}},{"type":"Feature","properties":{"station":"长江西路","apple":60.0,"is_jinke":false},"geometry":{"type":"Point","coordinates":[121.4705382,31.3481133]}},{"type":"Feature","properties":{"station":"殷高东路","apple":57.0,"is_jinke":false},"geometry":{"type":"Point","coordinates":[121.5024309,31.3238015]}},{"type":"Feature","properties":{"station":"七宝","apple":64.0,"is_jinke":false},"geometry":{"type":"Point","coordinates":[121.3450601,31.1574038]}},{"type":"Feature","properties":{"station":"七莘路","apple":75.0,"is_jinke":false},"geometry":{"type":"Point","coordinates":[121.3572069,31.1329965]}},{"type":"Feature","properties":{"station":"三林南","apple":81.0,"is_jinke":false},"geometry":{"type":"Point","coordinates":[121.4820207,31.1280131]}},{"type":"Feature","properties":{"station":"三鲁公路","apple":80.0,"is_jinke":false},"geometry":{"type":"Point","coordinates":[121.527389,31.056108]}},{"type":"Feature","properties":{"station":"上大路","apple":68.0,"is_jinke":false},"geometry":{"type":"Point","coordinates":[121.4038689,31.3169815]}},{"type":"Feature","properties":{"station":"上海动物园","apple":65.0,"is_jinke":false},"geometry":{"type":"Point","coordinates":[121.3634133,31.1920985]}},{"type":"Feature","properties":{"station":"上海国际旅游度假区","apple":68.0,"is_jinke":false},"geometry":{"type":"Point","coordinates":[121.6759116,31.1585237]}},{"type":"Feature","properties":{"station":"上海大学","apple":73.0,"is_jinke":false},"geometry":{"type":"Point","coordinates":[121.3839347,31.3223633]}},{"type":"Feature","properties":{"station":"上海松江站","apple":102.0,"is_jinke":false},"geometry":{"type":"Point","coordinates":[121.2263732,30.9869127]}},{"type":"Feature","properties":{"station":"上海汽车城","apple":91.0,"is_jinke":false},"geometry":{"type":"Point","coordinates":[121.1762633,31.2873157]}},{"type":"Feature","properties":{"station":"上海赛车场","apple":83.0,"is_jinke":false},"geometry":{"type":"Point","coordinates":[121.2216614,31.3338783]}},{"type":"Feature","properties":{"station":"东兰路","apple":67.0,"is_jinke":false},"geometry":{"type":"Point","coordinates":[121.3871482,31.1577076]}},{"type":"Feature","properties":{"station":"东城一路","apple":86.0,"is_jinke":false},"geometry":{"type":"Point","coordinates":[121.532093,31.03039]}},{"type":"Feature","properties":{"station":"东川路","apple":95.0,"is_jinke":false},"geometry":{"type":"Point","coordinates":[121.415259,31.0201818]}},{"type":"Feature","properties":{"station":"东方绿舟","apple":107.0,"is_jinke":false},"geometry":{"type":"Point","coordinates":[121.0148951,31.1005043]}},{"type":"Feature","properties":{"station":"中春路","apple":67.0,"is_jinke":false},"geometry":{"type":"Point","coordinates":[121.33148209999999,31.1516284]}},{"type":"Feature","properties":{"station":"丰庄","apple":67.0,"is_jinke":false},"geometry":{"type":"Point","coordinates":[121.3507104,31.2442808]}},{"type":"Feature","properties":{"station":"丰翔路","apple":75.0,"is_jinke":false},"geometry":{"type":"Point","coordinates":[121.3763776,31.3103095]}},{"type":"Feature","properties":{"station":"临洮路","apple":68.0,"is_jinke":false},"geometry":{"type":"Point","coordinates":[121.3263327,31.2650033]}},{"type":"Feature","properties":{"station":"临港大道","apple":78.0,"is_jinke":false},"geometry":{"type":"Point","coordinates":[121.9065641,30.925954]}},{"type":"Feature","properties":{"station":"乐秀路","apple":70.0,"is_jinke":false},"geometry":{"type":"Point","coordinates":[121.3092454,31.2672762]}},{"type":"Feature","properties":{"station":"九亭","apple":71.0,"is_jinke":false},"geometry":{"type":"Point","coordinates":[121.3151566,31.139455]}},{"type":"Feature","properties":{"station":"书院","apple":72.0,"is_jinke":false},"geometry":{"type":"Point","coordinates":[121.846355,30.9615776]}},{"type":"Feature","properties":{"station":"佘山","apple":82.0,"is_jinke":false},"geometry":{"type":"Point","coordinates":[121.2253618,31.1062374]}},{"type":"Feature","properties":{"station":"元江路","apple":90.0,"is_jinke":false},"geometry":{"type":"Point","coordinates":[121.427266,31.0647763]}},{"type":"Feature","properties":{"station":"兆丰路","apple":97.0,"is_jinke":false},"geometry":{"type":"Point","coordinates":[121.150315,31.289048]}},{"type":"Feature","properties":{"station":"光明路","apple":101.0,"is_jinke":false},"geometry":{"type":"Point","coordinates":[121.117186,31.29621]}},{"type":"Feature","properties":{"station":"共富新村","apple":67.0,"is_jinke":false},"geometry":{"type":"Point","coordinates":[121.4294324,31.3569381]}},{"type":"Feature","properties":{"station":"刘行","apple":82.0,"is_jinke":false},"geometry":{"type":"Point","coordinates":[121.3577657,31.3597292]}},{"type":"Feature","properties":{"station":"剑川路","apple":93.0,"is_jinke":false},"geometry":{"type":"Point","coordinates":[121.4119412,31.0284269]}},{"type":"Feature","properties":{"station":"北桥","apple":90.0,"is_jinke":false},"geometry":{"type":"Point","coordinates":[121.4054132,31.0470272]}},{"type":"Feature","properties":{"station":"华东理工大学","apple":72.0,"is_jinke":false},"geometry":{"type":"Point","coordinates":[121.4241171,31.1461157]}},{"type":"Feature","properties":{"station":"华宁路","apple":100.0,"is_jinke":false},"geometry":{"type":"Point","coordinates":[121.3905802,31.0094092]}},{"type":"Feature","properties":{"station":"南大路","apple":74.0,"is_jinke":false},"geometry":{"type":"Point","coordinates":[121.3755576,31.3004988]}},{"type":"Feature","properties":{"station":"南翔","apple":69.0,"is_jinke":false},"geometry":{"type":"Point","coordinates":[121.3185965,31.2988523]}},{"type":"Feature","properties":{"station":"南陈路","apple":70.0,"is_jinke":false},"geometry":{"type":"Point","coordinates":[121.3936629,31.3235583]}},{"type":"Feature","properties":{"station":"友谊西路","apple":72.0,"is_jinke":false},"geometry":{"type":"Point","coordinates":[121.4233186,31.3829417]}},{"type":"Feature","properties":{"station":"友谊路","apple":76.0,"is_jinke":false},"geometry":{"type":"Point","coordinates":[121.4713824,31.4059296]}},{"type":"Feature","properties":{"station":"双柏路","apple":87.0,"is_jinke":false},"geometry":{"type":"Point","coordinates":[121.4171111,31.0851992]}},{"type":"Feature","properties":{"station":"双江路","apple":65.0,"is_jinke":false},"geometry":{"type":"Point","coordinates":[121.5351579,31.355695]}},{"type":"Feature","properties":{"station":"古浪路","apple":74.0,"is_jinke":false},"geometry":{"type":"Point","coordinates":[121.3874843,31.28484495]}},{"type":"Feature","properties":{"station":"向城路","apple":33.0,"is_jinke":false},"geometry":{"type":"Point","coordinates":[121.5277708,31.2246257]}},{"type":"Feature","properties":{"station":"呼兰路","apple":65.0,"is_jinke":false},"geometry":{"type":"Point","coordinates":[121.4318178,31.341449150000003]}},{"type":"Feature","properties":{"station":"嘉定北","apple":89.0,"is_jinke":false},"geometry":{"type":"Point","coordinates":[121.2330115,31.393568]}},{"type":"Feature","properties":{"station":"嘉定新城","apple":79.0,"is_jinke":false},"geometry":{"type":"Point","coordinates":[121.2498245,31.3320802]}},{"type":"Feature","properties":{"station":"嘉定西","apple":86.0,"is_jinke":false},"geometry":{"type":"Point","coordinates":[121.223391,31.3790494]}},{"type":"Feature","properties":{"station":"嘉怡路","apple":66.0,"is_jinke":false},"geometry":{"type":"Point","coordinates":[121.3407328,31.2612945]}},{"type":"Feature","properties":{"station":"嘉松中路","apple":81.0,"is_jinke":false},"geometry":{"type":"Point","coordinates":[121.21966425,31.1660251]}},{"type":"Feature","properties":{"station":"国家会展中心","apple":61.0,"is_jinke":false},"geometry":{"type":"Point","coordinates":[121.2909119,31.1932726]}},{"type":"Feature","properties":{"station":"国帆路","apple":63.0,"is_jinke":false},"geometry":{"type":"Point","coordinates":[121.5087823,31.3416315]}},{"type":"Feature","properties":{"station":"场中路","apple":66.0,"is_jinke":false},"geometry":{"type":"Point","coordinates":[121.4086121,31.3056307]}},{"type":"Feature","properties":{"station":"基隆路","apple":71.0,"is_jinke":false},"geometry":{"type":"Point","coordinates":[121.5861815,31.3535319]}},{"type":"Feature","properties":{"station":"外环路","apple":66.0,"is_jinke":false},"geometry":{"type":"Point","coordinates":[121.3883624,31.1228126]}},{"type":"Feature","properties":{"station":"外高桥保税区北","apple":63.0,"is_jinke":false},"geometry":{"type":"Point","coordinates":[121.5826967,31.3499474]}},{"type":"Feature","properties":{"station":"大场镇","apple":63.0,"is_jinke":false},"geometry":{"type":"Point","coordinates":[121.4115867,31.2951955]}},{"type":"Feature","properties":{"station":"奉浦大道","apple":113.0,"is_jinke":false},"geometry":{"type":"Point","coordinates":[121.4444599,30.9441318]}},{"type":"Feature","properties":{"station":"奉贤新城","apple":125.0,"is_jinke":false},"geometry":{"type":"Point","coordinates":[121.4915344,30.9163132]}},{"type":"Feature","properties":{"station":"安亭","apple":96.0,"is_jinke":false},"geometry":{"type":"Point","coordinates":[121.1575136,31.2903851]}},{"type":"Feature","properties":{"station":"定边路","apple":63.0,"is_jinke":false},"geometry":{"type":"Point","coordinates":[121.3577078,31.2582645]}},{"type":"Feature","properties":{"station":"宝安公路","apple":70.0,"is_jinke":false},"geometry":{"type":"Point","coordinates":[121.426259,31.3714055]}},{"type":"Feature","properties":{"station":"宝杨路","apple":80.0,"is_jinke":false},"geometry":{"type":"Point","coordinates":[121.4750613,31.397224]}},{"type":"Feature","properties":{"station":"富锦路","apple":74.0,"is_jinke":false},"geometry":{"type":"Point","coordinates":[121.4199194,31.3941146]}},{"type":"Feature","properties":{"station":"封浜","apple":73.0,"is_jinke":false},"geometry":{"type":"Point","coordinates":[121.2925591,31.269456]}},{"type":"Feature","properties":{"station":"康恒路","apple":41.0,"is_jinke":false},"geometry":{"type":"Point","coordinates":[121.5492931,31.1564411]}},{"type":"Feature","properties":{"station":"康文路","apple":70.0,"is_jinke":false},"geometry":{"type":"Point","coordinates":[121.4144065,31.3372125]}},{"type":"Feature","properties":{"station":"康桥东","apple":71.0,"is_jinke":false},"geometry":{"type":"Point","coordinates":[121.611222,31.149121]}},{"type":"Feature","properties":{"station":"张华浜","apple":69.0,"is_jinke":false},"geometry":{"type":"Point","coordinates":[121.4942142,31.3600102]}},{"type":"Feature","properties":{"station":"徐泾北城","apple":78.0,"is_jinke":false},"geometry":{"type":"Point","coordinates":[121.2373249,31.1774592]}},{"type":"Feature","properties":{"station":"徐盈路","apple":75.0,"is_jinke":false},"geometry":{"type":"Point","coordinates":[121.2498298,31.180115]}},{"type":"Feature","properties":{"station":"文井路","apple":103.0,"is_jinke":false},"geometry":{"type":"Point","coordinates":[121.3761175,31.0055537]}},{"type":"Feature","properties":{"station":"新江湾城","apple":60.0,"is_jinke":false},"geometry":{"type":"Point","coordinates":[121.5023484,31.3307804]}},{"type":"Feature","properties":{"station":"昌吉东路","apple":88.0,"is_jinke":false},"geometry":{"type":"Point","coordinates":[121.1958929,31.2955477]}},{"type":"Feature","properties":{"station":"星中路","apple":58.0,"is_jinke":false},"geometry":{"type":"Point","coordinates":[121.3640688,31.1599995]}},{"type":"Feature","properties":{"station":"春申路","apple":81.0,"is_jinke":false},"geometry":{"type":"Point","coordinates":[121.381151,31.1001363]}},{"type":"Feature","properties":{"station":"景洪路","apple":78.0,"is_jinke":false},"geometry":{"type":"Point","coordinates":[121.43810795,31.1127594]}},{"type":"Feature","properties":{"station":"景西路","apple":83.0,"is_jinke":false},"geometry":{"type":"Point","coordinates":[121.413989,31.101516]}},{"type":"Feature","properties":{"station":"曙建路","apple":85.0,"is_jinke":false},"geometry":{"type":"Point","coordinates":[121.4130342,31.0926964]}},{"type":"Feature","properties":{"station":"望园路","apple":119.0,"is_jinke":false},"geometry":{"type":"Point","coordinates":[121.47853315,30.935452599999998]}},{"type":"Feature","properties":{"station":"朱家角","apple":104.0,"is_jinke":false},"geometry":{"type":"Point","coordinates":[121.0444783,31.1024894]}},{"type":"Feature","properties":{"station":"朱梅路","apple":76.0,"is_jinke":false},"geometry":{"type":"Point","coordinates":[121.4333425,31.1262981]}},{"type":"Feature","properties":{"station":"李子园","apple":58.0,"is_jinke":false},"geometry":{"type":"Point","coordinates":[121.3852558,31.2707095]}},{"type":"Feature","properties":{"station":"松江体育中心","apple":93.0,"is_jinke":false},"geometry":{"type":"Point","coordinates":[121.2262371,31.0179937]}},{"type":"Feature","properties":{"station":"松江大学城","apple":86.0,"is_jinke":false},"geometry":{"type":"Point","coordinates":[121.2281724,31.0561736]}},{"type":"Feature","properties":{"station":"松江新城","apple":90.0,"is_jinke":false},"geometry":{"type":"Point","coordinates":[121.2262586,31.0322111]}},{"type":"Feature","properties":{"station":"桃浦新村","apple":65.0,"is_jinke":false},"geometry":{"type":"Point","coordinates":[121.3450707,31.2834828]}},{"type":"Feature","properties":{"station":"武威东路","apple":69.0,"is_jinke":false},"geometry":{"type":"Point","coordinates":[121.387403,31.2771479]}},{"type":"Feature","properties":{"station":"武威路","apple":62.0,"is_jinke":false},"geometry":{"type":"Point","coordinates":[121.3600778,31.2783683]}},{"type":"Feature","properties":{"station":"殷高西路","apple":68.0,"is_jinke":false},"geometry":{"type":"Point","coordinates":[121.4804318,31.3219502]}},{"type":"Feature","properties":{"station":"水产路","apple":74.0,"is_jinke":false},"geometry":{"type":"Point","coordinates":[121.4836827,31.3832818]}},{"type":"Feature","properties":{"station":"永德路","apple":94.0,"is_jinke":false},"geometry":{"type":"Point","coordinates":[121.4385487,31.041227]}},{"type":"Feature","properties":{"station":"汇臻路","apple":88.0,"is_jinke":false},"geometry":{"type":"Point","coordinates":[121.524558,31.025245]}},{"type":"Feature","properties":{"station":"汇金路","apple":88.0,"is_jinke":false},"geometry":{"type":"Point","coordinates":[121.1474612,31.1631754]}},{"type":"Feature","properties":{"station":"江川路","apple":101.0,"is_jinke":false},"geometry":{"type":"Point","coordinates":[121.4187782,31.0074377]}},{"type":"Feature","properties":{"station":"江杨北路","apple":86.0,"is_jinke":false},"geometry":{"type":"Point","coordinates":[121.4352116,31.4096652]}},{"type":"Feature","properties":{"station":"沈杜公路","apple":70.0,"is_jinke":false},"geometry":{"type":"Point","coordinates":[121.5079105,31.0634917]}},{"type":"Feature","properties":{"station":"泗泾","apple":77.0,"is_jinke":false},"geometry":{"type":"Point","coordinates":[121.2558797,31.1204097]}},{"type":"Feature","properties":{"station":"洞泾","apple":85.0,"is_jinke":false},"geometry":{"type":"Point","coordinates":[121.2260333,31.0865443]}},{"type":"Feature","properties":{"station":"浦航路","apple":88.0,"is_jinke":false},"geometry":{"type":"Point","coordinates":[121.530591,31.040993]}},{"type":"Feature","properties":{"station":"淀山湖大道","apple":98.0,"is_jinke":false},"geometry":{"type":"Point","coordinates":[121.0774053,31.1361923]}},{"type":"Feature","properties":{"station":"淞发路","apple":67.0,"is_jinke":false},"geometry":{"type":"Point","coordinates":[121.4959577,31.3471701]}},{"type":"Feature","properties":{"station":"淞滨路","apple":72.0,"is_jinke":false},"geometry":{"type":"Point","coordinates":[121.4882612,31.3730074]}},{"type":"Feature","properties":{"station":"港城路","apple":76.0,"is_jinke":false},"geometry":{"type":"Point","coordinates":[121.5707186,31.3552417]}},{"type":"Feature","properties":{"station":"滴水湖","apple":81.0,"is_jinke":false},"geometry":{"type":"Point","coordinates":[121.9257641,30.9093062]}},{"type":"Feature","properties":{"station":"漕盈路","apple":94.0,"is_jinke":false},"geometry":{"type":"Point","coordinates":[121.0919563,31.162321]}},{"type":"Feature","properties":{"station":"潘广路","apple":84.0,"is_jinke":false},"geometry":{"type":"Point","coordinates":[121.3513174,31.3660078]}},{"type":"Feature","properties":{"station":"爱辉路","apple":65.0,"is_jinke":false},"geometry":{"type":"Point","coordinates":[121.4446366,31.34601]}},{"type":"Feature","properties":{"station":"环城东路","apple":117.0,"is_jinke":false},"geometry":{"type":"Point","coordinates":[121.4588819,30.9330926]}},{"type":"Feature","properties":{"station":"白银路","apple":82.0,"is_jinke":false},"geometry":{"type":"Point","coordinates":[121.240882,31.3472801]}},{"type":"Feature","properties":{"station":"真北路","apple":61.0,"is_jinke":false},"geometry":{"type":"Point","coordinates":[121.3775593,31.2340365]}},{"type":"Feature","properties":{"station":"真新新村","apple":61.0,"is_jinke":false},"geometry":{"type":"Point","coordinates":[121.3674467,31.2572465]}},{"type":"Feature","properties":{"station":"祁华路","apple":76.0,"is_jinke":false},"geometry":{"type":"Point","coordinates":[121.3688336,31.3241778]}},{"type":"Feature","properties":{"station":"祁安路","apple":74.0,"is_jinke":false},"geometry":{"type":"Point","coordinates":[121.3802641,31.2934242]}},{"type":"Feature","properties":{"station":"祁连山南路","apple":63.0,"is_jinke":false},"geometry":{"type":"Point","coordinates":[121.3626932,31.2394924]}},{"type":"Feature","properties":{"station":"祁连山路","apple":60.0,"is_jinke":false},"geometry":{"type":"Point","coordinates":[121.3722123,31.273409]}},{"type":"Feature","properties":{"station":"紫竹高新区","apple":97.0,"is_jinke":false},"geometry":{"type":"Point","coordinates":[121.4462399,31.025917]}},{"type":"Feature","properties":{"station":"紫藤路","apple":72.0,"is_jinke":false},"geometry":{"type":"Point","coordinates":[121.3609817,31.1717823]}},{"type":"Feature","properties":{"station":"罗南新村","apple":88.0,"is_jinke":false},"geometry":{"type":"Point","coordinates":[121.3527972,31.3905792]}},{"type":"Feature","properties":{"station":"罗秀路","apple":74.0,"is_jinke":false},"geometry":{"type":"Point","coordinates":[121.4311874,31.1337004]}},{"type":"Feature","properties":{"station":"美兰湖","apple":91.0,"is_jinke":false},"geometry":{"type":"Point","coordinates":[121.3452915,31.4036756]}},{"type":"Feature","properties":{"station":"航中路","apple":74.0,"is_jinke":false},"geometry":{"type":"Point","coordinates":[121.3491547,31.1671579]}},{"type":"Feature","properties":{"station":"航津路","apple":61.0,"is_jinke":false},"geometry":{"type":"Point","coordinates":[121.5897812,31.3375153]}},{"type":"Feature","properties":{"station":"花桥","apple":103.0,"is_jinke":false},"geometry":{"type":"Point","coordinates":[121.104407,31.29879]}},{"type":"Feature","properties":{"station":"莘庄","apple":68.0,"is_jinke":false},"geometry":{"type":"Point","coordinates":[121.38074585000001,31.11308195]}},{"type":"Feature","properties":{"station":"莲花路","apple":64.0,"is_jinke":false},"geometry":{"type":"Point","coordinates":[121.3982663,31.1328603]}},{"type":"Feature","properties":{"station":"萧塘","apple":110.0,"is_jinke":false},"geometry":{"type":"Point","coordinates":[121.4374021,30.9678558]}},{"type":"Feature","properties":{"station":"虹桥1号航站楼","apple":67.0,"is_jinke":false},"geometry":{"type":"Point","coordinates":[121.3427146,31.1932684]}},{"type":"Feature","properties":{"station":"虹梅南路","apple":81.0,"is_jinke":false},"geometry":{"type":"Point","coordinates":[121.4283228,31.105705]}},{"type":"Feature","properties":{"station":"虹梅路","apple":65.0,"is_jinke":false},"geometry":{"type":"Point","coordinates":[121.3926923,31.1622429]}},{"type":"Feature","properties":{"station":"虹莘路","apple":72.0,"is_jinke":false},"geometry":{"type":"Point","coordinates":[121.3758226,31.1395765]}},{"type":"Feature","properties":{"station":"蟠祥路·国家会计学院","apple":64.0,"is_jinke":false},"geometry":{"type":"Point","coordinates":[121.2817657,31.1834815]}},{"type":"Feature","properties":{"station":"蟠龙路","apple":72.0,"is_jinke":false},"geometry":{"type":"Point","coordinates":[121.2742138,31.1884239]}},{"type":"Feature","properties":{"station":"西岑","apple":114.0,"is_jinke":false},"geometry":{"type":"Point","coordinates":[120.9598944,31.0726117]}},{"type":"Feature","properties":{"station":"西渡","apple":107.0,"is_jinke":false},"geometry":{"type":"Point","coordinates":[121.42764015,30.9913353]}},{"type":"Feature","properties":{"station":"赵巷","apple":84.0,"is_jinke":false},"geometry":{"type":"Point","coordinates":[121.1877018,31.1630876]}},{"type":"Feature","properties":{"station":"通河新村","apple":62.0,"is_jinke":false},"geometry":{"type":"Point","coordinates":[121.4369064,31.3329517]}},{"type":"Feature","properties":{"station":"醉白池","apple":99.0,"is_jinke":false},"geometry":{"type":"Point","coordinates":[121.2244749,31.0028512]}},{"type":"Feature","properties":{"station":"金平路","apple":98.0,"is_jinke":false},"geometry":{"type":"Point","coordinates":[121.4054914,31.0132016]}},{"type":"Feature","properties":{"station":"金沙江西路","apple":69.0,"is_jinke":false},"geometry":{"type":"Point","coordinates":[121.3306649,31.2430562]}},{"type":"Feature","properties":{"station":"金海湖","apple":122.0,"is_jinke":false},"geometry":{"type":"Point","coordinates":[121.4877261,30.931089800000002]}},{"type":"Feature","properties":{"station":"金运路","apple":80.0,"is_jinke":false},"geometry":{"type":"Point","coordinates":[121.3148634,31.2427956]}},{"type":"Feature","properties":{"station":"铁力路","apple":82.0,"is_jinke":false},"geometry":{"type":"Point","coordinates":[121.4567134,31.4099505]}},{"type":"Feature","properties":{"station":"银都路","apple":83.0,"is_jinke":false},"geometry":{"type":"Point","coordinates":[121.3856299,31.0912508]}},{"type":"Feature","properties":{"station":"锦秋路","apple":80.0,"is_jinke":false},"geometry":{"type":"Point","coordinates":[121.3773156,31.322188]}},{"type":"Feature","properties":{"station":"闵瑞路","apple":86.0,"is_jinke":false},"geometry":{"type":"Point","coordinates":[121.530323,31.047956]}},{"type":"Feature","properties":{"station":"闵行开发区","apple":105.0,"is_jinke":false},"geometry":{"type":"Point","coordinates":[121.3650334,31.0025914]}},{"type":"Feature","properties":{"station":"陈翔公路","apple":72.0,"is_jinke":false},"geometry":{"type":"Point","coordinates":[121.3023394,31.3083445]}},{"type":"Feature","properties":{"station":"青浦新城","apple":91.0,"is_jinke":false},"geometry":{"type":"Point","coordinates":[121.1210999,31.1607843]}},{"type":"Feature","properties":{"station":"顾戴路","apple":70.0,"is_jinke":false},"geometry":{"type":"Point","coordinates":[121.3874729,31.1432364]}},{"type":"Feature","properties":{"station":"顾村公园","apple":79.0,"is_jinke":false},"geometry":{"type":"Point","coordinates":[121.3691844,31.34570335]}},{"type":"Feature","properties":{"station":"颛桥","apple":87.0,"is_jinke":false},"geometry":{"type":"Point","coordinates":[121.397231,31.068916]}},{"type":"Feature","properties":{"station":"马陆","apple":76.0,"is_jinke":false},"geometry":{"type":"Point","coordinates":[121.2723972,31.3215952]}},{"type":"Feature","properties":{"station":"高桥","apple":74.0,"is_jinke":false},"geometry":{"type":"Point","coordinates":[121.5587311,31.3547358]}},{"type":"Feature","properties":{"station":"高桥西","apple":71.0,"is_jinke":false},"geometry":{"type":"Point","coordinates":[121.5450534,31.3536141]}},{"type":"Feature","properties":{"station":"龙柏新村","apple":69.0,"is_jinke":false},"geometry":{"type":"Point","coordinates":[121.3659379,31.1792624]}},{"type":"Feature","properties":{"station":"龙溪路","apple":61.0,"is_jinke":false},"geometry":{"type":"Point","coordinates":[121.3757005,31.1963362]}}]}